{"type":"Topology","arcs":[[[78534,78184],[-204,-1821],[654,-803],[-79,-821],[401,-679],[1430,-898],[608,43],[364,-699],[716,-705],[1835,-1200],[-165,-831],[1133,-1557],[1085,-3758],[809,789],[345,-596],[666,-532]],[[88132,64116],[484,-49],[173,-2519],[1429,-1584],[874,-539],[494,-1133],[709,-585],[431,-1142],[563,-657]],[[93289,55908],[16,-733],[531,-787],[-176,-971],[170,-1940],[-99,-604],[998,-2989],[63,-1754],[-558,-1246],[-165,-1720],[-525,-1917],[37,-982],[-226,-1508],[-343,-1004],[-493,-741],[-193,-1124],[-665,-910],[-764,-410],[-716,-1275],[-548,-1950],[-590,-764]],[[89043,30579],[-587,-2516]],[[88456,28063],[-267,-104],[-809,-1770],[-511,-2891],[-60,-1951],[-1378,-782],[-2252,-81],[-839,-296],[-1046,-814],[-1171,-1270],[-1393,-341],[-610,-340],[-315,671],[-855,376],[315,405],[-145,428],[-397,18],[-221,-417],[-608,113],[453,722],[-497,547],[-767,-507],[275,-379],[-1225,-721],[-1223,-1025],[-679,222],[-1336,833]],[[70895,18709],[-1928,515],[-654,-263],[-899,819],[-834,139],[-1832,2236],[-100,532],[259,1135]],[[64907,23822],[-671,1616]],[[64236,25438],[-1111,1164],[337,977],[-1459,-843],[-733,85],[710,1680],[-46,746],[-871,1696],[-370,-818]],[[60693,30125],[-494,-1962],[-1757,-277],[284,926],[819,7],[222,901],[2,1248],[340,863],[612,800],[-173,1081],[305,304],[-173,924],[-1023,-1208]],[[59657,33732],[-446,-1245],[-1754,-1144],[-1702,-2599],[-429,1024],[-576,1927]],[[54750,31695],[-645,801],[-212,851],[-1065,467],[-436,1190],[290,571]],[[52682,35575],[-1484,1045],[-737,-3],[-989,650],[-1180,-145],[-1072,888],[-1256,573],[-784,-309],[-1420,71],[-2573,-353]],[[41187,37992],[-1910,-1040],[-1626,-564],[-1175,-134],[-1397,155],[-477,-115],[-2518,-1674],[-838,-216],[-537,-488],[-561,-1335],[-474,-685],[-962,-434],[-935,278],[-1362,-288],[-195,335],[-1427,136],[-1283,-127],[-862,-262]],[[22648,31534],[-1226,-33],[-877,-1125],[-1208,-319],[-1651,-1448],[-1204,-317],[-2314,314],[-1154,551],[-566,768],[-975,635],[-584,137],[-33,2116],[408,-366],[726,320],[364,967],[-140,1503]],[[12214,35237],[194,283],[-20,2495],[-1134,2533],[-396,1691],[-78,2236],[-222,830],[-496,775],[-198,940],[-809,1320],[-298,2096],[-693,1427],[-1040,1732],[343,389],[419,-1293],[590,645],[-574,667],[-421,1101],[313,252],[740,-1150],[136,-660],[595,-88],[-4,1251],[-1181,2499]],[[7980,57208],[-550,1547],[8,866],[286,1142],[443,899],[83,1127],[-244,1102],[599,1996]],[[8605,65887],[447,-1097],[465,-52],[489,1141],[557,589],[1298,698],[1206,1318],[1513,1076],[940,37],[580,-230],[604,224],[1120,765],[1201,324],[767,761]],[[19792,71441],[1047,-123]],[[20839,71318],[1327,369],[1482,698],[656,534],[682,1062],[739,1798],[1146,1258],[-268,195],[-168,1871],[591,981]],[[27026,80084],[627,522],[544,1002],[372,-1218],[833,-1779],[550,1766],[-625,1077],[518,852],[283,-542],[1560,768],[-424,1015],[995,1707],[878,618],[-140,656],[1092,934],[738,-304],[197,1087],[635,271],[362,-405],[725,1191],[1673,-1289],[467,-829],[678,-761],[2738,-519],[640,411],[-815,1134],[720,1179],[281,1163]],[[43128,89791],[915,773]],[[44043,90564],[-200,985],[504,770],[473,118],[119,685]],[[44939,93122],[764,183],[427,471],[474,-283],[2030,108],[461,369],[196,1318],[-432,450],[-743,-27],[-374,914],[655,-66],[913,-862],[744,151]],[[50054,95848],[348,-722],[757,-316],[806,-45],[724,-502],[654,-152],[418,218]],[[53761,94329],[1060,-678],[1240,899],[638,-1472],[389,-33],[20,864],[588,497],[389,-768],[496,-353],[-892,-1241],[124,-627],[-1450,-859],[135,-1445],[-230,-980],[-1040,-1729],[273,-692],[1467,-1151],[187,-476],[1072,-927],[473,46],[1525,-1013],[1177,-1387],[1662,-517],[519,-1227],[1712,-1068],[1033,223]],[[66328,78215],[694,600],[295,1143],[550,1052]],[[67867,81010],[419,1648],[86,1326],[378,1568]],[[68750,85552],[-223,1675],[156,907],[-265,1015],[376,1538],[-70,902],[519,1042],[-379,250]],[[68864,92881],[278,1175],[317,525]],[[69459,94581],[408,1780],[64,934],[626,683],[579,-866],[248,-847],[77,-1470],[666,-380],[-149,-997],[633,-962],[403,-2296],[-83,-850],[452,-1736],[446,-326],[1112,660],[380,-745],[1391,-1287],[-35,-1524],[405,-1657],[-70,-999],[1035,-1897],[487,-1615]],[[23500,99999],[-244,-590],[-562,-250],[-640,268],[-398,572],[1844,0]],[[31727,99999],[-363,-425],[-1239,-557],[-307,757],[1909,225]],[[76180,12038],[521,48],[1171,-728],[1078,-397],[1462,489],[1011,-26],[362,448],[755,186],[705,-478],[18,-3123],[-606,-627],[-213,-894],[122,-1670],[-424,-180],[-461,1069],[-360,-137],[-1161,-2054],[-707,296],[-1099,-109],[-1208,1773],[-477,1092],[-65,1499],[-1001,1717],[-286,1251],[375,741],[488,-186]],[[88004,98179],[-1012,171],[-571,640],[-1777,280],[-486,252],[-717,-53],[-1582,530]],[[81859,99999],[4805,0],[1083,-542],[257,-1278]],[[58899,83490],[-329,190],[146,334],[183,-524]],[[58397,83942],[-38,217],[68,119],[29,-247],[-59,-89]],[[57806,83919],[-167,2],[18,241],[195,-3],[-46,-240]],[[49116,96277],[-217,397],[-22,361],[238,114],[78,-490],[-77,-382]],[[84877,70595],[-228,22],[92,372],[136,-394]],[[84642,71000],[-106,18],[97,213],[54,-188],[-45,-43]],[[78865,76481],[139,-482],[-232,-145],[-259,453],[352,174]],[[70162,97985],[-181,-163],[-132,347],[146,139],[167,-323]],[[70301,99450],[-129,-177],[-137,53],[5,246],[261,-122]],[[69929,99559],[-152,92],[111,200],[94,-96],[-53,-196]],[[64147,81219],[-757,-482],[290,784],[467,-302]],[[64041,79672],[73,355],[170,-298],[-243,-57]],[[58075,89131],[66,-768],[324,-630],[-1154,184],[133,1040],[631,174]],[[57037,89072],[-249,23],[201,433],[131,-361],[-83,-95]],[[57822,96059],[-84,60],[194,418],[201,49],[-311,-527]],[[57257,95421],[-155,74],[396,255],[46,-63],[-287,-266]],[[44476,95201],[-569,60],[-97,517],[405,401],[261,-978]],[[44823,96067],[879,120],[533,412],[588,-705],[-536,-783],[-742,-616],[-665,526],[-483,847],[426,199]],[[33041,86915],[-234,-35],[57,285],[175,49],[2,-299]],[[31733,84565],[-249,176],[79,208],[187,-254],[-17,-130]],[[11839,69177],[-126,-223],[-173,156],[274,409],[25,-342]],[[6920,54133],[-476,772],[-122,609],[161,142],[437,-1523]],[[81208,4580],[-103,-297],[-316,202],[324,428],[95,-333]],[[82835,6542],[-178,200],[109,135],[210,-168],[-141,-167]],[[81379,5026],[-187,24],[-64,249],[170,77],[81,-350]],[[75617,12838],[-79,-237],[-82,298],[161,-61]],[[73756,13954],[-144,1080],[499,286],[108,-902],[-463,-464]],[[83317,13409],[322,-359],[-808,-55],[486,414]],[[82609,14978],[645,-652],[-416,-789],[-468,707],[239,734]],[[83123,12814],[-107,-221],[-153,203],[260,18]],[[59992,26461],[162,-455],[-484,-506],[-1507,119],[-253,813],[1511,446],[571,-417]],[[77144,18986],[-328,-189],[-88,292],[416,-103]],[[76770,18597],[-95,-82],[-310,-23],[195,198],[210,-93]],[[94649,50181],[-187,-786],[-124,133],[86,742],[225,-89]],[[94439,50525],[-143,231],[7,531],[189,32],[-88,-467],[35,-327]],[[93646,54997],[-219,570],[133,1023],[679,372],[-593,-1965]],[[89448,61454],[325,-656],[-243,-58],[-328,602],[246,112]],[[88079,64792],[-118,42],[128,227],[60,-224],[-70,-45]],[[86800,65162],[-128,122],[13,218],[80,72],[35,-412]],[[89306,99942],[442,57],[-117,-556],[-325,499]],[[88909,98384],[-30,-223],[-179,66],[-7,189],[216,-32]],[[96262,96109],[-472,-165],[82,308],[390,-143]],[[94643,95781],[-342,-238],[-314,398],[157,183],[499,-343]],[[29165,99134],[-197,110],[152,265],[45,-375]],[[28150,97401],[244,602],[673,639],[103,-504],[-1020,-737]],[[25832,98312],[-341,49],[307,384],[34,-433]],[[22648,31534],[2145,389],[1427,-136],[195,-335],[1362,288],[935,-278],[962,434],[1035,2020],[537,488],[838,216],[2518,1674],[1874,-40],[1175,134],[1626,564],[1910,1040]],[[41187,37992],[2573,353],[1420,-71],[784,309],[1256,-573],[1072,-888],[1180,145],[989,-650],[737,3],[1484,-1045]],[[52682,35575],[-290,-571],[436,-1190],[1065,-467],[212,-851],[645,-801]],[[54750,31695],[1005,-2951],[1702,2599],[1754,1144],[446,1245]],[[59657,33732],[1023,1208],[173,-924],[-305,-304],[173,-1081],[-952,-1663],[-224,-2149],[-819,-7],[-284,-926],[1757,277],[494,1962]],[[60693,30125],[370,818],[871,-1696],[46,-746],[-710,-1680],[733,-85],[1459,843],[-337,-977],[1111,-1164]],[[64907,23822],[-159,-1667],[1832,-2236],[834,-139],[899,-819],[654,263],[1928,-515]],[[70895,18709],[2015,-1055],[1223,1025],[1225,721],[492,886],[497,-547],[-453,-722],[1911,-923],[315,-671],[2003,681],[1171,1270],[1046,814],[839,296],[2252,81],[1378,782],[60,1951],[511,2891],[809,1770],[267,104]],[[89043,30579],[590,764],[548,1950],[716,1275],[764,410],[665,910],[193,1124],[836,1745],[226,1508],[-37,982],[525,1917],[165,1720],[558,1246],[-63,1754],[-998,2989],[99,604],[-170,1940],[176,971],[-531,787],[-16,733]],[[93289,55908],[-563,657],[-431,1142],[-709,585],[-494,1133],[-874,539],[-1429,1584],[-173,2519],[-484,49]],[[88132,64116],[-1011,1128],[-809,-789],[-1085,3758],[-1133,1557],[165,831],[-1835,1200],[-716,705],[-364,699],[-608,-43],[-1430,898],[-401,679],[79,821],[-654,803],[204,1821]],[[78534,78184],[-487,1615],[-1035,1897],[70,999],[-405,1657],[35,1524],[-1391,1287],[-380,745],[-1112,-660],[-446,326],[-452,1736],[83,850],[-403,2296],[-633,962],[149,997],[-666,380],[-77,1470],[-248,847],[-579,866],[-626,-683],[-64,-934],[-408,-1780]],[[69459,94581],[-595,-1700]],[[68864,92881],[379,-250],[-519,-1042],[70,-902],[-376,-1538],[265,-1015],[-156,-907],[223,-1675]],[[68750,85552],[-378,-1568],[-86,-1326],[-419,-1648]],[[67867,81010],[-550,-1052],[-295,-1143],[-694,-600]],[[66328,78215],[-1033,-223],[-1712,1068],[-519,1227],[-1662,517],[-1177,1387],[-1525,1013],[-473,-46],[-1072,927],[-187,476],[-1467,1151],[-273,692],[1040,1729],[230,980],[-135,1445],[1450,859],[-124,627],[892,1241],[-496,353],[-389,768],[-588,-497],[-409,-831],[-638,1472],[-1240,-899],[-1060,678]],[[53761,94329],[-1072,-66],[-724,502],[-1563,361],[-348,722]],[[50054,95848],[-744,-151],[-913,862],[-281,-848],[743,27],[432,-450],[-196,-1318],[-461,-369],[-2030,-108],[-474,283],[-427,-471],[-764,-183]],[[44939,93122],[-119,-685],[-473,-118],[-504,-770],[200,-985]],[[43128,89791],[-281,-1163],[-720,-1179],[815,-1134],[-640,-411],[-2738,519],[-1145,1590],[-1673,1289],[-725,-1191],[-362,405],[-635,-271],[-197,-1087],[-738,304],[-1092,-934],[140,-656],[-878,-618],[-995,-1707],[424,-1015],[-1560,-768],[-283,542],[-518,-852],[625,-1077],[-550,-1766],[-833,1779],[-372,1218],[-544,-1002],[-627,-522]],[[27026,80084],[-591,-981],[168,-1871],[268,-195],[-1146,-1258],[-739,-1798],[-682,-1062],[-656,-534],[-1482,-698],[-1327,-369]],[[19792,71441],[-767,-761],[-1201,-324],[-1724,-989],[-1520,193],[-1513,-1076],[-1206,-1318],[-1298,-698],[-557,-589],[-489,-1141],[-465,52],[-447,1097]],[[8605,65887],[-599,-1996],[244,-1102],[-83,-1127],[-443,-899],[-294,-2008],[550,-1547]],[[7980,57208],[1181,-2499],[4,-1251],[-595,88],[-136,660],[-740,1150],[-313,-252],[421,-1101],[574,-667],[-590,-645],[-419,1293],[-343,-389],[1040,-1732],[693,-1427],[298,-2096],[809,-1320],[198,-940],[718,-1605],[78,-2236],[396,-1691],[1134,-2533],[20,-2495],[-194,-283]],[[12214,35237],[140,-1503],[-364,-967],[-726,-320],[-408,366],[33,-2116],[1559,-772],[1067,-970],[653,-349],[2314,-314],[1204,317],[1651,1448],[1208,319],[877,1125],[1226,33]],[[88004,98179],[-257,1278],[-1083,542],[3084,0],[10251,0],[0,-99999],[-99999,0],[0,99999],[21656,0],[398,-572],[640,-268],[562,250],[244,590],[6057,0],[104,-888],[464,-94],[1239,557],[363,425]],[[31727,99999],[50132,0]],[[81859,99999],[1582,-530],[3155,-609],[396,-510],[1012,-171]],[[80335,4279],[1346,1876],[461,-1069],[424,180],[-122,1670],[213,894],[606,627],[-18,3123],[-705,478],[-1117,-634],[-1011,26],[-1462,-489],[-1078,397],[-1171,728],[-1009,138],[-375,-741],[286,-1251],[1001,-1717],[65,-1499],[477,-1092],[1208,-1773],[1981,128]],[[99999,99997],[0,0],[-1087,0],[-1087,0],[-1087,0],[-1087,0],[-1087,0],[-1087,0],[-1087,0],[-1087,0],[-1087,0],[-1087,0],[-1087,0],[-1087,0],[-6,0]],[[86949,99997],[-1081,0],[-1086,0],[-1087,0],[-1087,0],[-1087,0],[-1087,0],[-1087,0],[-1087,0],[-1087,0],[-1087,0],[-1087,0],[-1087,0],[-1087,0],[-1087,0],[-1087,0],[-1087,0],[-1087,0],[-1087,0],[-1087,0],[-1087,0],[-6,0]],[[65210,99997],[-1080,0],[-1087,0],[-1087,0],[-1087,0],[-1087,0],[-1087,0],[-1087,0],[-1087,0],[-1087,0],[-1087,0],[-1087,0],[-1087,0],[-1087,0],[-1087,0],[-1087,0],[-1087,0],[-1087,0],[-1087,0],[-1087,0],[-1087,0],[-5,0]],[[43472,99997],[-1081,0],[-1087,0],[-1087,0],[-1087,0],[-1087,0],[-1087,0],[-1087,0],[-1087,0],[-1087,0],[-1087,0],[-1087,0],[-1087,0],[-1087,0],[-1087,0],[-1086,0],[-1087,0],[-1087,0],[-1087,0],[-1087,0],[-1087,0],[-6,0]],[[21733,99997],[-1081,0],[-1087,0],[-1087,0],[-1087,0],[-1087,0],[-1087,0],[-1087,0],[-1087,0],[-1087,0],[-1087,0],[-1087,0],[-1087,0],[-1087,0],[-1087,0],[-1086,0],[-1087,0],[-1087,0],[-1087,0],[-1087,0],[-1087,0]],[[99999,71426],[0,0],[-1087,0],[-1087,0],[-1087,0],[-1087,0],[-1087,0],[-1087,0],[-1087,0],[-1087,0],[-1087,0],[-1087,0],[-1087,0],[-1087,0],[-6,0]],[[86949,71426],[-1081,0],[-1086,0],[-1087,0],[-1087,0],[-1087,0],[-1087,0],[-1087,0],[-1087,0],[-1087,0],[-1087,0],[-1087,0],[-1087,0],[-1087,0],[-1087,0],[-1087,0],[-1087,0],[-1087,0],[-1087,0],[-1087,0],[-1087,0],[-6,0]],[[65210,71426],[-1080,0],[-1087,0],[-1087,0],[-1087,0],[-1087,0],[-1087,0],[-1087,0],[-1087,0],[-1087,0],[-1087,0],[-1087,0],[-1087,0],[-1087,0],[-1087,0],[-1087,0],[-1087,0],[-1087,0],[-1087,0],[-1087,0],[-1087,0],[-5,0]],[[43472,71426],[-1081,0],[-1087,0],[-1087,0],[-1087,0],[-1087,0],[-1087,0],[-1087,0],[-1087,0],[-1087,0],[-1087,0],[-1087,0],[-1087,0],[-1087,0],[-1087,0],[-1086,0],[-1087,0],[-1087,0],[-1087,0],[-1087,0],[-1087,0],[-6,0]],[[21733,71426],[-1081,0],[-1087,0],[-1087,0],[-1087,0],[-1087,0],[-1087,0],[-1087,0],[-1087,0],[-1087,0],[-1087,0],[-1087,0],[-1087,0],[-1087,0],[-1087,0],[-1086,0],[-1087,0],[-1087,0],[-1087,0],[-1087,0],[-1087,0]],[[99999,42855],[-1087,0],[-1087,0],[-1087,0],[-1087,0],[-1087,0],[-1087,0],[-1087,0],[-1087,0],[-1087,0],[-1086,0],[-1087,0],[-1087,0],[-7,0]],[[86949,42855],[-1080,0],[-1087,0],[-1087,0],[-1087,0],[-1087,0],[-1087,0],[-1087,0],[-1087,0],[-1087,0],[-1087,0],[-1087,0],[-1087,0],[-1087,0],[-1087,0],[-1087,0],[-1087,0],[-1086,0],[-1087,0],[-1087,0],[-1087,0],[-7,0]],[[65210,42855],[-1080,0],[-1087,0],[-1087,0],[-1087,0],[-1087,0],[-1087,0],[-1087,0],[-1087,0],[-1087,0],[-1087,0],[-1087,0],[-1087,0],[-1087,0],[-1087,0],[-1087,0],[-1087,0],[-1086,0],[-1087,0],[-1087,0],[-1087,0],[-6,0]],[[43472,42855],[-1081,0],[-1087,0],[-1087,0],[-1087,0],[-1087,0],[-1087,0],[-1087,0],[-1087,0],[-1087,0],[-1087,0],[-1087,0],[-1087,0],[-1086,0],[-1087,0],[-1087,0],[-1087,0],[-1087,0],[-1087,0],[-1087,0],[-1087,0],[-6,0]],[[21733,42855],[-1081,0],[-1087,0],[-1087,0],[-1087,0],[-1087,0],[-1087,0],[-1087,0],[-1087,0],[-1087,0],[-1087,0],[-1086,0],[-1087,0],[-1087,0],[-1087,0],[-1087,0],[-1087,0],[-1087,0],[-1087,0],[-1087,0],[-1087,0]],[[99999,14285],[-1087,0],[-1087,0],[-1087,0],[-1087,0],[-1087,0],[-1087,0],[-1087,0],[-1087,0],[-1087,0],[-1086,0],[-1087,0],[-1087,0],[-7,0]],[[86949,14285],[-1080,0],[-1087,0],[-1087,0],[-1087,0],[-1087,0],[-1087,0],[-1087,0],[-1087,0],[-1087,0],[-1087,0],[-1087,0],[-1087,0],[-1087,0],[-1087,0],[-1087,0],[-1086,0],[-1087,0],[-1087,0],[-1087,0],[-1087,0],[-7,0]],[[65210,14285],[-1080,0],[-1087,0],[-1087,0],[-1087,0],[-1087,0],[-1087,0],[-1087,0],[-1087,0],[-1087,0],[-1087,0],[-1087,0],[-1087,0],[-1087,0],[-1087,0],[-1087,0],[-1086,0],[-1087,0],[-1087,0],[-1087,0],[-1087,0],[-6,0]],[[43472,14285],[-1081,0],[-1087,0],[-1087,0],[-1087,0],[-1087,0],[-1087,0],[-1087,0],[-1087,0],[-1087,0],[-1087,0],[-1087,0],[-1087,0],[-1086,0],[-1087,0],[-1087,0],[-1087,0],[-1087,0],[-1087,0],[-1087,0],[-1087,0],[-6,0]],[[21733,14285],[-1081,0],[-1087,0],[-1087,0],[-1087,0],[-1087,0],[-1087,0],[-1087,0],[-1087,0],[-1087,0],[-1087,0],[-1086,0],[-1087,0],[-1087,0],[-1087,0],[-1087,0],[-1087,0],[-1087,0],[-1087,0],[-1087,0],[-1087,0]],[[86949,0],[0,0],[0,1429],[0,1428],[0,1429],[0,1428],[0,1429],[0,1428],[0,1429],[0,1429],[0,1428],[0,1428]],[[86949,14285],[0,1],[0,1428],[0,1429],[0,1428],[0,1429],[0,1428],[0,1429],[0,1429],[0,1428],[0,1429],[0,1428],[0,1429],[0,1428],[0,1429],[0,1428],[0,1429],[0,1429],[0,1428],[0,1429],[0,1428],[0,1427]],[[86949,42855],[0,2],[0,1428],[0,1429],[0,1428],[0,1429],[0,1429],[0,1428],[0,1429],[0,1428],[0,1429],[0,1428],[0,1429],[0,1428],[0,1429],[0,1429],[0,1428],[0,1429],[0,1428],[0,1429],[0,1428],[0,1427]],[[86949,71426],[0,2],[0,1429],[0,1428],[0,1429],[0,1428],[0,1429],[0,1428],[0,1429],[0,1428],[0,1429],[0,1429],[0,1428],[0,1429],[0,1428],[0,1429],[0,1428],[0,1429],[0,1428],[0,1429],[0,1429],[0,1426]],[[86949,99997],[0,2]],[[65210,0],[0,0],[0,1429],[0,1428],[0,1429],[0,1428],[0,1429],[0,1428],[0,1429],[0,1429],[0,1428],[0,1428]],[[65210,14285],[0,1],[0,1428],[0,1429],[0,1428],[0,1429],[0,1428],[0,1429],[0,1429],[0,1428],[0,1429],[0,1428],[0,1429],[0,1428],[0,1429],[0,1428],[0,1429],[0,1429],[0,1428],[0,1429],[0,1428],[0,1427]],[[65210,42855],[0,2],[0,1428],[0,1429],[0,1428],[0,1429],[0,1429],[0,1428],[0,1429],[0,1428],[0,1429],[0,1428],[0,1429],[0,1428],[0,1429],[0,1429],[0,1428],[0,1429],[0,1428],[0,1429],[0,1428],[0,1427]],[[65210,71426],[0,2],[0,1429],[0,1428],[0,1429],[0,1428],[0,1429],[0,1428],[0,1429],[0,1428],[0,1429],[0,1429],[0,1428],[0,1429],[0,1428],[0,1429],[0,1428],[0,1429],[0,1428],[0,1429],[0,1429],[0,1426]],[[65210,99997],[0,2]],[[43472,0],[0,0],[0,1429],[0,1428],[0,1429],[0,1428],[0,1429],[0,1428],[0,1429],[0,1429],[0,1428],[0,1428]],[[43472,14285],[0,1],[0,1428],[0,1429],[0,1428],[0,1429],[0,1428],[0,1429],[0,1429],[0,1428],[0,1429],[0,1428],[0,1429],[0,1428],[0,1429],[0,1428],[0,1429],[0,1429],[0,1428],[0,1429],[0,1428],[0,1427]],[[43472,42855],[0,2],[0,1428],[0,1429],[0,1428],[0,1429],[0,1429],[0,1428],[0,1429],[0,1428],[0,1429],[0,1428],[0,1429],[0,1428],[0,1429],[0,1429],[0,1428],[0,1429],[0,1428],[0,1429],[0,1428],[0,1427]],[[43472,71426],[0,2],[0,1429],[0,1428],[0,1429],[0,1428],[0,1429],[0,1428],[0,1429],[0,1428],[0,1429],[0,1429],[0,1428],[0,1429],[0,1428],[0,1429],[0,1428],[0,1429],[0,1428],[0,1429],[0,1429],[0,1426]],[[43472,99997],[0,2]],[[21733,0],[0,0],[0,1429],[0,1428],[0,1429],[0,1428],[0,1429],[0,1428],[0,1429],[0,1429],[0,1428],[0,1428]],[[21733,14285],[0,1],[0,1428],[0,1429],[0,1428],[0,1429],[0,1428],[0,1429],[0,1429],[0,1428],[0,1429],[0,1428],[0,1429],[0,1428],[0,1429],[0,1428],[0,1429],[0,1429],[0,1428],[0,1429],[0,1428],[0,1427]],[[21733,42855],[0,2],[0,1428],[0,1429],[0,1428],[0,1429],[0,1429],[0,1428],[0,1429],[0,1428],[0,1429],[0,1428],[0,1429],[0,1428],[0,1429],[0,1429],[0,1428],[0,1429],[0,1428],[0,1429],[0,1428],[0,1427]],[[21733,71426],[0,2],[0,1429],[0,1428],[0,1429],[0,1428],[0,1429],[0,1428],[0,1429],[0,1428],[0,1429],[0,1429],[0,1428],[0,1429],[0,1428],[0,1429],[0,1428],[0,1429],[0,1428],[0,1429],[0,1429],[0,1426]],[[21733,99997],[0,2]]],"transform":{"scale":[0.0004600046000460005,0.0003500035000350003],"translate":[110,-45]},"objects":{"land":{"type":"GeometryCollection","geometries":[{"arcs":[[0,1,2,3,4,5,6,7,8,9,10,11,12,13,14,15,16,17,18,19,20,21,22,23,24,25,26,27,28,29]],"type":"Polygon"},{"arcs":[[30]],"type":"Polygon"},{"arcs":[[31]],"type":"Polygon"},{"arcs":[[32]],"type":"Polygon"},{"arcs":[[33,34]],"type":"Polygon"},{"arcs":[[35]],"type":"Polygon"},{"arcs":[[36]],"type":"Polygon"},{"arcs":[[37]],"type":"Polygon"},{"arcs":[[38]],"type":"Polygon"},{"arcs":[[39]],"type":"Polygon"},{"arcs":[[40]],"type":"Polygon"},{"arcs":[[41]],"type":"Polygon"},{"arcs":[[42]],"type":"Polygon"},{"arcs":[[43]],"type":"Polygon"},{"arcs":[[44]],"type":"Polygon"},{"arcs":[[45]],"type":"Polygon"},{"arcs":[[46]],"type":"Polygon"},{"arcs":[[47]],"type":"Polygon"},{"arcs":[[48]],"type":"Polygon"},{"arcs":[[49]],"type":"Polygon"},{"arcs":[[50]],"type":"Polygon"},{"arcs":[[51]],"type":"Polygon"},{"arcs":[[52]],"type":"Polygon"},{"arcs":[[53]],"type":"Polygon"},{"arcs":[[54]],"type":"Polygon"},{"arcs":[[55]],"type":"Polygon"},{"arcs":[[56]],"type":"Polygon"},{"arcs":[[57]],"type":"Polygon"},{"arcs":[[58]],"type":"Polygon"},{"arcs":[[59]],"type":"Polygon"},{"arcs":[[60]],"type":"Polygon"},{"arcs":[[61]],"type":"Polygon"},{"arcs":[[62]],"type":"Polygon"},{"arcs":[[63]],"type":"Polygon"},{"arcs":[[64]],"type":"Polygon"},{"arcs":[[65]],"type":"Polygon"},{"arcs":[[66]],"type":"Polygon"},{"arcs":[[67]],"type":"Polygon"},{"arcs":[[68]],"type":"Polygon"},{"arcs":[[69]],"type":"Polygon"},{"arcs":[[70]],"type":"Polygon"},{"arcs":[[71]],"type":"Polygon"},{"arcs":[[72]],"type":"Polygon"},{"arcs":[[73]],"type":"Polygon"},{"arcs":[[74]],"type":"Polygon"},{"arcs":[[75]],"type":"Polygon"},{"arcs":[[76]],"type":"Polygon"},{"arcs":[[77]],"type":"Polygon"},{"arcs":[[78]],"type":"Polygon"},{"arcs":[[79]],"type":"Polygon"},{"arcs":[[80]],"type":"Polygon"}]},"ocean":{"type":"GeometryCollection","geometries":[{"arcs":[[107,108,109],[81,82,83,84,85,86,-7,87,88,-4,89,90,91,92,93,94,95,96,97,98,99,100,-21,101,102,-18,103,104,105,106],[110]],"type":"Polygon"}]},"graticules":{"type":"GeometryCollection","geometries":[{"type":"LineString","arcs":[111,112,113,114,115]},{"type":"LineString","arcs":[116,117,118,119,120]},{"type":"LineString","arcs":[121,122,123,124,125]},{"type":"LineString","arcs":[126,127,128,129,130]},{"type":"LineString","arcs":[131,132,133,134,135]},{"type":"LineString","arcs":[136,137,138,139,140]},{"type":"LineString","arcs":[141,142,143,144,145]},{"type":"LineString","arcs":[146,147,148,149,150]}]}}}