{"type":"Topology","arcs":[[[39499,35672],[-564,-266],[-283,-202],[-1072,-513],[-495,-198],[-617,-117],[-575,-263],[-598,-185],[-579,-91],[-921,-38],[-751,101],[-458,150],[-263,-143],[-175,21],[-338,-178],[-817,-643],[-490,-159],[-593,-330],[-236,-75],[-241,-287],[-475,-210],[-864,-146],[-383,-254],[-208,-250],[-265,-694],[-138,-636],[-149,-63],[-331,-376],[-44,-238],[-423,-270],[-548,-57],[-189,-248],[-294,-46],[-152,369],[-152,53],[-359,-109],[-219,48],[-524,-89],[-35,-144],[-418,129],[-191,-27],[-307,-286],[-201,169],[-221,414],[-193,-10],[-305,-198],[-309,116],[-144,-60],[-235,170],[-489,13],[-411,-158],[-169,76],[-312,-83],[-253,42],[-190,-89],[-535,-16],[-368,-234],[-598,115],[-435,16],[-481,-176],[-575,-469],[-239,-429],[22,-217],[-243,-79],[-7,-165],[-276,-78],[-22,-167],[-353,149],[-454,79],[-139,-181],[-364,-154],[-53,-267],[-555,-207],[-227,-325],[-6,-246],[-296,-9],[-355,-226],[-665,-115],[-97,-137],[-308,75],[-358,-137],[-440,203],[-461,32],[-77,-147],[-246,124],[-346,-87],[-267,87],[-325,-21],[-475,82],[-532,368],[-562,143],[-211,319],[-462,544],[-327,282],[-682,393],[-371,37],[-185,-127],[-223,246],[-115,535],[-17,716],[60,185],[-78,294],[219,433],[179,-236],[403,-102],[372,165],[204,248],[294,636],[73,34],[19,784],[-180,1085],[413,177],[-134,195],[76,243],[-77,456],[105,350],[-72,389],[39,380],[-54,464],[-101,370],[-319,638],[-236,392],[-348,933],[-324,489],[-196,578],[-310,1252],[33,204],[-112,342],[61,384],[-53,729],[80,532],[-202,735],[-158,423],[-441,537],[-184,379],[30,386],[-144,399],[-266,362],[-277,510],[-354,368],[-169,858],[115,393],[-171,718],[-152,394],[-609,1185],[-427,724],[-720,831],[-130,469],[187,353],[106,-318],[211,83],[113,-377],[139,-171],[112,-401],[238,-286],[387,208],[84,155],[-5,448],[-253,302],[-240,59],[-262,395],[-49,443],[-336,635],[5,220],[227,434],[44,-326],[559,-855],[-62,-92],[-76,-634],[224,-175],[129,254],[215,-209],[84,-418],[329,-347],[255,216],[66,176],[-104,360],[162,618],[-59,184],[60,255],[-253,156],[-65,222],[-196,204],[-297,588],[-309,830],[-220,140],[-251,693],[-16,491],[-405,583],[-118,356],[-15,491],[118,236],[-46,360],[111,416],[245,502],[98,322],[340,320],[110,597],[-84,491],[155,332],[-10,360],[-117,423],[-248,182],[-30,448],[209,293],[178,444],[231,841],[278,565],[363,203],[-201,-1145],[231,-424],[-119,-214],[-30,-264],[170,-132],[262,235],[198,-105],[61,359],[260,580],[60,282],[269,511],[37,163],[693,446],[433,86],[291,198],[567,254],[364,508],[500,323],[320,527],[528,265],[165,380],[116,-59],[415,120],[374,260],[383,353],[335,-287],[450,273],[331,-185],[384,-131],[392,64],[220,146],[177,-44],[404,164],[249,371],[478,390],[234,-29],[225,108],[114,-79],[584,157],[235,-25],[319,167],[312,471],[38,160],[231,202],[353,65],[403,-105],[468,-216],[578,307],[659,132],[412,44],[1013,428],[746,387],[588,482],[290,353],[510,849],[303,774],[3,278],[307,178],[12,334],[123,280],[212,-38],[275,238],[487,560],[254,139],[111,259],[-20,190],[-405,164],[23,700],[-153,439],[16,663],[55,240],[264,364],[-8,149],[335,348],[416,49],[-126,246],[98,255],[329,5],[133,545],[314,275],[73,287],[222,124],[-40,-462],[-75,-153],[470,-678],[-19,-317],[288,-301],[48,-258],[132,-183],[162,-498],[85,-45],[294,-521],[33,468],[111,437],[77,92],[-158,271],[138,307],[494,-421],[-104,395],[265,421],[-330,-59],[-185,444],[-311,340],[215,393],[-6,370],[-274,284],[135,326],[433,-22],[-94,-285],[251,-326],[371,244],[344,42],[237,-368],[294,-37],[142,164],[181,-120],[291,-24],[10,223],[-450,-35],[-85,368],[126,218],[222,-103],[171,246],[-15,314],[64,269],[183,53],[-13,267],[-170,-45],[-232,-488],[-273,285],[-64,559],[98,54],[-36,328],[248,274],[308,-112],[168,392],[0,225],[245,19],[301,-206],[318,-409],[98,450],[-127,197],[-268,-170],[-145,262],[-69,326],[162,122],[294,47],[-48,299],[290,-194],[220,-24],[234,-278],[155,129],[-48,339],[-180,1],[-189,184],[71,213],[-218,394],[337,295],[454,313],[86,115],[203,-120],[82,374],[-78,435],[265,-73],[-87,-240],[64,-437],[147,185],[192,-49],[16,-334],[237,163],[285,29],[-136,376],[184,98],[27,368],[171,93],[-17,300],[-148,206],[43,300],[142,-22],[48,-347],[110,-151],[-56,-179],[139,-190],[351,652],[271,23],[168,-591],[333,230],[-9,332],[288,192],[-174,450],[504,204],[288,-312],[92,-372],[528,105],[236,-73],[174,-347],[434,-359],[221,-318],[83,-245],[220,-216],[65,-173],[662,-600],[47,-369],[-112,-36],[-201,-869],[387,-403],[-71,607],[289,453],[257,-402],[-38,647],[319,209],[741,-260],[408,-84]],[[39499,85882],[0,-3122],[0,-2077],[0,-2076],[0,-2076],[0,-2076],[0,-2076],[0,-2077],[0,-2076],[0,-2076],[0,-2076],[0,-3115],[0,-3114],[0,-3115],[0,-2076]],[[39499,52654],[0,-2124],[0,-3186],[0,-2124],[0,-2124],[0,-3186],[0,-2124],[0,-2114]],[[730,52451],[-150,42],[-269,340],[-200,436],[-111,485],[0,322],[217,82],[107,-659],[406,-1048]],[[6251,68384],[-63,-265],[-180,-173],[-135,224],[219,323],[159,-109]],[[30153,87070],[-6,-375],[-253,-34],[81,376],[178,33]],[[39499,85882],[425,-288],[6,-280],[215,-146],[-102,788],[253,-56],[373,-214],[299,-547],[149,81],[-115,440],[82,305],[193,149],[-288,355],[-53,314],[-122,63],[-436,408],[37,237],[295,552],[7,165],[544,219],[70,163],[-76,240],[248,354],[-75,258],[128,493],[323,-60],[478,292],[269,340],[-277,440],[-103,46],[28,643],[126,118],[161,-109],[177,94],[81,190],[-17,440],[576,378],[101,392],[-36,153],[437,-147],[0,-203],[146,-168],[98,322],[-143,151],[179,199],[313,-78],[12,320],[-73,244],[285,49],[246,-179],[250,357],[24,-268],[194,-255],[211,-81],[716,81],[295,152],[72,-132],[275,-130],[308,255],[240,123],[378,-152],[41,229],[339,182],[122,150],[59,531],[-143,243],[252,391],[-247,94],[-245,435],[-308,123],[-310,-59],[-390,-189],[-336,415],[-55,174],[-171,52],[-19,287],[226,-132],[182,334],[156,-158],[87,-282],[184,-192],[0,652],[130,-190],[267,150],[83,-203],[224,-59],[490,-819],[209,48],[372,479],[246,-301],[320,-722],[295,-164],[210,123],[323,-306],[353,-127],[148,189],[169,0],[126,165],[244,-72],[-143,-347],[245,-175],[158,97],[306,-15],[141,-394],[234,150],[239,-223],[344,-64],[202,44],[246,265],[157,39],[227,-534],[261,-58],[253,-340],[462,113],[110,280],[211,110],[175,-66],[184,98],[87,257],[414,158],[116,-142],[-51,-247],[-284,-277],[47,-216],[236,-60],[282,315],[359,-477],[-101,-154],[94,-276],[564,43],[127,172],[146,379],[-124,164],[-328,41],[296,409],[88,2],[281,322],[203,-152],[140,-540],[246,-324],[185,120],[-12,233],[283,-176],[180,-396],[-216,-235],[-298,-122],[11,-216],[-161,-368],[-190,-186],[-314,-175],[39,-175],[361,-311],[-344,-60],[173,-248],[-287,-472],[-205,64],[12,387],[-166,-77],[10,-214],[-321,-218],[-181,230],[-126,-258],[-416,-241],[93,-154],[-163,-234],[-24,-431],[226,-448],[167,-142],[-33,-308],[-168,-175],[-49,-526],[-354,-386],[-206,-421],[-124,-75],[-227,-447],[-24,-210],[-322,-264],[31,-221],[161,-400],[200,-212],[250,-70],[138,-165],[373,-233],[223,-265],[709,-476],[68,-361],[198,-206],[167,-22],[275,-291],[205,-107],[383,-436],[340,-106],[210,215],[133,-173],[502,-294],[272,-303],[335,-165],[130,16],[481,-239],[296,-552],[328,-312]],[[61606,80887],[0,-2682],[0,-1762],[0,-1762],[0,-2643],[0,-1762],[0,-1762],[0,-1762],[0,-2644],[0,-1762],[0,-1762],[0,-1762],[0,-1762],[0,-2644],[0,-1762]],[[61606,52654],[-2073,0],[-1381,0],[-2764,0],[-2763,0],[-2072,0],[-2764,0],[-2763,0],[-1382,0],[-2072,0],[-2073,0]],[[59340,83246],[-190,-107],[-141,357],[140,156],[204,-110],[-13,-296]],[[58205,83880],[-68,-287],[-168,-21],[13,322],[223,-14]],[[57397,89352],[-62,-262],[-124,-97],[-141,165],[141,327],[186,-133]],[[59030,87932],[-119,-351],[-417,128],[-231,-72],[-438,191],[-126,654],[51,359],[404,193],[-36,389],[256,-115],[84,-324],[193,-72],[-14,-193],[-183,-435],[16,-364],[214,79],[150,-146],[196,79]],[[43274,95324],[241,-188],[-152,-188],[-189,-24],[-430,206],[-428,-163],[-230,6],[27,392],[253,-4],[84,117],[-134,491],[302,450],[197,-4],[121,-279],[-6,-303],[159,-172],[-34,-305],[219,-32]],[[45731,96195],[-134,-184],[-124,-394],[-133,68],[-209,-418],[-477,-311],[-292,-293],[-657,379],[-530,448],[-36,314],[-127,179],[-158,752],[84,236],[261,-369],[165,5],[290,-440],[79,113],[299,73],[104,141],[299,-125],[352,316],[298,178],[140,-158],[237,-22],[115,-420],[154,-68]],[[58569,97309],[-107,-401],[-320,-607],[-11,277],[438,731]],[[48070,96951],[152,381],[153,-228],[-78,-133],[111,-277],[-152,-193],[-186,450]],[[61606,52654],[1842,0],[1842,0],[1842,0],[1843,0],[0,-3358],[0,-3358],[0,-2239]],[[68975,43699],[0,-2813],[0,-1875],[0,-1875],[0,-1875],[0,-2813],[0,-1875],[0,-1854]],[[68975,28719],[-81,95],[0,-1730],[1,-2983],[0,-1492],[0,-2983],[1,-2969]],[[68896,16657],[-625,-34],[-273,98],[-596,465],[-293,645],[-254,211],[-56,232],[-310,91],[-475,652],[-131,262],[115,163],[-285,516],[277,153],[193,403],[-24,434],[-704,1631],[-271,351],[46,183],[-709,614],[-358,259],[231,316],[243,-147],[24,-439],[231,21],[44,281],[-337,257],[385,129],[-182,321],[-192,112],[-298,-210],[-346,-73],[20,-184],[-214,-254],[-334,65],[-263,-85],[-265,-235],[-870,-67],[-171,142],[38,195],[404,255],[170,255],[174,95],[110,412],[-14,311],[101,161],[-52,547],[123,395],[-236,196],[-443,707],[-82,352],[-365,574],[-152,-295],[53,-241],[-262,-319],[-118,-522],[67,-102],[-91,-407],[-133,-272],[-177,-620],[1,-221],[-187,-143],[-271,149],[-387,20],[-175,-143],[-229,0],[-171,-209],[-318,45],[-212,-170],[-290,109],[308,451],[-47,173],[218,414],[268,-78],[313,62],[305,-146],[135,110],[29,346],[135,548],[-131,508],[80,559],[-94,287],[246,275],[-54,169],[204,221],[-32,193],[278,267],[151,280],[379,230],[16,264],[-312,800],[109,207],[464,196],[-20,176],[-191,183],[-136,648],[-145,438],[-220,-157],[115,-136],[19,-355],[-207,-394],[-123,104],[-545,-552],[-158,-459],[-28,-287],[-373,-786],[-171,-157],[-331,-73],[-135,137],[-388,-370],[-491,-282],[-64,-137],[-521,-372],[-337,-702],[-288,-224],[25,-207],[-462,-244],[-184,-488],[105,-316],[264,-524],[-364,150],[-301,204],[-268,-274],[-70,217],[-428,500],[-489,440],[-297,-39],[197,334],[530,-532],[-25,514],[-120,587],[-181,477],[-33,352],[-171,313],[-835,761],[44,279],[-132,573],[-373,380],[-531,213],[-277,-152],[-134,126],[-216,646],[-322,106],[179,225],[-144,363],[485,-54],[5,430],[-308,391],[-285,-28],[-92,-119],[-346,-70],[13,211],[223,208],[-338,424],[-295,173],[-24,199],[-236,58],[-84,-206],[-328,116],[-17,-233],[-261,61],[-387,-17],[-226,264],[-299,139],[-334,314],[-518,65],[-274,-61],[18,-213],[-266,34],[-346,-53],[-383,373],[-724,538],[-607,364],[-881,382],[-209,-43],[-243,-186],[-392,-141],[-1663,83],[-991,-124],[-532,-20],[-210,-63],[-616,-39],[-492,-98]],[[61924,23352],[-201,-305],[-283,129],[-432,12],[-352,-158],[17,-226],[-396,-247],[-216,215],[-392,91],[-176,-185],[-295,61],[-415,-26],[-332,-96],[-145,265],[-305,185],[217,480],[453,129],[661,108],[682,257],[206,-75],[459,85],[-103,-432],[258,-91],[227,54],[85,-215],[235,246],[383,-96],[160,-165]],[[61606,80887],[151,-212],[301,-252],[313,-157],[151,12],[294,-145],[404,43],[236,-183],[697,-222],[61,-185],[236,-166],[-40,-250],[166,-505],[159,-186],[404,-82],[497,-467],[402,-108],[297,-158],[182,-253],[592,12],[656,196],[608,473],[192,81],[122,312],[53,363],[136,450],[-32,166],[620,941],[86,388],[171,391],[113,650],[184,426],[-113,429],[56,103],[93,760],[117,507],[205,572],[25,205],[143,231],[66,388],[-151,399],[-203,1176],[28,249],[145,463],[-20,505],[-243,380],[-27,514],[210,849],[232,415],[90,278],[-134,298],[-125,545],[104,199],[312,276],[135,450],[4,249],[-357,427],[0,-308],[-175,54],[390,950],[117,456],[173,266],[110,-299],[146,74],[-69,434],[453,1665],[67,559],[-34,501],[71,158],[366,85],[191,243],[117,316],[248,19],[160,-111],[-160,-277],[159,-90],[49,-187],[264,-132],[118,-328],[28,-575],[168,-339],[-120,-258],[91,-380],[37,-734],[249,-222],[366,44],[198,-215],[-289,-497],[-23,-537],[266,-41],[166,-138],[63,-317],[111,-187],[271,-165],[-169,-573],[35,-143],[289,-11],[14,-653],[61,-368],[-2,-392],[166,-316],[9,-264],[-83,-224],[-73,-497],[206,-569],[169,-173],[50,-583],[185,-575],[189,-217],[226,-72],[283,139],[232,237],[59,330],[290,-149],[355,206],[164,211],[172,-275],[-11,-296],[96,-357],[143,-215],[194,9],[98,-142],[220,-28],[136,-348],[178,-173],[346,-159],[300,-327],[169,13],[-242,-455],[-28,-212],[164,-354],[-114,-311],[43,-438],[228,-638],[-26,-460],[261,-469],[-68,-418],[68,-217],[-117,-182],[-35,-325],[155,-114],[284,-569],[202,-167],[286,-470],[151,11],[252,-144],[-146,-328],[172,-366],[39,-239],[252,-446],[-6,-370],[195,-348],[-111,-220],[-12,-672],[-231,-672],[49,-319],[190,-258],[202,-91],[75,-334],[308,-104],[-116,-548],[-38,-489],[139,-253],[279,-301],[511,-366],[225,29],[390,-393],[180,61],[197,-96],[267,-250],[624,-38],[70,48],[247,-371],[105,-344],[-3,-257],[227,-316],[247,-22],[-84,430],[234,-130],[33,-268],[221,-248],[302,92],[143,-177],[303,-81],[129,-211],[-102,-146],[464,-331],[-24,268],[301,132],[109,-459],[446,-220],[140,-183],[3,-216],[179,-155],[-490,-83],[-169,-163],[161,-235],[47,-253],[196,-123],[224,-338],[149,8],[183,-326],[257,-49],[198,-279],[-86,-272],[73,-276],[164,-137],[154,-524],[181,-266],[121,-402],[-106,-212],[106,-223],[12,-260],[308,-874],[237,-417],[-27,-313],[336,299],[122,-235],[348,-257],[-243,762],[165,404],[155,63],[246,-372],[152,-384],[207,-70],[523,-349],[134,633],[169,-58],[300,-417],[-86,-112],[73,-271],[180,-260],[-129,-803],[-23,-573],[167,-350],[-111,-100],[170,-628],[420,-179],[242,-285],[150,-384],[223,-59],[309,-377],[434,-321],[252,-14],[239,119],[76,-358],[300,-205],[173,-595],[135,-309],[225,-314],[383,-314],[242,-73],[213,-295],[36,-453],[420,-724],[339,-125],[242,-12],[61,-561],[-100,-326],[-10,-308],[560,-733],[192,-46],[-143,-336],[-158,-654],[89,-528],[-9,-565],[101,-113],[4,-717],[132,-362],[-305,-192],[-108,-188],[185,-206],[-119,-203],[211,-124],[139,-337],[105,-23],[141,-315],[19,-229],[319,-464],[-33,-149],[43,-635],[140,-228]],[[99694,46238],[-304,-263],[-467,-67],[-186,-269],[-665,72],[-234,-96],[-235,108],[-283,13],[-117,168],[-332,-343],[-475,-182],[-482,-296],[99,-307],[145,-191],[-101,-515],[-226,-145],[-421,-70],[-82,175],[-429,-197],[-323,-595],[-177,-33],[-87,198],[-69,532],[-259,191],[-256,60],[-78,304],[-620,298],[-423,-71],[-422,37],[-372,333],[-306,-51],[-377,-143],[-640,-21],[-135,-61],[-311,164],[-229,-34],[-168,-289],[-346,-175],[-290,-268],[-156,-58],[-75,-262],[-225,-189],[-1683,-1],[-2386,0],[-1193,0],[-2386,0],[-1194,0],[-2386,0],[-1193,0],[-2387,0],[-2386,0],[-2386,0]],[[99647,48430],[52,-266],[-129,-647],[-114,276],[-28,404],[219,233]],[[99461,48655],[-86,274],[-39,543],[259,17],[-99,-359],[-35,-475]],[[99359,55672],[-252,-796],[-262,-620],[-190,-604],[-207,-188],[-125,527],[295,666],[-74,434],[269,207],[192,259],[34,341],[-188,301],[79,190],[211,165],[0,-493],[51,-212],[167,-177]],[[94200,59620],[68,-245],[-205,-89],[-135,252],[-441,616],[95,102],[426,-181],[192,-455]],[[88790,69623],[-236,-19],[-93,131],[89,338],[240,-450]],[[82039,75391],[-67,-328],[-167,81],[-60,270],[-190,387],[384,-125],[100,-285]],[[65443,79402],[17,-183],[-304,-21],[155,342],[132,-138]],[[65865,81181],[14,-90],[-318,-238],[-142,208],[-211,-250],[-54,-291],[-350,-179],[-406,82],[209,512],[162,164],[776,216],[320,-134]],[[72058,98424],[-6,-151],[-245,-115],[-86,305],[231,167],[106,-206]],[[72152,99999],[115,-155],[-124,-207],[-218,119],[32,200],[195,43]],[[99694,46238],[138,-76],[70,-279],[-68,-575],[31,-384],[134,-215],[-72,-298],[11,-316],[-373,-502],[-77,-375],[-202,-482],[73,-221],[-105,-503],[-14,-395],[-151,-734],[-150,-276],[12,-279],[-141,-468],[-236,-559],[-154,-780],[42,-302],[204,-271],[-102,-197],[32,-252],[-194,-265],[-9,-460],[-148,-301],[44,-185],[-219,-258],[8,-224],[-146,-178],[-236,-542],[-206,-180],[-154,-292],[-89,-353],[134,-132],[-95,-226],[-11,-435],[-293,-185],[-409,-351],[-160,-231],[46,-221],[-625,-171],[-248,-147],[-401,-585],[-110,-390],[-154,-219],[-269,-117],[123,-167],[-144,-226],[-52,-274],[-199,-62],[-83,-432],[-41,-593],[-106,-334],[-219,-41],[21,-277],[-346,-270],[-253,-387],[-15,-466],[-290,-185],[200,-131],[-119,-567],[-197,-226],[56,-385],[-198,-117],[20,-281],[-368,-278],[-171,-331],[19,-146],[-202,-280],[-1,-213],[-252,-483],[-218,-152],[35,-277],[-196,-149],[26,-188],[-99,-584],[48,-500],[-155,-197],[-33,-539],[-334,-788],[-64,-292],[98,-373],[-166,-127],[298,-163],[54,-210],[-168,-189],[51,-675]],[[91012,18296],[-2649,1300],[-1662,815],[-230,52],[223,397],[-128,223],[-319,1013],[33,193],[-119,338],[-696,358],[-385,-170],[-180,150],[-214,-62],[-221,-254],[-447,19],[-110,-173],[-365,-36],[-754,364],[-472,29],[-115,-190],[-415,-25],[-630,236],[-528,36],[-423,362],[-299,12],[-287,-109],[-285,74],[-515,-49],[-91,-81],[-199,-542],[-367,-175],[-339,206],[-443,454],[-241,477],[-354,224],[-197,276],[-250,93],[-544,409],[-445,173],[-35,332],[-428,210],[-106,214],[-80,431],[71,467],[-535,320],[-512,123],[-380,220],[-131,-57],[-95,-395],[-109,-155],[-212,40],[-241,545],[-179,174],[-35,265],[86,263],[-363,250],[-58,241],[-346,63],[-170,175],[-338,-54],[-341,81],[-203,-71],[-241,-259],[-432,239],[-150,-33],[-219,205],[-482,41],[-111,131]],[[89484,24716],[-395,540],[-211,98],[-681,-500],[-136,-537],[55,-639],[381,-539],[257,-81],[132,261],[-49,649],[160,299],[86,386],[401,63]],[[91012,18296],[-454,-127],[-296,-440],[-461,-256],[-442,-37],[-872,26],[-540,-101],[-295,37],[-731,-37],[-958,-284],[-390,-199],[-413,-285],[-476,-416],[-1270,-1266],[-1147,-285],[-150,134],[-233,-21],[-180,-161],[192,-186],[63,-274],[285,153],[127,-271],[-48,-417],[-419,278],[-202,381],[-221,145],[-216,-229],[-216,2],[-261,733],[-586,-34],[-302,332],[-41,321],[308,172],[-197,419],[-442,39],[-393,-504],[-275,-278],[-339,35],[-203,308],[440,112],[335,543],[-23,322],[-204,165],[-109,290],[-386,2],[-52,-126],[-690,-428],[-315,-67],[315,-213],[320,159],[175,-120],[-177,-361],[-617,-46],[-375,-300],[-483,-251],[-510,-613],[-344,-110],[-104,-188],[-308,-201],[-497,306],[-229,-21],[-445,379],[-614,172],[-384,315],[-629,315],[-426,-115],[-328,120],[-354,247],[-454,63],[-220,-67],[-174,-323],[-411,51],[-146,251],[-591,488],[-408,204]],[[79623,15313],[-337,-75],[-25,202],[242,47],[120,-174]],[[79885,15889],[-218,-334],[-204,208],[134,143],[288,-17]],[[86165,1221],[-322,265],[-184,-305],[-356,511],[170,202],[169,-130],[249,42],[-115,396],[-370,20],[-255,221],[-266,-262],[-288,-49],[-66,-350],[-186,-214],[0,-418],[-388,-135],[-402,-584],[-22,-348],[-175,-83],[-356,32],[-485,283],[-511,11],[-675,142],[-109,311],[244,74],[139,-140],[215,242],[-502,-16],[-152,293],[-221,-94],[-286,246],[-66,227],[-363,407],[-177,15],[-287,559],[-100,359],[-218,166],[-151,1038],[779,-535],[87,227],[-226,70],[-457,434],[-63,419],[-110,224],[-359,349],[-168,307],[-162,113],[-146,490],[-177,293],[-67,332],[-210,335],[-16,425],[-171,252],[29,199],[195,128],[-19,544],[726,-120],[366,-140],[356,-41],[156,-114],[907,-259],[196,-259],[305,-72],[734,-341],[515,-32],[1458,566],[377,-89],[283,194],[390,-200],[375,482],[175,63],[371,-202],[237,122],[167,347],[553,-312],[299,-481],[-153,-446],[153,-511],[-127,-381],[77,-536],[-11,-361],[-111,-148],[161,-344],[-67,-403],[158,-178],[-103,-501],[-140,83],[121,345],[-410,404],[-179,-591],[-223,-363],[55,-582],[-170,-230],[40,-385],[-158,-297],[285,-267],[-100,-303],[85,-657]],[[84539,893],[71,-142],[-122,-336],[-409,-2],[46,397],[355,298],[59,-215]],[[86449,9299],[336,104],[-140,-319],[-196,215]],[[87225,9750],[134,-163],[-186,-184],[-278,164],[-525,-59],[-196,83],[176,225],[668,124],[207,-190]],[[86205,10415],[-180,314],[-216,649],[23,199],[222,148],[525,-669],[324,-78],[-17,-297],[102,-338],[-64,-189],[-572,-51],[-147,312]],[[76602,11183],[97,-99],[-79,-312],[-467,-288],[-89,62],[-1,414],[-117,100],[58,698],[212,139],[92,246],[242,-163],[103,-542],[-51,-255]]],"transform":{"scale":[0.0004071158875588751,0.0003350098605186053],"translate":[112.91944420700007,-43.63958098799992]},"objects":{"states":{"type":"GeometryCollection","geometries":[{"arcs":[[[0,1,2]],[[3]],[[4]],[[5]]],"type":"MultiPolygon","properties":{"state":"WA","state_name":"Western Australia","state_code":"5"}},{"arcs":[[[-2,6,7,8]],[[9]],[[10]],[[11]],[[12]],[[13]],[[14]],[[15]],[[16]]],"type":"MultiPolygon","properties":{"state":"NT","state_name":"Northern Territory","state_code":"7"}},{"arcs":[[[-3,-9,17,18,19,20]],[[21]]],"type":"MultiPolygon","properties":{"state":"SA","state_name":"South Australia","state_code":"4"}},{"arcs":[[[-8,22,23,-18]],[[24]],[[25]],[[26]],[[27]],[[28]],[[29]],[[30]],[[31]],[[32]],[[33]]],"type":"MultiPolygon","properties":{"state":"QLD","state_name":"Queensland","state_code":"3"}},{"arcs":[[-19,-24,34,35],[36]],"type":"Polygon","properties":{"state":"NSW","state_name":"New South Wales","state_code":"1"}},{"arcs":[[[-20,-36,37]],[[38]],[[39]]],"type":"MultiPolygon","properties":{"state":"VIC","state_name":"Victoria","state_code":"2"}},{"arcs":[[[40]],[[41]],[[42]],[[43]],[[44]],[[45]]],"type":"MultiPolygon","properties":{"state":"TAS","state_name":"Tasmania","state_code":"6"}},{"arcs":[[-37]],"type":"Polygon","properties":{"state":"ACT","state_name":"Australian Capital Territory","state_code":"8"}}]}}}