{"type":"Topology","arcs":[[[37781,8618],[-42,-3],[-33,-24],[-21,-7],[-19,-32],[-47,-28],[2,-29],[-62,-44],[-8,-27],[15,-49],[-39,-29],[-2,-13],[-26,-17],[-29,-44],[2,-36],[15,-25],[-16,-8],[-16,-34],[-11,1],[-26,-35],[-9,-25],[-31,-17],[2,-36],[-39,-38],[-33,19],[-30,-16],[18,-27],[-5,-14],[25,-27],[-12,-42],[-38,-5],[-8,-20],[-29,-38],[8,-17],[2,-46],[-9,-24],[10,-35],[-12,-15],[-16,-54],[5,-14],[-12,-33],[7,-36],[-1,-40],[15,-33],[-1,-29],[-15,-21],[0,-28],[-48,-47],[-16,-35],[2,-23],[16,-8],[-28,-51],[9,-67],[-11,-26],[-33,-52],[-39,-76],[-4,-63],[-11,-21],[-26,-22],[-8,-33],[12,-12],[-30,-45],[-11,-30],[14,-20],[19,-5],[-11,-39],[17,-30],[-4,-17],[-68,-53],[33,-17],[45,5],[38,-37],[17,-2],[16,-76],[30,-41],[-35,5],[-30,14],[-20,-9],[-23,-33],[23,-25],[6,-21],[-22,-46],[9,-51],[16,-21],[1,-59]],[[37055,6235],[-384,150],[-236,93],[-363,144],[-469,189],[-329,133],[-25,4],[-61,-4],[-4,16],[34,48],[46,40],[23,41],[12,32],[-2,21],[-53,20],[-13,18],[-27,10],[15,25],[-12,23],[-3,38],[-37,13],[-1,20],[-26,16],[-23,49],[17,34],[-12,29],[-16,78],[14,19],[-19,30],[10,34],[-41,22],[5,23],[-16,11],[18,39],[-75,6],[-11,14],[1,32],[-28,-3],[-67,19],[-7,12],[-34,-1],[-36,12],[-32,28],[-55,-16],[-16,-17],[-54,-24],[-29,-18],[-29,17],[-27,40],[-35,2],[-8,-13],[-52,14],[-20,-29],[-23,-16],[-15,-36],[6,-8],[-34,-28],[-18,15],[-58,7],[-38,-11],[-42,19],[-25,2],[-23,28],[-18,-52],[-36,-21],[-11,-30],[-14,-11],[-19,25],[-43,7],[-22,-12],[-5,-21],[-34,9],[-10,24],[-29,9],[-47,-15],[-11,25],[-55,5],[-29,14],[-14,18],[-34,-12],[-32,18],[-43,46],[-38,-5],[-20,-13],[-23,22],[-26,6],[-12,-25],[-32,23],[-21,0],[-33,-22],[-22,-24],[6,-24],[-20,-14],[-76,15],[-3,20],[-32,2],[-12,-14],[-46,-2],[-20,-7],[-36,20],[-46,-4],[-38,8],[-26,18],[-45,-19],[-35,22],[-1,14],[-36,13],[-7,11],[-37,-2],[-27,-27],[-50,0],[-96,58],[-24,-1],[-15,23],[-70,40],[-31,45],[-26,13],[-60,-7],[-30,-24],[-22,7],[-10,-20],[-23,-2],[-35,-15],[-27,15],[-41,-6],[-37,26],[-79,-12],[-34,15],[-61,0],[-53,-28],[-41,-3],[-4,-25],[-26,-48],[8,-30],[-26,-7],[-7,-20],[23,-17],[35,-43],[5,-16],[-40,-18],[-14,16],[-58,9],[-33,-25],[-36,-41],[-58,2],[-30,8],[-6,22],[-27,0],[7,22],[-39,-4],[0,20],[-28,2],[-6,12],[-36,1],[-5,17],[-24,19],[-34,7],[-6,21],[-21,6],[-28,27],[-26,10],[-31,27],[-2,45],[-16,0],[-25,40],[11,18],[-24,26],[-30,11],[-36,28],[-18,-17],[-20,32],[-33,17],[-29,34],[-23,-1],[-10,26],[-35,20],[-13,35],[-43,14],[-14,20],[-59,3],[-30,49],[-40,4],[-51,19],[-50,44],[-28,15],[-26,-1],[4,22],[-21,13],[-38,-3],[-32,20],[-35,-29],[-60,60],[-20,3],[1,20],[21,39],[-19,43],[15,22],[-16,11],[-34,-17],[-10,7],[-48,-7],[-26,30],[-50,-3],[-13,18],[8,28],[-50,58],[-5,86],[-18,17],[2,37],[21,8],[-9,56],[27,67],[-7,22],[-44,16],[-24,-16],[-10,19],[-77,48],[-63,28],[-44,-1],[-24,13],[-26,-14],[-26,8],[-1,24],[-50,-6],[-38,27],[-26,-19],[-25,-5],[-12,45],[-26,18],[-31,2],[-17,18],[21,29],[-16,11],[-12,-29],[-17,-17],[-64,-7],[4,-9],[-15,-39],[21,-12],[-31,-17],[18,-40],[-17,-18],[-25,11],[-38,-10],[2,-17],[27,-9],[-14,-21],[-36,12],[-71,13],[-25,20],[19,36],[-21,31],[-26,6],[0,27],[-13,23],[12,23],[-3,29],[-33,-12],[-24,23],[-34,13],[-9,14],[24,34],[-31,5],[-7,17],[11,24],[-12,28],[-1,24],[17,25],[23,10],[5,22],[-32,11],[-43,-10],[-29,13],[-21,20],[-33,-4],[11,41],[-14,18],[8,32],[-15,10],[-9,25],[-21,-2],[-40,12],[-13,22],[-25,-24],[-39,1],[-15,20],[8,22],[-23,5],[-39,20],[-66,-14],[-43,8],[-24,-20],[-38,-1],[-40,17],[-27,1],[-30,12],[-28,-12],[-12,19],[-27,-6],[-43,-19],[-3,-19],[-64,-52],[-50,-15],[-7,29],[-16,23],[-42,-7],[-41,12],[-9,22],[-54,16],[-17,-20],[-19,20],[-30,8],[-22,25],[-54,17],[-28,-28],[-26,10],[-16,19],[-39,-8],[-36,14],[-53,10],[-6,23]],[[28082,9719],[0,451],[-1,242],[0,267],[0,431],[0,286],[-1,366],[0,295],[0,345],[0,246],[0,385],[-1,442],[0,215],[0,318],[0,261],[0,267],[-1,206]],[[28078,14742],[201,0],[391,0],[428,0],[381,0],[200,0],[401,0],[399,0],[450,0],[317,0],[313,0],[446,0],[329,0],[494,0],[333,0],[247,0],[421,0],[359,0],[260,0],[375,0],[435,0],[244,0],[293,0],[242,0],[14,21],[63,25],[29,65],[34,56],[30,-4],[12,29],[21,-4],[26,16],[2,18],[30,14],[27,24],[34,7],[14,21],[69,22],[25,-5],[43,56],[-1,11],[26,31],[52,20],[49,-3],[15,7],[26,-7],[13,-22],[19,6],[18,-17],[49,-20],[13,19],[34,-5],[87,14],[44,-3],[15,-12],[19,8],[34,-3],[36,5],[52,29],[14,-7],[32,3],[89,30],[48,-20],[21,19],[33,14],[25,3],[37,-34],[33,-17],[7,-32],[22,-13],[24,-2],[26,-28],[18,-5],[26,11],[48,-14],[49,15],[18,-15],[32,-5],[37,23],[31,-2],[26,20],[25,1],[63,-23],[75,-38],[15,8],[26,-18],[2,-18],[20,-13],[27,4],[46,-22],[-1,-39],[16,-4],[-2,-39],[20,-9],[24,11],[20,-2],[29,-23],[29,-6],[10,-12],[29,-6],[15,-21],[60,-34],[-3,-34],[11,-30],[3,-62],[-11,-12],[4,-22],[22,-15],[17,-25],[-6,-22],[27,-18],[20,7],[37,-6],[14,24],[15,5],[33,32],[5,18],[24,11],[8,57],[11,24],[32,27],[7,27],[67,29],[25,1],[29,17],[40,34],[21,5],[19,-49],[27,-22],[5,-19],[29,11],[19,-18],[14,21],[0,30],[56,-1],[27,-14],[38,9],[34,20],[16,-8],[25,48],[-21,9],[19,22],[3,71],[5,25],[34,23],[-8,24],[-29,20],[-25,-1],[-23,41],[-5,43],[-29,19],[-2,44],[28,15],[6,-22],[28,1],[29,30],[34,24],[42,10],[43,28],[40,-5],[12,-11],[22,31],[28,27],[15,-2],[25,24],[50,8],[28,-8],[33,37],[-7,21],[33,14],[20,38],[45,10],[28,-17],[-11,-40],[54,-33],[22,31],[-5,17],[21,8],[22,-29],[19,2],[15,-16],[49,-18],[28,-20],[27,18],[16,-8],[37,34],[19,9],[28,-1],[22,-14],[39,-9],[126,-9],[43,-15],[22,29],[-4,13],[43,24],[3,34],[16,11],[45,-17],[11,18],[33,13],[53,-3],[9,-14],[51,16],[16,24],[63,48],[17,6],[45,-18],[21,10]],[[40631,15576],[-23,-26],[41,-11],[2,-45],[14,-11],[-14,-70],[6,-37],[-10,-30],[-14,-70],[-1,-63],[18,-67],[19,-29],[40,-26],[-16,-51],[5,-20],[-22,-50],[-1,-30],[10,-8],[-1,-32],[-15,-33],[-18,-11],[-73,-85],[-35,-49],[-24,-52],[-5,-41],[16,-8],[-3,-31],[-29,-27],[-27,-36],[-41,-66],[-11,-41],[11,-34],[24,-16],[-12,-51],[5,-17],[-9,-27],[9,-17],[-8,-46],[-21,-35],[-7,-30],[9,-16],[-18,-34],[-1,-24],[12,-7],[-29,-41],[-13,-38],[11,-22],[-15,-23],[7,-26],[-25,-33],[2,-61],[-11,-30],[-28,-31],[-35,-59],[7,-31],[-5,-29],[12,-10],[-12,-32],[2,-15],[-35,-43],[-29,-64],[7,-19],[-4,-31],[-20,-18],[-19,-46],[-23,-28],[-3,-27],[-25,-29],[-19,-38],[-15,-65],[-7,-52],[7,-28],[-25,-53],[-3,-35],[13,-17],[-5,-37],[15,-71],[25,-26],[40,-6],[8,-37],[-28,-33],[-19,-56],[6,-31],[21,-11],[-17,-23],[-50,-54],[-13,-21],[-25,-90],[11,-16],[-5,-48],[7,-9],[-35,-43],[-16,-28],[-7,-35],[21,-37],[-1,-15],[-59,-55],[-24,-30],[-12,-29],[8,-10],[-13,-24],[8,-21],[-28,-25],[-22,-44],[12,-10],[-60,-70],[-12,-29],[14,-22],[-56,-33],[-55,-43],[-58,-65],[-34,-50],[4,-38],[-25,-25],[-14,-29],[-3,-37],[30,-18],[8,-19],[27,-14],[-28,-35],[-16,-29],[-3,-32],[21,-26],[-23,-53],[-7,-61],[-69,-20],[-82,-37],[-28,-18],[-34,-34],[-19,-35],[-39,-14],[-29,-18],[-24,-29],[-5,-26],[-44,3],[-17,18],[-17,-19],[-39,-9],[-22,15],[-45,5],[-29,11],[-19,-17],[24,-30],[-35,-13],[16,-16],[63,14],[20,-8],[34,10],[15,-9],[22,11],[17,-3],[32,10],[24,-9],[-11,-35],[-16,-11],[-32,-2],[-12,-26],[-53,8],[-55,-11],[-56,-17],[-69,-27],[-72,-39],[-17,22],[26,26],[-10,10],[-36,-5],[-5,-27],[15,-30],[-13,-18],[2,-24],[-45,-53],[2,-33],[-53,-35],[-42,17],[-4,35],[-46,-2],[7,-31],[-9,-44],[-36,6],[-32,-41],[51,5],[-3,-18],[-24,1],[-20,-17],[10,-24],[56,32],[21,-20],[13,46],[33,8],[-6,-45],[-13,-12],[3,-25],[-13,-23],[-22,-13],[-36,-39],[7,-40],[-32,28],[47,54],[-12,12],[-24,-38],[-43,2],[12,-29],[-22,-2],[-10,-19],[-46,-27],[-2,-32],[30,-25],[21,-6],[-3,-21],[-43,-45],[-10,-53],[-28,-38],[-18,4],[-39,-15],[10,50],[-16,8],[17,43],[-28,2],[-18,-23],[32,-48],[-27,-18],[-17,-31],[-25,6],[-36,28],[-31,2],[-56,34],[-5,-53],[29,22],[9,-17],[32,-7],[42,-48],[37,17],[5,-48],[-28,-14],[22,-24],[29,48],[15,-11],[-44,-90],[14,-32],[-14,-7],[-9,-44],[16,-12],[-4,-17],[-39,8],[0,-22],[-17,-9],[-38,-2],[-28,16],[-10,-11],[-56,6],[2,-17],[38,12],[114,-28],[-2,19],[19,14],[3,-54],[-28,-29],[8,-39],[-16,-39],[-21,19],[-27,8],[-4,14],[-30,8],[-10,-10],[-8,-35],[-24,-20],[11,-22],[60,16],[31,16],[-2,-30],[-27,-7],[-34,1],[-10,-15],[1,-25],[16,-6],[-36,-34],[-8,-17],[-83,-49],[-52,-41],[-67,-94],[-6,-32],[10,-17],[-23,-24],[-7,-70],[9,-28],[-23,-20],[-30,28],[-41,-17],[-1,-32],[-18,-22],[36,-1],[5,14],[33,-2],[-1,-28],[15,-34],[-28,-8],[6,-14],[-7,-31],[5,-29],[-31,-81],[-37,-13],[-30,-35],[-12,-37],[2,-36],[29,-42],[-5,-17],[9,-37],[36,-28],[28,2],[-14,-30],[-2,-32],[-26,-19],[-33,29],[11,34],[-10,28],[-34,11],[-54,-26],[-14,-17],[1,-27],[15,-11],[13,-50]],[[36173,8101],[-15,32],[6,27],[56,-8],[-8,39],[19,56],[-17,40],[11,38],[38,36],[21,32],[44,17],[36,-7],[15,5],[36,-7],[12,-11],[43,20],[-7,24],[-33,7],[-36,23],[-43,6],[-37,30],[4,18],[-31,7],[-18,21],[-1,29],[-26,11],[1,13],[-43,17],[-311,-183],[-16,-32],[15,-43],[-23,-26],[3,-18],[-14,-15],[-12,-54],[10,-72],[16,-21],[-20,-16],[15,-24],[-10,-27],[25,-11],[-10,-31],[39,-29],[7,-14],[29,7],[23,14],[7,-32],[3,-66],[11,-33],[50,-41],[55,-8],[36,-21],[13,41],[25,31],[14,34],[-10,49],[19,69],[-15,20],[-1,37]],[[28045,5685],[6,289],[2,304],[-3,234],[1,162],[-3,332],[-2,361],[-3,378],[-1,247],[3,359],[0,381],[-1,371],[-1,199],[-1,236],[1,222],[16,-19],[6,-28],[17,6]],[[37055,6235],[-60,-27],[-9,-10],[-85,-2],[-40,-10],[-16,-19],[-27,-11],[-19,-25],[-13,-34],[-18,-14],[-14,-28],[-58,-15],[-22,-26],[-48,-2],[-50,-25],[-2,-15],[-163,-10],[-63,-14],[-17,11],[-128,4],[-198,-4],[-36,-5],[-81,0],[-60,-10],[-23,-12],[-21,7],[-79,-7],[-15,5],[-151,2],[-94,-2],[-106,-12],[-81,-16],[-105,-33],[-22,-3],[-73,-22],[-29,-5],[-99,-35],[-63,-26],[-82,-43],[-77,-47],[-86,-58],[-76,-56],[-228,-182],[-172,-134],[-91,-79],[-44,-41],[-45,-25],[-6,16],[-65,-7],[-25,-13],[-5,-22],[-37,-15],[-20,3],[-36,-17],[-22,11],[-108,-15],[-12,-24],[-57,16],[-27,-14],[-23,7],[-26,-12],[-11,-16],[-22,3],[-4,34],[-30,13],[-20,-15],[-39,-8],[-24,8],[-71,-30],[-11,-26],[37,-34],[17,-34],[26,6],[5,-55],[15,-6],[6,-38],[32,1],[12,23],[33,20],[48,12],[4,38],[17,32],[31,-3],[10,-18],[-11,-74],[19,-33],[-25,-24],[-25,-49],[8,-38],[24,-5],[9,-21],[-47,-22],[7,-28],[-17,-32],[-53,-8],[-43,40],[18,34],[-69,63],[-6,24],[-34,54],[-50,49],[-61,38],[-60,20],[-30,-2],[-24,-13],[-12,-31],[10,-19],[-28,-19],[-33,0],[-27,-11],[-4,34],[-43,93],[-39,51],[-40,41],[-62,39],[-44,-4],[-30,-24],[-50,-2],[-42,24],[-22,36],[-50,55],[-19,12],[-50,15],[-52,0],[-8,16],[54,7],[16,20],[-14,23],[13,42],[-10,16],[58,5],[38,-6],[16,16],[18,43],[-10,17],[-27,1],[6,38],[-24,24],[-10,38],[-35,16],[-29,4],[-12,-11],[-68,13],[-3,-15],[-30,-18],[-56,10],[-49,-66],[-12,-24],[24,-22],[0,-44],[-14,-11],[-74,14],[-34,-12],[-46,-27],[-24,-50],[-50,-11],[-25,2],[-27,-9],[-37,20],[-46,45],[-103,79],[-72,41],[14,7],[59,-19],[36,-35],[62,-11],[87,21],[51,23],[19,22],[-11,8],[43,43],[8,39],[28,14],[26,36],[24,12],[9,19],[1,51],[-9,31],[-22,37],[-40,28],[-20,-7],[-20,23],[-25,44],[-2,37],[-20,34],[-28,13],[-36,0],[4,-19],[-35,3],[-60,-22],[-10,-42],[-55,-17],[-45,-34],[-49,-28],[-57,-3],[-31,-28],[-46,-13],[-9,-44],[-19,11],[-40,-8],[-35,2],[-15,11],[-32,-32],[-10,-33],[47,-17],[30,16],[20,-16],[28,-9],[84,13],[67,44],[61,-13],[27,-26],[-9,-51],[-18,3],[-27,-16],[-41,-46],[-11,-36],[-65,20],[-37,-1],[-12,-17],[-64,9],[-58,-21],[-49,-23],[-12,-20],[-65,-43],[-70,-29],[-3,-12],[-47,-6],[-27,-34],[-68,-6],[-57,-57],[7,-16],[-14,-18],[-53,-31],[-12,-29],[-16,-9],[-50,-44],[-31,-14],[-126,-42],[-14,-13],[-9,-34],[-46,-13],[-60,-59],[-45,-3],[-45,47],[-39,28],[-16,0],[-54,28],[-53,4],[-46,-20],[-38,10],[-37,29],[-60,55],[-51,29],[-50,21],[-35,5],[-43,-3],[-42,14],[-41,5],[-8,13],[-75,30],[-57,42],[-77,50],[-81,49],[-71,28],[-18,-8],[-69,39],[-33,13],[-55,-10],[-55,-5],[-29,-28],[-34,-2],[-51,5],[-74,34],[-59,39],[-82,37],[-48,13],[-143,13],[-38,-6],[-40,-16],[-56,-31],[-9,-15],[51,-71],[-35,-2],[-36,7],[-21,-18],[0,-17],[-33,1],[-6,32],[-58,27],[-54,-7],[6,-25],[-39,8],[-6,26],[30,22],[-10,27],[-31,37],[-84,72],[-45,32],[-100,54],[-90,41],[-72,20]],[[32247,5274],[47,18],[62,-3],[33,-8],[-19,-21],[25,-29],[42,1],[-19,-35],[-52,33],[-46,4],[-19,-22],[-30,14],[-48,9],[24,39]],[[33647,4998],[13,7],[26,-21],[-62,-34],[-51,16],[-29,35],[6,11],[35,3],[28,-13],[8,-17],[26,13]],[[33706,5017],[-41,7],[20,17],[66,-3],[2,-11],[-47,-10]],[[33931,5106],[-33,-13],[-25,3],[9,24],[21,7],[57,-3],[-29,-18]],[[32356,5353],[-3,30],[16,74],[40,-9],[18,-18],[27,-3],[36,9],[43,-3],[19,-25],[30,-21],[-27,-13],[-65,-4],[-19,-26],[-43,-23],[-72,32]],[[28078,14742],[0,309],[0,420],[1,264],[0,353],[0,317],[0,233],[-1,341],[0,241],[0,247],[0,277],[-241,0],[-321,0],[-322,0],[-322,0],[-401,0],[-402,0],[-293,0],[-698,0]],[[25078,17744],[0,450],[0,407],[0,305],[0,450],[0,204],[0,309],[0,351],[-1,357],[0,421],[0,291],[0,377],[0,233],[-1,349],[0,299],[0,402],[0,244],[0,324],[-1,272],[0,276],[0,383],[0,233],[0,445],[0,437],[-1,392],[0,364],[0,291],[0,218],[0,375]],[[25074,27203],[47,-36],[18,-24],[57,-50],[37,-20],[41,-28],[71,-21],[49,-26],[18,5],[39,-5],[56,-34],[23,4],[26,-10],[17,4],[46,-3],[67,7],[20,7],[29,-9],[18,-19],[78,-30],[34,-17],[37,-10],[14,-11],[62,-20],[17,8],[29,-13],[55,-3],[39,-20],[4,-38],[34,-27],[3,-14],[23,-15],[55,-24],[-17,-43],[14,-91],[17,-45],[36,-73],[15,-22],[25,-23],[39,-24],[55,-23],[75,0],[60,-27],[35,-29],[20,-9],[16,-28],[44,-16],[23,-34],[36,-20],[67,-11],[35,-28],[56,-2],[13,7],[25,-25],[77,-28],[17,-13],[0,-23],[11,-18],[31,-27],[36,-13],[74,-4],[114,20],[13,-4],[89,17],[69,9],[36,16],[34,22],[14,-7],[54,18],[50,30],[22,4],[42,22],[41,38],[39,27],[26,-2],[33,34],[58,20],[53,73],[13,36],[7,48],[7,12],[6,57],[33,73],[11,68],[-10,51],[11,42],[16,28],[37,29],[54,71],[14,34],[1,29],[34,16],[27,22],[44,48],[20,29],[16,36],[12,68],[22,33],[19,12],[23,47],[8,36],[-18,34],[30,74],[27,82],[3,40],[7,16],[46,70],[22,39],[9,43],[-21,36],[-17,75],[-20,34],[20,4],[16,42],[7,33],[8,112],[25,117],[20,77],[31,62],[33,86],[13,53],[18,24],[13,48],[1,50],[49,48],[12,30],[-9,23],[15,38],[15,15],[8,46],[-7,23],[-27,35],[-44,94],[-5,42],[-18,75],[-1,33],[-12,65],[0,50],[-28,105],[6,38],[19,69],[47,122],[5,25],[-9,77],[5,40],[-26,59],[-61,63],[-38,53],[-5,21],[-2,56],[23,93],[9,58],[4,56],[20,85],[28,65],[39,43],[15,28],[25,69],[52,64],[14,39],[-16,47],[-22,13],[-10,30],[-18,15],[-8,48],[-8,19],[5,21],[-5,41],[-31,34],[18,44],[28,36],[21,-2],[36,35],[24,4],[26,22],[22,33],[37,95],[11,51],[14,6],[19,-15],[24,-6],[11,20],[-18,12],[-16,-5],[-8,24],[29,6],[28,22],[5,21],[-21,3],[-51,-11],[-9,15],[-33,12],[-25,38],[-46,17],[-13,-15],[-9,-27],[-26,0],[-37,-21],[-33,18],[26,69],[32,64],[39,103],[15,63],[13,32],[16,10],[22,43],[67,149],[30,47],[29,30],[26,1],[-19,-32],[31,-60],[-2,-29],[16,3],[26,29],[36,-17],[18,20],[-11,25],[-29,34],[-30,7],[8,88],[12,64],[15,44],[25,24],[1,22],[13,58],[27,82],[8,36],[16,30],[30,80],[20,72],[9,62],[0,64],[-7,21],[20,24],[9,64],[9,17],[-12,57],[0,25],[-19,58],[9,32],[21,17],[38,17],[23,-7],[32,13],[32,-9],[29,16],[9,-4],[37,27],[10,32],[28,25],[33,84],[21,20],[50,3],[30,21],[30,-33],[30,-6],[18,-14],[-66,-93],[-27,-20],[3,-49],[-19,-28],[3,-19],[43,48],[3,16],[29,23],[14,1],[28,-24],[2,-24],[-10,-18],[59,-10],[13,-27],[30,2],[35,-24],[3,-34],[18,-30],[19,-17],[2,-54],[11,-25],[-3,-34],[-13,-35],[19,-69],[19,-2],[43,-65],[4,-26],[-35,-51],[-6,-44],[13,-13],[-4,-68],[17,-28],[-1,-32],[8,-16],[-1,-85],[4,-26],[-10,-43],[3,-55],[20,-23],[24,-4],[9,-18],[37,-10],[24,-31],[27,-5],[43,3],[66,36],[42,-22],[0,-22],[25,-34],[45,16],[27,-14],[-10,-11],[-25,9],[-24,-16],[-52,-99],[-41,-67],[-5,-41],[9,-21],[-3,-34],[-13,-36],[-4,-42],[15,-12],[101,-7],[21,-12],[16,-20],[37,-13],[4,-42],[7,-15],[-3,-57],[24,-21],[3,-15],[35,-21],[17,2],[40,-31],[19,2],[24,-29],[-31,-35],[-6,-41],[-19,-54],[-10,-12],[-14,-40],[2,-32],[-9,-53],[48,1],[9,22],[42,17],[25,-16],[23,4],[20,17],[26,-1],[-31,-57],[-14,-50],[14,-9],[-8,-24],[11,-24],[-8,-31],[-5,-84],[3,-24],[15,-23],[-3,-87],[8,-61],[13,-31],[21,-17],[21,-7],[16,-39],[1,-29],[-18,-67],[7,-35],[-25,-41],[-14,-58],[-5,-79],[-11,-30],[16,-51],[24,-25],[20,-31],[10,-49],[20,-52],[15,-22],[42,-29],[14,-55],[10,-61],[-4,-58],[8,-32],[19,-37],[20,-78],[20,-43],[41,-57],[55,-42],[42,-12],[27,2],[19,-11],[12,9],[23,-3],[77,23],[34,21],[33,40],[14,0],[53,66],[5,27],[-5,51],[21,7],[29,-10],[24,-31],[45,-13],[33,6],[31,13],[21,18],[31,8],[35,36],[31,63],[28,-6],[35,-59],[16,-7],[21,-24],[-16,-48],[9,-55],[38,2],[13,-19],[-16,-40],[-5,-52],[6,-14],[31,-18],[28,-49],[31,-4],[48,4],[12,7],[7,-47],[26,-6],[31,-15],[45,4],[26,-4],[13,-24],[4,-29],[17,1],[10,-70],[16,-12],[33,-4],[5,-24],[15,-18],[68,-9],[15,-16],[29,-15],[43,-9],[52,8],[-11,-34],[4,-15],[42,-43],[16,-28],[17,-8],[17,10],[37,0],[-5,-31],[-58,-59],[-40,-67],[-14,-33],[4,-53],[23,-54],[9,-9],[40,-2],[18,12],[25,-15],[-40,-26],[-31,-34],[15,-20],[-10,-32],[-27,-23],[-21,-39],[31,-35],[6,-34],[-7,-29],[16,-22],[17,7],[15,-14],[9,-39],[-12,-9],[3,-40],[43,-66],[8,-43],[-16,-42],[5,-26],[19,-9],[-21,-53],[2,-19],[46,-29],[24,-33],[6,-25],[16,-11],[14,-27],[0,-27],[11,-18],[-16,-31],[1,-14],[-15,-30],[0,-45],[24,-10],[12,-30],[-4,-34],[-28,-16],[-31,-47],[-6,-38],[8,-12],[-13,-43],[6,-35],[17,-9],[36,-2],[4,-37],[40,-55],[13,-32],[44,-45],[15,-41],[42,-14],[29,-30],[19,-8],[13,-39],[37,-22],[22,-44],[31,-26],[-10,-37],[16,-15],[31,15],[28,29],[13,-2],[10,-24],[18,-3],[28,18],[19,23],[27,-25],[-25,-37],[6,-13],[-30,-33],[-15,-56],[1,-34],[24,-23],[13,-30],[19,-12],[4,-26],[13,-15],[-1,-33],[9,-43],[23,-27],[13,-50],[38,-57],[26,-17],[-8,-49],[13,-32],[-8,-44],[21,-38],[25,-18],[20,-29],[13,-41],[-17,-16],[-19,-29],[-8,-35],[8,-43],[-21,-33],[23,-53],[-15,-31],[-7,-87],[-23,-22],[-32,-54],[-8,-32],[-22,-37],[0,-53],[10,-62],[8,-27],[24,-20],[53,-66],[34,-20],[22,-29],[12,-51],[22,3],[-4,-29],[26,2],[15,-17],[32,-5],[52,-28],[14,1],[17,-33],[-7,-58],[-19,-34],[2,-17],[-19,-42],[-17,-57],[-9,-62],[3,-45],[12,-24],[40,-46],[5,-17],[27,-11],[17,-31],[25,-10],[33,-47],[19,-20],[13,0],[21,-19],[24,-4],[26,-18],[22,-27],[35,-5],[31,-22],[60,-23],[36,12],[49,-8],[6,-34],[10,-16],[57,-16],[1,-18],[24,-24],[25,-9],[64,13],[16,9],[28,43],[3,15],[33,18],[5,-31],[14,-15],[-13,-21],[1,-24],[20,-44],[67,-64],[50,-5],[26,-11],[24,4],[12,-13],[35,11],[22,13],[56,-11],[29,1],[22,-8],[31,5],[21,34],[11,-46],[17,-38],[27,-20],[20,-36],[8,0],[19,-36],[21,-85],[18,-2],[14,-32],[-16,-9],[-15,-34],[14,-32],[30,-31],[30,-20],[10,-20],[38,-13],[56,4],[8,10],[-9,42],[-18,27],[14,34],[-6,16],[70,-2],[22,-18],[5,-57],[11,-60],[24,-32],[28,-27],[25,-14],[62,-7],[26,31],[56,7],[14,-38],[16,-16],[52,-17],[24,13],[34,-15],[16,-24],[28,0],[2,-30],[-21,-5],[-19,-19],[9,-17],[46,-23],[-6,-22],[25,-11],[18,-25],[21,-17],[47,-11],[40,-3],[39,41],[-24,15],[-3,37],[11,15],[23,-6],[26,-26],[29,-3],[19,22],[9,-45],[20,-24],[-1,-15],[16,-20],[-9,-20],[31,-24],[30,9],[36,-20],[-4,-53],[34,21],[22,-8],[40,29],[3,-27],[21,-11],[-28,-19],[46,-22],[26,-31],[-8,-21],[8,-23],[-3,-22],[21,-32],[23,-22],[2,-16],[40,-31],[-4,-13],[-27,-9],[-8,18],[-28,-4],[-12,23],[-20,3],[2,28],[-9,12],[10,20],[-14,20],[-23,6],[-16,-16],[8,-33],[-20,-13],[-49,-6],[-9,-38],[-25,-30],[-18,-33],[24,-16],[2,-23],[12,-17],[19,-2],[-12,-29],[26,-18],[-2,-28],[44,-15],[6,-30],[21,-14],[28,-1],[-14,-26],[33,-45],[-5,-24],[42,15],[4,-21],[29,-14],[9,8],[55,-8],[23,-20],[23,14],[20,-9],[-21,-17],[-8,-45],[11,-18],[33,12],[25,-1],[27,-26],[19,7],[24,-6],[11,-36],[17,3],[23,-43],[20,6],[-8,-60],[-23,-7],[5,-17],[-10,-30],[3,-26],[28,-53],[33,19],[8,-26],[30,-14],[1,-56],[18,-13],[0,-37],[-20,-25],[38,4],[5,-15],[-40,-2],[-2,-43],[-9,-15],[13,-22],[19,18],[36,2],[7,-15],[29,10],[-11,-41],[59,-20],[9,-22],[20,42],[17,1],[1,-37],[-32,-32],[-14,-28],[0,-20],[16,-29],[4,-48],[-25,-24],[-3,-45],[31,-25],[9,-18],[-10,-36],[4,-52],[15,-28],[8,-31],[21,-20],[14,-23],[-7,-45],[26,-59],[11,-6],[4,-43],[15,-47],[28,-31],[-4,-20],[28,-15],[28,-34],[5,-25],[34,8],[21,-10],[18,9],[34,-26],[-18,-12],[-3,-41],[28,7],[12,40],[27,-2],[18,-22],[22,-14],[19,-48],[19,-27],[33,-16],[5,-13],[36,-17],[54,-96],[14,16],[-20,36],[-8,53],[-18,23],[-11,41],[-11,10],[-23,56],[-27,54],[16,22],[-14,8],[3,40],[14,22],[12,44],[20,36],[23,10],[18,21],[20,-4],[11,18],[46,-23],[6,-31],[22,-50],[42,-27],[6,-45],[34,-20],[-14,-36],[44,-29],[76,-16],[36,-35],[69,-40],[43,-42],[56,-15],[43,-23],[47,-4],[-24,42],[1,18],[-13,28],[-23,27],[7,45],[-7,24],[7,30],[26,35],[20,-13],[40,-3],[20,-15],[-8,-35],[20,-32],[12,13],[-19,32],[29,5],[8,-50],[15,-25],[44,-7],[12,-22],[-30,-20],[-2,-26],[-28,7],[-13,15],[-29,4],[17,-45],[18,-21],[29,-2],[4,-57],[19,-4],[1,34],[18,31],[-8,28],[23,-2],[10,-25],[-13,-63],[6,-32],[24,-3],[0,-23],[26,-13],[-18,-66],[-6,-44],[-19,-81],[3,-67],[-14,-19],[-9,-105],[-16,-38],[-1,-31],[24,-29],[18,3],[-4,-47],[41,-46],[-5,-21],[-39,-34],[7,-45],[22,-61],[56,-65],[-21,-26],[-45,6],[4,-17],[37,-19],[34,-5],[6,-32],[47,29],[94,-27],[17,-54],[78,-46],[12,-23],[-9,-15],[22,-13],[13,-25],[-16,-20],[23,-7],[6,-40],[21,-10],[37,9],[40,-19],[10,-21],[39,-4],[15,-47],[21,-30],[49,-29],[22,-22],[8,-37],[-10,-21],[18,-15],[35,16],[-36,29],[-4,21],[29,0],[34,-18],[43,-16],[-36,-12],[20,-23],[-2,-26],[29,2],[4,32],[19,10],[35,2],[26,-26],[25,-14],[5,32],[-7,14],[-49,30],[-2,29],[35,1],[27,-11],[53,-41],[19,-2],[24,11],[-1,-39],[20,-63],[17,-23],[26,-21],[52,-9],[58,-60],[13,-52],[14,-32],[16,-54],[24,-64],[35,-62],[23,-24],[33,-50],[56,-58],[74,-41],[21,-22],[49,-30],[54,-16],[25,10],[35,-27],[8,-17],[35,-28],[28,-56],[9,-62],[-7,-33],[6,-27],[21,-40],[28,-40],[20,-41],[25,-24],[47,-26],[-18,-22],[-37,7],[-8,-15],[45,-1],[53,-63],[60,-21],[41,-2],[37,6],[22,15],[6,-28],[19,-7],[51,0],[11,-10],[-13,-21],[16,-51],[-2,-35],[-19,-34],[0,-22],[23,3],[15,21],[19,-11],[-7,-18],[-20,-9],[-27,-26],[10,-30],[-8,-16],[-28,-18],[3,-54],[15,-4],[16,-58],[-15,-14],[30,-21],[-3,-30],[16,-3]],[[40015,17997],[40,-27],[-5,-23],[46,-30],[9,-25],[-11,-17],[17,-13],[-20,-18],[-5,-21],[20,-21],[-24,-17],[6,-23],[28,15],[-3,15],[12,20],[-19,21],[31,8],[2,23],[-13,16],[9,34],[17,13],[4,-41],[13,-42],[18,-25],[30,-23],[26,-5],[22,11],[-37,-74],[-36,-91],[-16,-50],[-29,-111],[-7,-48],[8,-49],[24,-25],[24,7],[-17,-91],[-7,-61],[10,-15],[-5,-33],[3,-60],[8,-31],[29,-9],[-3,-50],[2,-44],[14,-28],[-28,-8],[-12,-37],[-2,-40],[-27,-9],[-39,-50],[23,-29],[7,-35],[30,-25],[10,-18],[31,-23],[-35,-12],[-45,-26],[-34,-65],[21,-16],[38,-10],[26,13],[3,-40],[-10,-30],[-28,-2],[-16,-20],[6,-30],[13,-20],[56,-27],[17,-3],[33,18],[13,-7],[-23,-33],[-9,-31],[6,-24],[21,-33],[26,-9],[37,0],[1,-31],[28,0],[-11,-27],[13,-20],[17,-4],[-6,-31],[10,-22],[-1,-46],[12,-35],[25,4],[9,-17],[26,2],[5,1],[3,2],[11,-13],[4,-15],[9,-7],[21,-3],[-11,-35],[-41,-5],[-11,-15],[-2,-16],[15,-12],[16,-35],[-8,-12],[14,-37],[2,-43],[20,-20],[8,-66],[12,-43],[28,-42],[47,-41],[27,2]],[[40315,16403],[11,17],[20,-11],[-13,-19],[-18,13]],[[29198,33592],[-31,20],[-3,16],[35,42],[63,11],[10,-47],[-6,-44],[-27,-23],[-26,-2],[-15,27]],[[35558,23739],[-3,-45],[-31,4],[-7,22],[2,37],[18,9],[21,-27]],[[38405,19966],[48,-37],[20,-53],[-27,-10],[-6,50],[-24,0],[-11,50]],[[31331,29572],[21,10],[11,-36],[-44,3],[12,23]],[[32525,29073],[10,22],[19,-15],[-7,-20],[-22,13]],[[33251,25776],[-34,27],[9,12],[26,-20],[-1,-19]],[[33236,25564],[4,25],[21,-5],[-6,-24],[-19,4]],[[37438,22007],[-12,-30],[-15,-8],[-20,14],[47,24]],[[37327,22065],[-6,12],[6,34],[42,-17],[12,-18],[-27,-16],[-27,5]],[[36513,22811],[-8,23],[27,1],[0,-27],[-19,3]],[[37551,21455],[-3,19],[23,2],[-22,44],[20,14],[30,-18],[5,-33],[30,-34],[-14,-24],[-31,-22],[-27,-11],[-7,14],[10,24],[-14,25]],[[37093,21635],[7,-12],[-38,-28],[-8,-13],[-30,-13],[-12,20],[17,17],[64,29]],[[36941,21571],[10,23],[-2,28],[12,51],[23,-11],[17,-49],[1,-48],[-4,-29],[-16,-26],[-35,6],[10,16],[-16,39]],[[37501,21446],[-6,15],[18,12],[-3,16],[25,24],[7,-31],[-32,-13],[-9,-23]],[[38019,20543],[-4,22],[36,24],[9,-32],[-41,-14]],[[40465,15955],[26,-3],[-17,-30],[-21,9],[19,17],[-7,7]],[[29388,33227],[11,-23],[-21,-5],[-15,14],[25,14]],[[29914,33705],[12,18],[21,-23],[-17,-9],[-16,14]],[[36069,23514],[4,-20],[31,-12],[28,-39],[-47,-9],[-33,-20],[-18,35],[-21,-13],[-7,24],[27,33],[-1,30],[7,30],[-4,30],[21,-2],[1,-45],[12,-22]],[[29780,32799],[-32,6],[-16,23],[40,-9],[8,-20]],[[29325,33148],[28,19],[34,-5],[19,-34],[-31,-24],[-28,-5],[-32,33],[10,16]],[[29394,33524],[-41,-41],[-11,15],[-49,15],[-28,36],[20,26],[6,27],[25,18],[34,5],[39,-21],[14,3],[17,-49],[-26,-34]],[[33659,24976],[-2,40],[11,13],[28,8],[27,-46],[45,9],[-9,-25],[-28,-10],[-17,11],[-48,7],[-7,-7]],[[26216,26937],[9,-10],[-47,-32],[-4,33],[42,9]],[[26262,27043],[4,-23],[-26,-19],[-14,8],[-7,26],[6,14],[25,21],[18,-10],[-6,-17]],[[26238,27091],[-9,16],[11,24],[47,36],[10,38],[23,17],[0,14],[49,26],[20,18],[23,-5],[31,14],[56,7],[45,-1],[24,18],[40,15],[22,22],[55,-13],[44,-45],[26,-1],[23,-29],[1,-32],[12,-21],[-25,-3],[-5,15],[-25,1],[-62,-36],[-16,27],[-2,27],[-35,14],[-15,-29],[-28,1],[-20,-16],[-13,-97],[-23,-1],[8,-36],[-35,-7],[-9,27],[-14,8],[-24,-33],[-44,-40],[-12,-20],[-25,-5],[-24,9],[-35,-7],[-11,23],[-18,2],[-10,41],[-23,-1],[-8,18]],[[26564,26623],[-22,23],[-26,-6],[-21,-26],[-15,21],[12,24],[37,27],[14,30],[23,5],[18,34],[13,-21],[26,-24],[12,-37],[14,-14],[-18,-18],[-33,-5],[-6,-13],[-28,0]],[[26535,27068],[22,-6],[-13,-21],[-24,-4],[15,31]],[[26805,27246],[-24,17],[15,27],[14,-3],[4,-24],[-9,-17]],[[39994,18215],[-7,20],[24,23],[24,-12],[-11,-19],[-30,-12]],[[40109,18352],[18,30],[2,39],[-10,43],[8,20],[-7,32],[-44,-2],[3,18],[31,33],[40,19],[58,44],[34,32],[34,45],[32,55],[4,53],[-8,19],[-48,70],[-54,35],[60,66],[29,22],[38,18],[16,-2],[-6,-112],[1,-39],[9,-43],[27,-49],[28,-21],[26,-4],[0,-64],[-26,-49],[-59,-129],[-63,-128],[-76,-175],[-28,-73],[-15,-53],[-7,-49],[12,-70],[-11,-34],[-29,-4],[-34,27],[-19,37],[-6,43],[-17,41],[-8,44],[-20,18],[6,34],[36,41],[-1,61],[22,38],[22,23]],[[38164,20255],[38,-5],[35,-19],[42,0],[35,16],[1,-37],[-10,-35],[0,-44],[13,-33],[17,-20],[16,0],[15,-21],[13,-71],[-34,-25],[-19,1],[-31,-18],[-29,27],[-45,77],[-21,31],[-74,41],[-14,51],[-20,16],[-19,38],[-4,35],[20,4],[9,25],[24,-4],[17,7],[21,-19],[4,-18]],[[36003,23662],[27,-2],[2,-25],[-9,-21],[2,-31],[-20,-11],[-43,19],[6,39],[15,1],[20,31]],[[33279,25362],[-23,25],[-25,41],[-52,29],[-29,37],[37,13],[41,-11],[17,-16],[30,-17],[28,-6],[9,30],[18,17],[41,1],[5,-13],[-21,-52],[30,-54],[25,-7],[8,-48],[14,-6],[-24,-32],[-2,-37],[-22,-9],[-15,7],[-40,-2],[-28,12],[-21,40],[6,33],[-7,25]],[[35930,23397],[21,-32],[-20,-5],[-1,37]],[[29275,33147],[16,-24],[33,-29],[5,-20],[24,-31],[-44,-41],[-23,13],[-22,-25],[-7,-20],[-28,9],[-12,26],[-17,12],[-10,31],[0,30],[19,24],[38,15],[28,30]],[[33919,24630],[43,-1],[-9,-34],[-23,-14],[-14,-22],[-34,22],[-12,23],[-1,22],[50,4]],[[40445,16081],[22,1],[7,-33],[-5,-13],[-5,-5],[-11,3],[-5,4],[-3,7],[12,19],[-12,17]],[[40511,16708],[37,4],[-24,-63],[-21,-80],[-6,-45],[0,-58],[17,-43],[-13,-15],[-24,60],[-21,37],[-11,35],[6,32],[-10,35],[8,24],[-8,49],[28,18],[42,10]],[[26684,26603],[-6,26],[16,8],[10,26],[15,3],[-35,-63]],[[40591,16242],[-28,-72],[-22,-85],[-9,-59],[-28,-26],[-13,2],[-7,17],[-12,15],[9,14],[-2,31],[22,20],[-14,33],[6,15],[-5,56],[4,21],[-14,20],[24,27],[17,57],[14,25],[29,-28],[46,-10],[13,-11],[-30,-62]],[[40196,16715],[-18,11],[-8,26],[-14,10],[14,36],[-13,36],[46,26],[8,-2],[26,-90],[22,-55],[20,-30],[8,-24],[-10,-14],[-30,-4],[-13,27],[-38,47]],[[16081,12054],[0,326],[0,597],[0,458],[0,1273],[0,917],[0,1371],[0,746]],[[16081,17742],[305,0],[220,0],[366,0],[354,0],[282,0],[487,0],[356,0],[255,0],[305,0],[402,0],[512,0],[266,0],[388,0],[223,0],[378,0],[280,0],[412,0],[374,0],[358,0],[281,0],[443,1],[417,0],[250,0],[333,0],[260,1],[490,0]],[[28045,5685],[-64,7],[-28,-2],[-32,9],[-52,-4],[-22,-11],[-51,5],[-55,-8],[-20,18],[-35,14],[-36,6],[-54,32],[-27,30],[-35,23],[-34,6],[-44,32],[-17,39],[-33,49],[-9,23],[-51,78],[-42,48],[-40,39],[-72,47],[17,15],[-1,18],[-22,24],[-31,16],[-16,19],[-28,9],[-17,-14],[-34,22],[-51,49],[-20,29],[-21,14],[-23,39],[-35,31],[-35,46],[-38,64],[-18,15],[13,18],[24,-4],[17,19],[1,21],[-13,30],[-37,21],[-3,50],[-20,24],[-52,42],[78,49],[32,11],[39,30],[32,45],[11,55],[-1,81],[-15,58],[-25,73],[-33,88],[-79,156],[-54,91],[-64,93],[-40,52],[-67,77],[-70,72],[-83,77],[-119,96],[-109,75],[-71,44],[-81,44],[-62,29],[-121,41],[-56,8],[-21,-19],[-59,-11],[-33,-34],[6,-12],[-36,-18],[-43,-34],[-42,9],[-53,3],[-21,-11],[-110,2],[-34,-3],[-43,-20],[-58,0],[-36,16],[-33,22],[-2,20],[22,22],[8,21],[45,42],[25,-5],[96,51],[51,80],[41,22],[28,4],[30,16],[8,38],[-4,41],[26,32],[-5,66],[2,52],[28,47],[22,47],[-7,58],[-12,32],[-22,81],[13,38],[-11,36],[27,20],[11,-9],[-6,-29],[31,-13],[10,26],[-25,50],[-33,16],[-21,25],[-41,28],[11,23],[-36,46],[-42,21],[-32,58],[-28,15],[-40,32],[-6,40],[-18,48],[-15,20],[6,22],[-9,34],[-27,36],[-36,1],[8,34],[-8,30],[-69,76],[-22,-8],[-22,-30],[-19,-52],[-18,-13],[-7,-26],[19,-23],[-14,-64],[-61,-50],[-30,-32],[-17,-63],[-13,-21],[-1,-53],[-9,-31],[31,-17],[-30,-53],[4,-27],[-12,-27],[-11,-51],[5,-7],[-31,-32],[-32,-65],[-16,-69],[-27,-52],[7,-42],[-37,-9],[22,-35],[-5,-19],[15,-11],[-27,-17],[-44,-17],[-7,-17],[-43,-3],[-28,22],[-55,29],[-44,-1],[-43,18],[-44,3],[-72,-36],[-18,-34],[-34,-1],[-40,10],[-22,-6],[-27,-19],[-21,-25],[-2,-22],[-44,-13],[-95,21],[-48,-1],[-31,-28],[-3,-15],[-23,-16],[-44,-3],[-17,-15],[-32,19],[-21,31],[16,21],[1,40],[19,-5],[24,10],[5,23],[39,22],[26,51],[-5,24],[-22,39],[38,30],[7,46],[35,29],[-4,23],[39,-6],[29,-15],[81,3],[42,15],[22,-4],[55,11],[27,-30],[43,-6],[28,-24],[35,12],[39,31],[8,21],[2,79],[17,48],[17,94],[13,21],[1,65],[-31,64],[11,38],[-7,45],[-13,9],[-23,-13],[-16,-30],[-14,19],[24,23],[9,30],[25,0],[12,55],[15,24],[1,92],[-17,35],[-19,22],[-15,30],[67,5],[51,91],[-8,22],[-28,20],[28,13],[5,17],[38,36],[29,14],[-2,19],[-28,25],[41,46],[85,63],[10,31],[36,40],[25,12],[37,43],[27,15],[17,31],[40,10],[18,13],[28,-1],[11,25],[-38,5],[5,36],[-34,70],[-38,42],[12,37],[-2,37],[-20,-6],[-44,42],[-4,26],[25,54],[42,23],[60,26],[19,-5],[18,17],[24,2],[17,-18],[30,26],[6,21],[-18,12],[6,26],[-23,41],[-19,12],[-34,7],[-26,68],[-15,74],[-13,21],[-10,52],[1,25],[39,20],[-54,41],[-45,17],[17,9],[7,26],[-63,56],[19,46],[-42,9],[3,23],[-34,0],[16,-71],[-14,-77],[6,-16],[52,-54],[-13,-34],[14,-71],[-18,-18],[6,-23],[-9,-22],[-36,6],[4,-36],[25,-48],[-62,3],[-29,31],[-31,9],[-49,-24],[-17,-24],[1,-36],[-22,-10],[-38,-42],[-1,-9],[-43,-24],[-30,-9],[-20,-24],[-3,-65],[-32,-55],[-24,-24],[-6,-48],[7,-33],[-23,-37],[0,-24],[-35,-21],[-30,-46],[-19,-63],[-13,-9],[-12,-31],[-42,-55],[-28,-9],[-14,-18],[-44,-10],[-54,2],[-44,-21],[-36,-7],[-40,-29],[-93,-43],[-57,-5],[-22,-27],[-50,-6],[-37,-29],[-46,-22],[-51,-11],[-22,-26],[5,-17],[-65,-39],[-42,-21],[-22,-3],[-85,-65],[-16,-31],[7,-19],[-23,-28],[-7,-35],[-24,-13],[-35,-45],[-5,-28],[-40,-40],[-32,-26],[-57,-9],[-23,-22],[-4,-17],[15,-25],[-27,-22],[27,-4],[3,-34],[-12,-49],[-34,11],[-14,26],[-34,-2],[-11,-26],[-34,-6],[-25,3],[-27,-19],[-27,-56],[7,-24],[20,0],[2,-24],[-38,18],[-34,-20],[-7,-30],[0,-49],[26,-6],[-1,-40],[-33,8],[-36,-29],[-24,-29],[48,-8],[27,11],[36,3],[33,37],[24,7],[7,-23],[52,21],[-19,-64],[-34,-21],[3,-29],[30,-54],[-4,-22],[14,-24],[-19,-13],[-43,4],[-12,37],[-65,29],[-17,39],[-30,13],[-54,11],[-51,-9],[-10,-42],[-18,-38],[-29,9],[-36,-2],[5,31],[-19,29],[-103,94],[-28,41],[-65,44],[-29,13],[-35,6],[4,31],[-25,40],[-26,12],[-21,29],[-48,25],[-27,-12],[-28,1],[-45,-35],[1,62],[43,63],[37,31],[6,-61],[45,-15],[34,1],[19,-18],[-15,-21],[5,-12],[46,-16],[0,-28],[11,-16],[30,-4],[2,-14],[54,7],[4,14],[66,5],[-56,25],[-17,17],[2,33],[-44,19],[-14,77],[-29,20],[6,38],[-21,121],[-29,60],[-23,27],[-20,5],[-31,22],[34,32],[6,43],[-12,38],[1,19],[-18,34],[-52,59],[-18,45],[-19,0],[-34,42],[-47,32],[-14,19],[-42,41],[-89,52],[-18,14],[-74,45],[-5,40],[23,44],[-2,43],[-18,75],[-16,49],[-25,53],[-42,21],[-21,32],[-75,43],[54,2],[0,33],[-18,25],[-33,12],[-33,-2],[-33,21],[-43,-20],[18,-28],[48,-6],[20,-28],[-12,-20],[-23,26],[-35,26],[-68,30],[-56,17],[-35,-4],[-30,-24],[-16,-3],[-9,48],[-29,32],[-24,7],[-27,35],[-18,-7],[1,-23],[32,-35],[18,7],[14,-21],[24,-6],[-2,-52],[-32,4],[-57,34],[7,14],[-30,87],[-37,17],[-31,-16],[-22,22],[20,19],[23,-6],[16,28],[-4,24],[-23,31],[-17,8],[-35,-10],[-8,20],[-28,-12],[-19,14],[5,30],[55,26],[6,24],[-18,48],[-29,34],[-31,28],[30,11],[17,-10],[38,2],[20,-17],[34,-13],[-10,-20],[8,-26],[34,15],[1,18],[32,33],[30,68],[-11,8],[-5,45],[-12,35],[-16,23],[-67,68],[-20,14],[-44,15],[-33,-4],[-8,-12],[-36,10],[-35,-15],[-16,-30],[-46,11],[-24,-2],[-27,-32],[-27,-9],[-20,29],[15,25],[-11,21],[16,41],[-1,19],[22,4],[-1,-25],[32,-6],[28,17],[5,20],[-17,10],[-33,63],[-21,14],[-14,26],[-41,41],[-19,4],[-10,-19],[-23,-11],[-19,31],[-2,29],[-70,11],[10,37],[-23,21],[2,27],[-71,23],[-19,-11],[-9,-26],[11,-20],[-49,-24],[-13,14],[-28,6],[8,17],[-27,28],[-26,-19],[-51,-18],[3,-31],[25,-4],[0,-23],[-18,-3],[-73,18],[-57,-3],[-20,-23],[-26,15],[-53,20],[-43,1],[-36,36],[-45,30],[-47,21],[-25,-14],[-9,25],[-71,37],[-55,42],[-69,34],[-34,11],[-30,-7],[-29,5],[-20,-6],[-36,15],[-35,7],[-64,0],[-53,-12],[-23,-14],[-18,-33],[-39,-7],[-16,-9],[-39,-5],[-8,-14],[-57,5],[-7,-9],[-95,14],[-24,16],[-35,47],[-44,38],[-72,41],[-92,62],[-53,29],[-53,41],[-120,63],[-113,54],[-90,40],[-235,95],[-58,21],[-57,7],[-48,-26],[-24,-31],[-32,-16],[-180,-60],[-55,-9],[-57,1],[-61,5],[-105,15],[-79,-7],[-60,9],[-84,0],[-70,10],[-53,-6],[-64,3],[-38,-10],[-100,1],[-50,-5],[-32,2],[-52,-7],[-53,-13],[-63,1],[-89,-9],[-65,0],[-88,-6],[-95,-14],[-63,-4],[-81,-11],[-94,-7],[-56,-9],[-89,-7],[-48,-12]],[[25025,8019],[27,2],[73,-23],[23,-21],[-2,-17],[21,-23],[31,-16],[-8,-29],[-46,-32],[-24,-24],[-19,2],[-84,38],[-28,5],[-27,-11],[-34,13],[-45,6],[-61,-1],[-17,-24],[-63,-7],[-41,-21],[-15,-14],[-8,-33],[19,-24],[-15,-34],[-66,-17],[-33,-29],[-41,-17],[-79,58],[-13,16],[-78,8],[-37,9],[-58,7],[-14,-7],[-8,-28],[-45,-24],[-28,15],[-54,-8],[-52,8],[-54,-8],[-28,-17],[-55,26],[-28,-2],[-16,-17],[-33,5],[-8,-12],[-48,-1],[-19,7],[-19,33],[-36,39],[-28,11],[-21,-6],[-24,12],[1,17],[-38,35],[-10,21],[11,18],[20,9],[-3,20],[18,34],[-5,29],[13,17],[42,0],[68,9],[21,17],[33,-1],[33,23],[75,6],[90,20],[62,1],[58,5],[52,17],[21,22],[21,-3],[22,11],[20,-3],[29,18],[33,3],[46,24],[71,-11],[23,3],[44,-8],[44,15],[16,-15],[36,9],[16,14],[71,5],[-4,-25],[-22,2],[-38,-28],[13,-24],[34,7],[26,-19],[-37,-24],[-3,-14],[-25,-21],[25,-22],[24,4],[41,-8],[64,4],[48,12],[23,-35],[-59,-47],[5,-28],[46,0],[18,9],[-34,31],[44,-7],[29,6],[40,36],[2,30],[13,12],[39,-5]],[[21530,9978],[14,25],[4,44],[59,16],[10,-35],[-20,-5],[-18,-22],[-49,-23]],[[23531,8595],[42,-16],[-2,-14],[-50,19],[10,11]],[[25606,8972],[19,-30],[-30,-1],[11,31]],[[20688,11451],[-9,-18],[-37,-9],[-18,18],[6,35],[32,-4],[27,5],[-1,-27]],[[24429,9259],[25,13],[6,-29],[-17,-33],[-22,4],[-2,40],[10,5]],[[23225,8742],[-36,24],[-26,8],[-1,21],[26,12],[21,-19],[16,-31],[48,-33],[-1,-28],[-14,-14],[-24,14],[2,37],[-11,9]],[[16080,28862],[0,-384],[-1,-170],[0,-426],[0,-265],[0,-338],[0,-195],[0,-323],[0,-185],[0,-340],[0,-736],[0,-255],[0,-326],[0,-196],[0,-325],[0,-1656],[0,-233],[0,-635],[0,-380],[0,-774],[1,-419],[0,-382],[0,-316],[0,-1523],[0,-338],[1,0]],[[16081,12054],[-39,-7],[-67,-23],[-44,-23],[-49,-18],[-48,-30],[-94,-46],[-19,-17],[-45,-12],[-7,-9],[-47,-10],[-13,-10],[-94,-43],[-25,-4],[-130,-52],[-135,-40],[-92,-34],[-151,-36],[-24,-2],[-173,-34],[-66,-20],[-91,-34],[-30,-23],[-37,-3],[-137,-32],[-19,-8],[-88,-13],[-25,-7],[-44,1],[-112,-8],[-111,-15],[-99,0],[-74,6],[-42,-14],[-58,-2],[-117,9],[-156,20],[-56,17],[-68,12],[-73,18],[-49,-8],[-40,-24],[-40,-12],[-37,8],[-86,-22],[-93,-49],[-57,-27],[-100,-66],[-22,-11],[-36,-32],[-28,-15],[-58,-45],[-25,-14],[-50,-12],[-9,-8],[-54,-18],[-51,-5],[-74,-23],[-54,-23],[-117,-63],[-21,-14],[-76,-13],[-20,-25],[-48,-21],[-30,-19],[-28,-35],[-56,-26],[-24,-16],[-71,-28],[-133,-20],[-158,-17],[-104,-24],[-49,-21],[-69,-39],[-67,-60],[-46,-55],[-22,-41],[-19,-66],[-29,-65],[-19,-33],[-35,-84],[-12,-56],[-7,-70],[-18,-20],[-33,-18],[-36,-4],[-25,-17],[4,-25],[-62,-31],[-36,-34],[-17,-24],[-10,-52],[8,-18],[-11,-15],[-27,-5],[-25,-20],[-36,-14],[-23,-33],[-43,-1],[-29,-22],[-14,-32],[-35,-8],[-4,20],[-21,12],[-75,17],[-54,-5],[-28,-20],[-4,-16],[-34,-39],[-17,-2],[-19,-20],[-29,7],[-60,-28],[3,31],[-12,9],[3,31],[-34,48],[-61,33],[-49,7],[-11,-24],[-41,-7],[-59,-1],[-75,-20],[-18,20],[-46,12],[-32,-14],[-80,3],[-55,-12],[-20,-19],[10,-24],[-32,7],[-52,-4],[-62,21],[-45,8],[-40,-3],[-71,-34],[-20,-19],[13,-22],[-32,-15],[-25,10],[-27,-13],[-83,-10],[5,38],[-34,77],[-54,58],[-43,16],[-19,-8],[-36,2],[-30,-12],[-9,-17],[-32,-24],[-26,0],[-50,-21],[-44,30],[-41,16],[-23,0],[-16,-21],[-29,10],[-48,29],[-53,19],[-27,-14],[-22,11],[-45,8],[-10,-7],[-67,12],[-13,-12],[-30,7],[-49,-30],[-69,6],[-20,-21],[-21,1],[-36,14],[-31,2],[-19,-11],[-59,-1],[-5,-10],[-69,8],[-23,-3],[-48,9],[-29,-10],[-33,-22],[-29,3],[-67,-8],[-30,8],[-42,-6],[-38,6],[-39,-11],[-6,-28],[-26,-6],[-63,-36],[-36,-4],[-35,11],[-97,18],[-68,9],[-63,-4],[-49,-15],[-6,7],[-69,22],[-33,-14],[-22,-1],[-7,-17],[-36,-22],[-20,7],[-76,0],[-45,-21],[-24,-36],[-31,-15],[-17,-20],[-22,0],[-31,-19],[-41,-15],[-6,-13],[-52,-44],[7,-18],[-34,-28],[-23,-28],[-27,-61],[-5,-36],[9,-36],[32,-22],[-23,-28],[-25,17],[-10,17],[-29,-3],[-11,12],[-28,-8],[-23,-47],[12,-11],[-4,-28],[-16,-24],[-37,38],[-36,1],[-25,-9],[-6,-21],[6,-34],[-27,-9],[-78,33],[-32,-8],[-14,16],[-65,19],[-85,8],[-50,-5],[-26,-9],[-5,-37],[-56,0],[-41,-11],[-44,-27],[-23,-34],[6,-20],[32,-15],[-22,-12],[-11,-18],[-28,-19],[-15,3],[-39,-15],[-16,-21],[-25,4],[-20,-11],[-46,-8],[-79,-31],[-52,-41],[-17,-30],[-11,-36],[1,-33],[26,-5],[3,-16],[-35,-10],[-60,11],[-31,-15],[-41,3],[-38,-13],[-14,-13],[-28,-3],[-8,-27],[39,-14],[-17,-45],[-24,28],[-67,10],[-40,-13],[-12,-16],[-88,2],[18,35],[-1,25],[-30,9],[-3,-36],[-28,-37],[1,-19],[-61,8],[-4,-28],[55,-29],[70,-12],[-25,-26],[-62,3],[-26,10],[-34,26],[-80,32],[-76,7],[-30,-16],[-18,-52],[-21,-4],[-47,29],[-36,13],[-32,-15],[-12,15],[-57,30],[-61,25],[3,17],[33,-5],[31,-14],[26,5],[24,20],[-24,30],[-34,-18],[-16,11],[-36,4],[-11,-21],[-22,-5],[-12,-48],[-60,23],[-17,-8],[-42,12],[-43,-13],[-15,-27],[-46,24],[-33,-5],[-34,13],[-22,-5],[-46,10],[-32,-17],[-10,-27],[-39,16],[-26,-3],[-28,8],[-17,15],[-38,12],[-68,-13],[-50,-22],[-67,17],[-58,29],[-55,1],[-50,35],[-49,24],[-107,60],[-44,16],[-94,24],[-37,-5],[-70,12],[-25,-3],[2,22],[-18,31],[-26,26],[-6,34],[-86,81],[-68,60],[-130,105],[-79,52],[-48,14],[-23,19],[-34,12],[-68,42],[-48,20],[-55,11],[-53,5],[-44,-3],[-50,-12],[0,-30],[-12,-18],[-18,0],[-26,36],[-86,77],[-2,34],[15,21],[-20,63],[-27,37],[12,20],[-7,13],[4,53],[-21,54],[12,8],[-9,73],[11,32],[6,55],[-7,40],[-18,51],[15,6],[9,27],[15,9],[14,27],[-22,72],[-2,31],[85,-38],[21,-43],[13,-12],[85,-28],[56,-5],[45,3],[78,21],[55,38],[104,114],[28,27],[30,56],[19,57],[17,22],[30,12],[10,22],[3,108],[6,56],[-9,76],[-27,149],[-20,58],[-25,171],[24,71],[23,17],[53,57],[6,-35],[-40,-16],[-32,-41],[5,-34],[25,-54],[0,-26],[21,-40],[30,-15],[4,28],[-30,64],[-12,13],[0,24],[-18,19],[4,20],[32,-29],[26,9],[16,-12],[22,19],[9,34],[-18,27],[-35,-1],[5,51],[18,41],[4,37],[-4,30],[-33,39],[30,20],[-12,39],[-29,5],[-3,28],[27,1],[30,27],[0,26],[19,41],[-12,19],[-7,34],[6,24],[-24,51],[39,26],[9,17],[39,-12],[4,17],[26,11],[-8,16],[-25,3],[-12,-24],[-18,-4],[-18,-20],[-24,0],[5,123],[-7,67],[-21,28],[5,31],[-14,47],[-27,53],[-5,22],[-22,31],[-27,54],[-33,49],[-25,24],[-29,68],[-110,151],[-16,47],[-25,49],[-18,63],[-49,88],[-7,30],[-74,127],[-32,41],[-29,7],[-2,40],[-57,132],[-43,74],[7,27],[-19,32],[-20,16],[15,26],[-21,56],[1,26],[-9,58],[-22,21],[19,17],[-2,47],[-12,18],[-26,11],[-4,37],[11,28],[-4,27],[-18,53],[-21,7],[-4,22],[10,43],[-6,32],[19,55],[-4,57],[3,18],[-16,37],[-6,39],[0,99],[18,86],[0,26],[21,46],[-2,24],[-37,85],[-1,37],[-12,32],[-19,21],[-13,35],[5,28],[-18,38],[-13,53],[-16,42],[-40,50],[-48,48],[-97,86],[-54,62],[-4,40],[-23,57],[9,11],[5,35],[-14,41],[7,22],[-11,40],[-27,46],[-19,45],[-34,50],[-31,37],[-57,51],[-26,44],[-8,22],[-66,72],[-13,27],[-43,19],[-39,25],[-11,20],[-58,74],[-29,136],[-21,70],[-15,37],[21,81],[26,36],[9,31],[-10,54],[-23,63],[-25,85],[-18,39],[-68,138],[-75,131],[-81,131],[-27,41],[-18,40],[-31,48],[-48,65],[-89,110],[-6,13],[-58,72],[-81,83],[-58,50],[-94,83],[-55,57],[12,11],[-16,30],[8,15],[-23,49],[-46,66],[-53,48],[19,6],[81,-20],[10,41],[3,67],[-6,7],[-1,39],[14,19],[13,-47],[8,-49],[3,-63],[-4,-59],[15,-73],[-6,-25],[26,6],[12,-23],[-8,-20],[23,-25],[2,39],[-24,32],[-4,51],[10,66],[19,10],[-4,47],[8,45],[39,-32],[-4,-15],[22,-11],[4,-46],[11,-9],[3,-32],[18,-17],[-1,-39],[20,-27],[-14,-55],[17,-22],[-17,-19],[-9,-41],[23,-3],[9,75],[8,3],[12,41],[-15,20],[5,53],[17,1],[4,-31],[16,-37],[-6,-29],[12,-22],[0,-59],[-9,-7],[25,-37],[-12,-25],[-6,-42],[26,-23],[4,35],[10,16],[-4,32],[43,10],[-6,-74],[3,-37],[23,2],[8,-33],[21,11],[25,27],[25,-11],[26,29],[24,-16],[27,4],[-3,24],[22,26],[31,14],[21,34],[4,27],[-7,56],[-12,18],[15,30],[-2,31],[-18,31],[-28,29],[-35,26],[-49,22],[-56,11],[-14,23],[-1,20],[-19,13],[-24,44],[-26,24],[-30,2],[-1,22],[-15,35],[7,30],[-14,10],[-1,52],[-42,27],[8,37],[-12,31],[-50,41],[16,28],[-12,47],[-30,-17],[-23,28],[4,45],[14,54],[17,15],[24,53],[26,31],[18,10],[-2,-39],[10,-52],[13,-18],[33,-12],[14,10],[13,-71],[15,-24],[41,-23],[19,-26],[30,-22],[19,1],[-3,-48],[5,-24],[38,-14],[-4,-26],[-26,-45],[2,-64],[-34,-31],[-1,-46],[9,-59],[20,-30],[-3,-25],[38,-8],[27,5],[21,27],[69,110],[6,27],[-20,91],[39,-6],[9,-25],[-20,-43],[15,-32],[-2,-54],[13,-19],[27,-10],[-13,-48],[8,-35],[16,-16],[-8,-27],[17,-26],[8,-53],[79,-72],[32,-50],[44,43],[26,16],[10,20],[28,8],[23,18],[-1,22],[22,29],[0,29],[-34,39],[1,21],[-13,20],[-1,36],[50,2],[13,10],[-20,51],[5,32],[-30,41],[-11,26],[0,27],[47,-14],[13,10],[-11,27],[1,32],[15,40],[-30,8],[-60,68],[-53,51],[-1,29],[-28,32],[-46,27],[-24,40],[-17,10],[-14,29],[-4,35],[-41,69],[-4,31],[-36,42],[-14,40],[0,36],[-30,41],[3,14],[-16,23],[-11,49],[-36,53],[-31,21],[-30,9],[-42,40],[-32,64],[-4,48],[16,50],[-9,23],[-25,37],[-27,7],[16,60],[-4,38],[-12,24],[-78,96],[-20,21],[-29,43],[-37,30],[-46,62],[-8,73],[8,60],[-2,57],[-14,67],[18,3],[34,42],[-2,50],[-22,43],[9,8],[-6,36],[26,14],[11,17],[12,47],[-6,45],[5,23],[27,26],[21,42],[2,35],[13,22],[34,22],[24,51],[5,38],[15,11],[2,21],[20,9],[17,21],[52,27],[19,24],[34,24],[25,55],[2,68],[10,119],[-18,61],[-2,37],[-8,7],[6,51],[42,45],[17,52],[0,36],[-9,17],[6,17],[-9,52],[-15,20],[-8,46],[-17,32],[-6,26],[-31,46],[-31,24],[-33,-8],[-5,22],[15,31],[-18,44],[5,29],[-19,14],[11,33],[32,12],[19,26],[29,60],[4,44],[47,55],[37,78],[3,33],[11,17],[20,74],[15,27],[9,35],[34,82],[8,34],[31,36],[28,47],[3,15],[84,59],[30,13],[28,0],[23,16],[31,-28],[-11,-8],[-31,-44],[-10,-54],[2,-22],[-39,-131],[-22,-82],[5,-35],[28,-34],[3,-19],[17,-18],[-9,-19],[2,-33],[29,13],[22,-2],[5,-41],[-36,-46],[-23,-23],[5,-29],[-6,-32],[27,-44],[33,-5],[36,26],[9,26],[35,30],[47,6],[13,-28],[-3,-26],[39,-5],[23,13],[11,24],[-11,11],[12,23],[-4,18],[21,80],[23,30],[3,29],[29,18],[-15,22],[5,19],[32,7],[-31,40],[24,5],[20,-9],[1,30],[16,24],[19,44],[15,8],[2,31],[23,13],[21,24],[15,5],[3,37],[25,31],[3,68],[80,50],[46,4],[56,39],[17,5],[73,61],[21,-1],[33,16],[54,-14],[32,9],[55,48],[32,-11],[28,26],[34,19],[14,-6],[16,15],[52,-7],[21,5],[69,40],[27,-2],[10,28],[24,-6],[20,23],[24,-25],[19,28],[-7,19],[56,69],[39,35],[24,29],[42,38],[25,1],[24,35],[16,-8],[43,15],[18,18],[23,9],[18,-7],[13,48],[16,12],[29,67],[39,46],[20,4],[51,35],[77,22],[73,24],[26,25],[23,1],[3,80],[12,52],[33,-24],[55,-18],[38,10],[17,29],[14,-4],[43,14],[60,7],[53,46],[10,23],[64,13],[23,20],[21,6],[30,27],[36,17],[23,31],[21,-1],[15,38],[18,18],[13,26],[20,8],[-2,20],[55,8],[-8,-17],[-33,-40],[-26,-68],[-3,-17],[35,-43],[42,-15],[26,-2],[51,22],[42,44],[41,8],[10,-16],[26,26],[19,4],[29,-19],[16,1],[8,27],[27,24],[25,-8],[10,-22],[-28,-18],[11,-32],[25,-15],[15,3],[62,-25],[62,-16],[36,-15],[15,21],[44,-1],[85,17],[46,20],[58,30],[16,-29],[33,26],[17,-21],[41,9],[31,13],[53,40],[38,22],[13,24],[1,22],[53,17],[16,43],[-4,16],[47,8],[40,21],[24,31],[20,6],[68,46],[35,19],[4,-15],[-11,-19],[59,18],[27,-3],[10,13],[36,5],[45,21],[9,-27],[67,18],[67,-6],[23,6],[23,37],[37,9],[-6,-36],[13,-8],[30,7],[-32,20],[41,5],[62,-21],[75,40],[19,6],[50,-1],[20,51],[19,4],[7,18],[29,41],[47,25],[16,16],[20,37],[16,55],[58,12],[26,19],[18,43],[22,-1],[49,-30],[6,34],[44,5],[40,-19],[62,-17],[23,3],[42,-13],[35,3],[24,-21],[26,6],[19,-6],[8,-16],[31,-23],[47,-20],[47,13],[50,31],[8,28],[22,9],[5,-30],[36,12],[2,47],[27,-5],[68,2],[63,20],[70,16],[37,-1],[44,6],[75,15],[67,-1],[127,38],[61,25],[51,16],[133,49],[63,16],[190,83],[140,55],[110,66],[77,52],[62,48],[48,45],[84,90],[96,129],[73,108],[26,66],[28,59],[34,64],[4,36],[19,11],[24,59],[4,41],[-31,17],[7,32],[28,3],[15,-13],[26,13],[44,7],[10,21],[45,25],[-7,33],[-15,24],[-41,25],[34,18],[20,43],[7,28],[31,35],[16,3],[15,-20],[18,-8],[36,11],[52,32],[23,24],[34,15],[29,33],[17,31],[22,-1],[14,12],[39,14],[34,35],[11,27],[29,15],[3,20],[26,5],[16,13],[62,21],[43,37],[13,24],[6,33],[-2,46],[-6,31],[-19,18],[-52,2],[-55,21],[-12,-19],[-24,-17],[-30,9],[27,46],[4,81],[-13,80],[1,88],[-16,17],[-9,60],[-30,48],[-3,71],[8,8],[0,126],[15,26],[8,66],[15,23],[14,-5],[24,59],[15,18],[38,22],[-27,18],[4,15],[48,53],[41,17],[25,35],[-7,7],[61,41],[24,6],[27,-23],[10,40],[-7,29],[42,-26],[32,-26],[39,5],[-21,26],[-1,26],[-19,23],[-13,29],[1,20],[33,9],[-18,17],[24,25],[4,17],[29,-3],[14,-32],[41,4],[28,17],[21,-9],[23,12],[20,28],[32,-17],[32,10],[-30,19],[-15,-1],[-13,25],[-19,10],[-2,17],[27,50],[11,54],[11,12],[53,18],[25,39],[28,10],[9,14],[-6,46],[19,29],[6,22],[21,-13],[28,7],[11,13],[37,17],[8,-19],[-12,-25],[18,-27],[8,-24],[-33,8],[-27,-13],[12,-12],[-20,-38],[24,-12],[-30,-34],[-12,-27],[27,-6],[10,-25],[21,7],[23,-9],[-6,-25],[6,-29],[12,-16],[30,2],[12,-19],[22,-6],[30,6],[-12,-29],[-14,6],[-16,-14],[8,-39],[24,-7],[23,-16],[3,-55],[-11,-26],[-2,-32],[21,-5],[66,-46],[6,-16],[37,-48],[13,-73],[54,-55],[17,-44],[25,-42],[7,-26],[-1,-41],[32,-9],[18,-20],[16,-5],[26,-48],[29,-20],[31,-52],[0,-26],[23,-12],[9,-20],[-5,-28],[21,-18],[-2,45],[9,14],[-19,28],[-1,65],[-12,8],[6,47],[21,10],[8,18],[0,31],[13,41],[9,71],[21,12],[-35,42],[-23,49],[-5,60],[18,23],[43,12],[15,-10],[1,-32],[34,-16],[10,13],[57,-45],[14,-40],[32,-41],[44,-25],[11,-22],[27,-6],[-4,36],[-55,51],[-1,24],[-11,57],[-22,50],[30,45],[65,52],[12,20],[48,20],[-5,22],[-90,-47],[-24,-4],[-35,-16],[-26,21],[-13,23],[0,30],[-11,7],[-29,46],[-7,32],[-23,-2],[-44,40],[-9,19],[-48,27],[-63,3],[-8,24],[47,12],[-7,18],[10,26],[13,-8],[36,41],[-25,15],[-11,-12],[-49,3],[-11,-20],[-23,-13],[-5,34],[-20,4],[-5,25],[23,1],[12,30],[68,-30],[74,-14],[-8,13],[-51,20],[38,5],[35,-4],[3,11],[-51,30],[-96,31],[33,23],[15,3],[37,-8],[4,-15],[28,-2],[42,-12],[22,14],[-6,16],[-21,6],[-28,23],[13,9],[29,-8],[36,4],[-20,34],[-37,23],[-35,3],[-29,-7],[-32,20],[7,22],[27,22],[-32,54],[8,26],[39,14],[40,-6],[17,16],[44,-17],[22,15],[35,-18],[19,-30],[0,-32],[-13,-20],[-27,-20],[33,-12],[29,-30],[18,-10],[28,4],[2,-19],[19,-13],[-28,-20],[-4,-35],[10,-20],[15,2],[19,26],[4,34],[11,30],[69,-44],[12,5],[-7,27],[-46,50],[38,24],[-21,11],[-14,31],[53,-27],[31,1],[23,-16],[44,1],[36,-8],[52,-32],[-1,-16],[20,-14],[12,-52],[26,-25],[36,4],[55,-3],[7,-22],[-7,-22],[26,4],[23,15],[34,-35],[-6,-19],[14,-15],[15,14],[-29,32],[0,41],[-12,10],[-48,-9],[8,35],[38,44],[16,-26],[48,-38],[40,3],[68,-1],[53,-5],[13,7],[78,4],[48,11],[42,-19],[21,-17],[25,-7],[49,5],[-10,18],[-65,-6],[-25,30],[-63,14],[-31,27],[-21,-5],[-52,14],[-50,7],[-64,-15],[-27,-12],[-49,-3],[-24,8],[-10,20],[8,30],[-11,20],[14,30],[-25,24],[17,25],[-11,17],[37,9],[11,13],[13,43],[-8,45],[33,0],[-1,-35],[35,-45],[20,-7],[35,43],[25,6],[-4,46],[2,55],[-6,13],[16,23],[0,33],[24,26],[-16,19],[51,44],[20,-9],[16,21],[20,5],[3,25],[-16,32],[-32,3],[-33,-13],[-32,-28],[-29,-44],[-21,-42],[-20,-53],[-22,-31],[-18,7],[4,35],[-17,21],[-2,62],[-32,11],[-6,-18],[-30,6],[1,58],[-10,27],[2,21],[-10,29],[10,44],[10,19],[34,-2],[-14,69],[-3,38],[17,32],[18,20],[-12,14],[25,17],[40,10],[37,-34],[69,0],[-2,17],[12,47],[25,-40],[27,8],[-13,17],[-3,25],[14,36],[37,15],[7,17],[-32,5],[-31,-5],[-4,23],[32,4],[15,12],[-24,23],[-10,30],[27,-10],[2,21],[61,-37],[5,-17],[27,14],[36,-29],[23,-25],[54,-10],[27,-22],[18,-3],[14,-31],[23,-9],[13,-22],[-19,-21],[13,-12],[28,-2],[37,22],[39,-1],[-32,27],[14,31],[8,49],[-16,39],[-24,14],[-25,2],[-106,-56],[-22,16],[-22,35],[11,25],[33,27],[19,29],[26,12],[30,-26],[30,22],[34,39],[-14,18],[-31,-17],[-20,-22],[-31,0],[-37,-27],[-19,-22],[-25,-12],[-16,23],[2,32],[-13,21],[-18,3],[5,22],[26,28],[25,16],[38,1],[48,-20],[7,16],[32,17],[14,-9],[15,31],[-18,12],[-8,26],[-1,37],[21,19],[10,-8],[23,16],[8,-29],[-23,-23],[18,-20],[-3,-18],[21,-2],[11,25],[20,0],[-4,-49],[16,-11],[7,-32],[18,-16],[62,47],[35,1],[31,-40],[24,-11],[32,8],[16,-8],[20,11],[29,-14],[31,8],[38,-6],[0,19],[-27,6],[-57,-2],[-23,23],[26,20],[0,16],[-23,2],[9,39],[-23,26],[-44,0],[-36,12],[1,20],[-27,28],[-44,-23],[-5,21],[15,6],[8,22],[23,13],[18,-24],[35,7],[-2,43],[-46,26],[-8,-9],[-29,6],[-23,21],[-10,52],[-38,10],[-9,23],[16,18],[24,-4],[1,31],[34,1],[-3,37],[14,6],[29,-15],[5,21],[46,7],[-19,21],[-10,-10],[-31,19],[17,31],[29,14],[18,2],[32,22],[35,-22],[24,5],[21,-32],[32,0],[-3,23],[21,15],[-9,13],[32,33],[51,6],[10,-21],[-4,-26],[40,22],[13,20],[-12,51],[6,31],[19,20],[-17,36],[-15,19],[12,14],[-19,28],[18,39],[-15,17],[36,26],[31,-16],[16,-25],[57,-35],[-22,-38],[-31,17],[3,-29],[-12,-40],[-3,-41],[18,-10],[11,-42],[-10,-53],[-27,-72],[18,9],[12,43],[33,84],[27,-3],[54,19],[16,-13],[40,22],[-5,-20],[-28,-21],[18,-26],[-5,-51],[26,-38],[19,7],[6,-17],[19,-8],[8,-23],[19,9],[7,29],[-15,32],[-18,15],[18,30],[50,17],[2,-23],[29,-9],[16,35],[26,-18],[3,65],[-15,2],[-7,39],[-8,15],[-29,-4],[-8,22],[24,-2],[43,41],[23,-3],[19,32],[-5,27],[-17,23],[-9,25],[21,18],[50,4],[21,25],[8,30],[-5,53],[-19,7],[-7,21],[-25,22],[-13,-11],[-24,13],[-30,-22],[-41,27],[-12,36],[0,26],[54,-25],[21,5],[-18,27],[3,16],[24,-5],[9,-42],[15,8],[8,24],[-34,55],[3,17],[21,5],[47,-20],[1,22],[27,-5],[-21,-36],[18,-8],[-8,-41],[35,-4],[12,7],[27,-22],[-8,-15],[-28,-3],[1,-22],[31,-44],[-28,-17],[6,-17],[-9,-17],[8,-14],[35,1],[13,-14],[-13,-14],[3,-20],[21,-14],[25,17],[18,-10],[6,21],[48,25],[-33,31],[-20,13],[12,23],[1,21],[31,1],[-3,51],[43,-2],[12,32],[25,4],[5,14],[32,-9],[27,11],[18,29],[27,25],[11,-21],[-35,-47],[-12,2],[-11,-40],[-30,-29],[1,-23],[37,0],[7,-31],[28,-26],[43,16],[-7,-27],[7,-29],[-5,-21],[10,-12],[30,-4],[5,35],[35,13],[7,27],[-5,21],[13,25],[-8,39],[38,-35],[-1,-24],[31,17],[-6,21],[17,4],[6,23],[18,25],[-16,28],[-12,-13],[-26,5],[-7,22],[16,26],[13,-23],[22,1],[3,18],[49,6],[13,-18],[25,18],[21,1],[17,17],[-34,27],[-30,10],[-11,33],[-25,23],[-15,35],[2,18],[-17,16],[58,15],[56,-19],[-3,39],[28,8],[44,-26],[6,34],[25,0],[27,-25],[2,-17],[84,-52],[11,-19],[-12,-42],[34,12],[4,-59],[7,-18],[32,-18],[13,47],[27,-7],[4,-12],[35,8],[12,36],[27,6],[50,-59],[20,-3],[14,15],[-22,19],[21,23],[66,-55],[26,-11],[26,-23],[-16,-30],[10,-10],[-10,-19],[41,-11],[48,-22],[59,-59],[16,3],[34,-36],[23,-12],[-1,-22],[17,-6],[4,-25],[21,-12],[38,-41],[14,-7],[17,-29],[8,-55],[41,-15],[-9,-37],[13,-12],[8,-18],[14,-16],[25,15],[21,-32],[28,0],[14,-19],[-12,-35],[17,-10],[15,-23],[37,20],[34,-13],[35,-38],[-2,-26],[20,1],[44,-18],[25,-41],[28,-9],[30,3],[-13,-26],[-17,-7],[-9,-46],[17,-47],[-34,-3],[-40,-21],[21,-10],[-31,-76],[5,-46],[-13,-19],[-5,-31],[8,-22],[-23,-23],[-5,-19],[10,-48],[14,-11],[-16,-96],[9,-18],[-26,-32],[2,-25],[19,-29],[2,-24],[-12,-44],[-21,-40],[-2,-25],[33,22],[32,62],[6,40],[3,83],[-15,36],[-2,48],[16,24],[63,-47],[21,-29],[43,-42],[2,-14],[36,-45],[9,41],[-23,42],[-38,31],[-20,43],[4,39],[-3,34],[-27,34],[10,38],[26,59],[60,25],[7,39],[25,5],[6,-43],[35,-92],[8,7],[-19,86],[4,87],[13,-4],[19,-32],[31,-28],[-3,36],[10,27],[15,-26],[29,-13],[7,15],[-38,59],[-22,19],[-37,17],[37,19],[20,-13],[68,29],[43,11],[28,-22],[27,-12],[11,16],[79,-11],[28,-19],[17,-21],[16,3],[45,-9],[35,-14],[26,-3],[50,6],[58,-22],[33,-1]],[[182,18569],[-12,-16],[-3,-52],[-19,2],[18,46],[8,71],[-7,51],[14,37],[15,2],[11,-29],[-17,-47],[-8,-65]],[[1582,21725],[7,22],[30,-13],[5,-37],[-16,-9],[-26,37]],[[2400,22933],[54,61],[46,68],[15,13],[31,-14],[-6,-25],[16,-29],[-6,-42],[-13,-17],[-11,-36],[-23,-9],[-8,-29],[-20,-18],[-22,-6],[-17,24],[-49,-2],[0,22],[13,39]],[[10284,9624],[-3,8],[-45,-2],[17,21],[28,-3],[3,-24]],[[765,15258],[-3,27],[23,-5],[-20,-22]],[[10554,27111],[1,14],[51,-8],[-22,-17],[-30,11]],[[10897,27472],[-9,25],[26,-3],[-17,-22]],[[2620,11747],[10,-19],[-62,-7],[4,24],[18,8],[30,-6]],[[10281,27352],[1,-25],[-17,-19],[-14,46],[30,-2]],[[10627,27641],[-24,21],[1,17],[26,-6],[-3,-32]],[[10845,27586],[-70,40],[11,9],[70,-20],[18,-14],[-29,-15]],[[10442,27157],[-14,35],[8,8],[34,-41],[-9,-20],[-19,18]],[[10621,26457],[-4,42],[14,1],[2,-33],[-12,-10]],[[11149,27633],[2,27],[29,-16],[-6,-18],[-25,7]],[[91,18224],[-3,-41],[29,-75],[39,-136],[20,-20],[18,-50],[-5,-29],[11,-13],[35,-7],[-30,-35],[11,-55],[30,-2],[27,-21],[28,-52],[14,-38],[-12,-34],[-15,-11],[-29,16],[-24,68],[-45,58],[-49,49],[-31,51],[-8,33],[-49,67],[5,44],[-21,45],[-21,58],[-7,8],[-9,51],[8,24],[-1,35],[44,48],[14,-16],[36,-5],[-10,-15]],[[996,17882],[5,-25],[-14,-14],[-28,11],[-25,42],[1,34],[25,10],[29,-17],[7,-41]],[[4790,23098],[7,35],[26,-19],[-11,-27],[-22,11]],[[2749,11545],[26,-25],[-15,-23],[-11,48]],[[3737,23147],[19,-5],[-10,-29],[-25,4],[16,30]],[[3629,23136],[3,-15],[-51,-2],[-25,10],[1,17],[35,12],[19,-16],[10,24],[17,-11],[-9,-19]],[[3689,23286],[-4,-35],[-20,-11],[-10,18],[17,22],[17,6]],[[3903,23243],[27,49],[30,17],[-15,-63],[-9,-16],[-21,-8],[-12,21]],[[3865,23230],[11,25],[22,2],[-21,-35],[-12,8]],[[4001,23331],[-41,15],[-34,18],[3,13],[67,-40],[5,-6]],[[3690,23148],[26,29],[8,-19],[-8,-23],[-26,13]],[[3676,23052],[51,7],[-11,-18],[-36,-29],[-27,20],[23,20]],[[11583,28357],[-18,-2],[-13,31],[9,27],[18,9],[-7,23],[12,15],[33,11],[19,19],[11,-16],[-9,-39],[8,-14],[20,1],[2,-18],[18,-6],[19,-32],[-3,-14],[32,-11],[-83,-42],[-36,-6],[-13,12],[32,42],[-8,21],[-43,-11]],[[11361,28448],[-4,-20],[-46,16],[44,17],[6,-13]],[[11457,28419],[-20,-3],[-15,15],[7,14],[28,10],[22,-3],[25,32],[31,-11],[-6,-20],[13,-15],[-23,-17],[-17,3],[-13,18],[-32,-23]],[[205,18848],[2,49],[10,22],[2,31],[25,16],[-6,-53],[-33,-65]],[[13619,29844],[-27,-10],[-11,21],[8,17],[39,-2],[45,-27],[-54,1]],[[12328,29119],[-26,-38],[-19,8],[28,29],[17,1]],[[12043,28658],[-4,15],[9,26],[16,-13],[-21,-28]],[[15206,28584],[-12,45],[15,71],[26,-16],[8,-40],[37,-34],[-7,-32],[2,-31],[-24,18],[-45,19]],[[13452,29742],[3,25],[28,-15],[-10,-20],[-21,10]],[[12102,28418],[13,-6],[-20,-45],[-26,11],[33,40]],[[14919,29277],[11,12],[2,16],[20,-2],[2,-21],[-23,-20],[-12,15]],[[11273,27820],[11,-3],[4,-28],[24,-1],[-1,-18],[-31,6],[-14,34],[7,10]],[[13241,29777],[12,32],[21,-4],[-33,-28]],[[11665,27790],[-37,-16],[-17,3],[14,28],[46,20],[-6,-35]],[[13088,29459],[-5,-19],[24,-6],[-6,-42],[-29,14],[3,17],[-10,28],[23,8]],[[13029,29404],[10,-14],[-3,-23],[-24,-1],[17,38]],[[11888,28503],[27,0],[21,-18],[-8,-18],[-34,-20],[-24,7],[18,49]],[[11990,28720],[-13,16],[0,30],[22,5],[19,15],[3,-34],[-11,-13],[28,-30],[-11,-12],[-37,23]],[[12797,29264],[0,23],[14,46],[18,-39],[0,-20],[-32,-10]],[[12609,29313],[25,-50],[-27,-11],[-17,35],[19,26]],[[12531,29244],[3,15],[34,-22],[-16,-8],[-21,15]],[[12213,29095],[-13,15],[-20,-2],[-5,81],[44,3],[-21,44],[5,18],[30,34],[24,1],[14,-26],[23,-19],[-20,-64],[8,-28],[-26,-42],[-9,12],[-34,-27]],[[12256,28691],[-2,-15],[52,0],[3,-19],[-14,-21],[-29,-18],[-16,3],[-1,40],[-18,17],[2,25],[23,-12]],[[34178,496],[-8,24],[24,10],[-22,29],[-38,-39],[-26,10],[-19,20],[-21,1],[28,76],[-35,-18],[-11,-71],[83,-46],[23,-23],[-8,-53],[-27,12],[-38,-12],[49,-33],[-40,-64],[-37,-11],[-14,-16],[35,-14],[-53,-15],[-8,-13],[18,-41],[-35,-4],[-32,-19],[27,-19],[8,-26],[-59,-33],[-60,30],[-57,-8],[-21,-17],[-27,3],[-12,28],[-33,0],[-78,72],[3,41],[-29,8],[3,-37],[-19,-18],[-26,5],[-19,-16],[-28,-1],[-71,12],[-43,16],[-29,-22],[-26,-8],[-24,18],[6,27],[-23,10],[-41,-1],[4,-36],[-29,-5],[-7,21],[-69,-17],[-1,-16],[-35,-11],[-35,3],[6,43],[-15,20],[4,20],[-33,37],[-6,26],[-47,33],[25,3],[16,40],[16,-16],[67,-8],[32,7],[59,-17],[45,0],[18,35],[-26,11],[-56,-5],[-6,-23],[-22,-3],[-37,15],[-12,27],[-35,-36],[-44,19],[-4,19],[-21,10],[13,24],[2,35],[-29,5],[-48,-33],[-35,-10],[17,-16],[27,24],[13,-29],[-54,-27],[-40,40],[-19,35],[-6,28],[-20,31],[-23,-4],[-28,77],[-30,-5],[-37,24],[22,40],[-29,11],[-47,35],[-19,34],[-30,4],[-29,-12],[-32,4],[-5,40],[-22,33],[-14,1],[-29,55],[-11,49],[-39,44],[13,31],[-13,6],[-14,31],[1,32],[-34,4],[3,21],[-55,18],[19,15],[2,28],[-42,48],[1,19],[-25,33],[17,20],[-17,34],[2,22],[-15,40],[-27,28],[17,30],[-8,45],[-30,45],[23,10],[17,-14],[38,-76],[26,6],[27,-14],[4,-25],[41,-22],[47,-32],[33,-8],[21,-23],[-5,-33],[45,16],[21,-12],[33,43],[-1,15],[-27,37],[-17,9],[-23,-18],[-15,25],[-30,9],[-7,21],[-23,13],[-36,33],[2,39],[-21,39],[-54,-10],[-26,-23],[20,-10],[-20,-20],[-44,18],[29,29],[12,57],[-8,54],[-26,60],[-43,73],[-66,44],[-15,20],[-37,26],[-2,15],[-61,53],[-3,17],[-34,40],[-53,17],[-6,23],[15,9],[-18,21],[-3,25],[-16,41],[-54,79],[-21,21],[-29,45],[-37,23],[34,26],[-8,36],[-53,58],[-12,42],[-25,25],[11,30],[-22,46],[3,69],[-16,37],[-21,12],[-22,32],[14,9],[1,42],[-18,22],[35,17],[9,15],[28,-1],[27,52],[-16,42],[9,16],[1,42],[-21,6],[-7,30],[19,29],[-6,25],[36,7],[14,-15],[0,-25],[97,-25],[9,-17],[33,-11],[56,-6],[33,5],[25,-5],[23,-32],[35,1],[15,-20],[64,-13],[39,15],[56,6],[32,-7],[10,47],[-18,37],[45,-18],[-27,-72],[71,-38],[43,0],[45,-18],[43,-3],[29,11],[24,-29],[37,-28],[91,-23],[31,1],[50,-10],[-8,-21],[18,-21],[26,-6],[16,-19],[34,-18],[58,-5],[33,-10],[3,-12],[43,-3],[121,-52],[42,-6],[11,-14],[37,-15],[66,-9],[123,-2],[9,-16],[60,15],[38,2],[82,33],[-3,-28],[30,-33],[4,-32],[18,3],[-11,28],[-4,41],[55,24],[22,31],[18,-8],[45,31],[31,-14],[25,2],[36,-36],[13,-32],[-2,-19],[23,-6],[33,25],[45,-19],[-22,-39],[33,-23],[17,-30],[27,-12],[-4,-38],[31,-10],[25,-24],[14,25],[-44,4],[-21,18],[37,22],[-26,27],[-44,21],[-2,20],[-19,21],[21,11],[-62,45],[-41,-7],[-25,15],[-12,60],[21,19],[55,25],[33,-11],[36,6],[40,31],[32,12],[30,-5],[20,-13],[43,5],[35,-19],[26,4],[43,18],[30,35],[30,15],[25,-16],[41,18],[14,-33],[26,-9],[11,-23],[45,2],[49,23],[34,29],[48,54],[30,49],[24,3],[34,19],[28,-14],[21,-22],[34,4],[40,-22],[52,-8],[49,17],[35,38],[28,41],[25,50],[60,-10],[8,-22],[42,0],[35,-42],[-3,-15],[57,-8],[14,7],[30,-15],[20,-39],[24,-6],[14,-29],[28,-21],[5,-24],[33,-29],[-42,-40],[-4,-28],[-22,-53],[-1,-30],[14,-22],[-15,-15],[3,-23],[26,-45],[30,2],[4,-23],[-53,-10],[-21,-43],[14,-14],[54,32],[-13,-39],[-18,-26],[-6,-27],[-21,-54],[-2,-36],[19,-64],[29,-20],[5,-49],[-26,-37],[1,-34],[-11,-26],[5,-33],[-24,-50],[3,-35],[20,-29],[23,-8],[-7,-18],[20,-26],[-17,-14],[3,-30],[-16,-10],[-10,-32],[0,-31],[26,-23],[34,-66],[-24,-13],[-3,-33],[39,-24],[-10,-31],[-23,-15],[-8,-36],[-28,17],[-25,4],[3,26],[27,37],[-31,31],[37,20],[-3,16],[-44,10],[-9,23],[-33,14],[-51,2],[15,32],[42,8],[30,38],[-15,13],[-33,-36],[-23,11],[-29,-7],[20,-36],[-14,-22],[80,-17],[-103,-1],[-39,-8],[-17,-15],[7,-47],[-13,-30],[-52,-47],[13,-20],[-26,-49],[24,-34],[-16,-30],[-28,-35],[29,-34],[-13,-35],[0,-25],[-38,-30],[-4,-19],[-66,5],[-8,-21],[26,-3],[29,-34],[-3,-30],[22,-11],[8,-25],[-24,-33],[7,-24],[-46,-17],[-26,-38],[-5,-29],[-54,-78],[-53,-14],[-40,16],[-42,-14],[-42,27],[-28,7],[11,24],[-39,44],[-32,13],[-38,2],[-26,-19],[36,-26],[49,-9],[-55,-17],[-21,-53],[41,-34],[-27,-24],[19,-41],[-13,-13],[-89,-23],[5,14],[42,5],[6,38],[-28,23],[8,51],[-42,4],[-14,24],[-51,8],[-20,-25],[24,-8],[6,-18],[-8,-25],[-30,-32],[1,-20],[19,-45],[-30,-11],[-34,32],[-22,-43],[43,-14],[-33,-38],[-18,-2],[-11,-53],[21,-39],[-20,-49],[-25,-16],[-47,-2],[-26,18],[2,15],[-45,6]],[[35002,4000],[18,18],[16,-5],[6,-36],[44,-16],[39,-42],[51,-46],[47,-51],[44,-29],[18,1],[61,-21],[20,3],[-8,-52],[7,-51],[-13,-20],[-35,-14],[-14,-18],[30,-5],[40,13],[25,-71],[15,-27],[-51,-22],[-26,22],[-47,-1],[-21,-16],[-4,-24],[-65,-23],[-64,26],[-32,27],[18,12],[-23,36],[-2,36],[-9,30],[-52,26],[-17,42],[-22,9],[-25,-4],[-29,15],[40,26],[-1,44],[-20,33],[-22,18],[-55,-19],[-9,14],[-36,12],[-12,16],[64,41],[39,10],[-9,16],[28,21],[9,25],[44,21]],[[30918,3842],[28,67],[-2,31],[-14,38],[-2,52],[44,14],[34,34],[8,24],[-8,46],[31,7],[94,-40],[23,-23],[34,-21],[-8,-67],[3,-41],[24,-44],[-22,-47],[5,-45],[25,-11],[-3,-54],[-30,-67],[-33,-7],[-42,-38],[-70,-19],[-29,-18],[-29,-7],[-18,14],[-24,58],[32,8],[-1,69],[-10,18],[-34,27],[-6,42]],[[34894,841],[39,9],[30,-4],[-10,31],[18,21],[31,-10],[18,-25],[17,6],[41,-43],[-12,-23],[13,-27],[-47,-37],[-26,-13],[3,-16],[23,-10],[1,-22],[29,-73],[1,-21],[-19,-27],[23,-40],[-39,8],[-3,20],[-51,7],[-1,40],[-22,17],[-26,-24],[7,-26],[-48,-30],[-27,-3],[-67,24],[-16,23],[-5,29],[13,16],[28,-3],[10,29],[-54,-6],[-17,15],[-42,15],[0,33],[-9,31],[9,10],[55,11],[-17,48],[13,5],[47,-15],[4,-22],[-22,-35],[41,-37],[24,-11],[68,-6],[-5,19],[35,17],[-31,20],[5,22],[-14,17],[17,22],[-30,17],[-3,27]],[[35112,3379],[26,2],[20,17],[48,5],[67,-16],[32,25],[33,-9],[24,18],[18,-2],[28,19],[17,-1],[21,-33],[48,-37],[25,-5],[9,-27],[-2,-31],[-59,-43],[-42,-12],[-29,59],[-31,4],[-59,-38],[-21,25],[-62,-12],[-29,7],[-32,-8],[-37,6],[0,13],[-28,21],[-29,-7],[-3,31],[47,29]],[[34455,488],[-24,-15],[-32,-43],[3,-38],[25,-20],[32,7],[-1,-29],[-30,-15],[-6,-26],[-22,-44],[6,-22],[-26,-13],[-21,6],[-37,37],[13,12],[-29,43],[-24,-6],[0,-30],[-22,-41],[-46,4],[1,27],[-44,39],[25,6],[36,-45],[21,21],[6,65],[54,8],[-12,24],[19,13],[2,18],[28,14],[0,18],[27,4],[9,-20],[27,9],[21,23],[1,29],[-10,12],[41,24],[-9,20],[-49,7],[-44,-2],[4,28],[41,2],[16,20],[-35,3],[16,33],[35,1],[39,-43],[-7,-37],[20,-17],[-3,-19],[22,-24],[-15,-17],[-42,-11]],[[35148,1066],[26,-31],[-1,-15],[-82,-9],[27,46],[23,0],[-4,23],[-20,11],[-9,25],[17,14],[21,40],[23,-15],[30,0],[16,-38],[23,-27],[-31,-15],[-45,5],[-14,-14]],[[31948,3017],[4,46],[38,29],[62,-4],[42,-29],[30,-8],[-17,-16],[-51,-2],[-39,-25],[-55,-3],[-14,12]],[[35195,3228],[15,10],[43,5],[34,-6],[20,18],[7,-46],[-26,-22],[-31,-40],[-30,28],[-34,1],[7,26],[-5,26]],[[31866,3340],[6,-79],[-3,-27],[-19,-27],[5,-42],[-19,-30],[-21,12],[-11,23],[8,20],[-22,67],[45,-2],[16,19],[-7,14],[22,52]],[[31915,3296],[47,27],[-1,27],[59,-7],[29,-29],[-21,-10],[1,-17],[-21,-17],[-36,-13],[-35,15],[-22,24]],[[35374,1407],[-42,5],[-17,22],[18,13],[63,-11],[-22,-29]],[[34397,4245],[-7,29],[11,15],[34,-10],[2,-20],[-40,-14]],[[34919,3443],[32,-8],[35,11],[-6,-25],[-20,-6],[-41,28]],[[34967,4049],[43,5],[3,-17],[-30,-1],[-16,13]],[[16080,28862],[31,-7],[12,-16],[22,11],[26,-15],[21,-28],[40,-33],[35,-19],[-19,-65],[32,-70],[-27,-28],[1,-17],[-18,-20],[14,-10],[23,40],[22,3],[22,24],[-3,21],[12,13],[-11,27],[30,35],[-30,20],[5,33],[-9,29],[3,37],[-6,45],[-7,14],[16,16],[25,-11],[-6,-15],[47,8],[50,-19],[13,-27],[42,-16],[33,-5],[33,-12],[47,-70],[3,-22],[46,-36],[33,-44],[-6,-25],[-38,-22],[52,1],[14,16],[31,-1],[14,-9],[15,17],[-34,32],[-10,20],[-1,37],[-20,44],[3,42],[-40,14],[-37,62],[-17,36],[-30,41],[6,14],[28,-18],[42,-49],[16,-35],[26,10],[-1,12],[-29,27],[-14,35],[6,9],[42,-31],[10,-15],[26,8],[26,-13],[59,-1],[17,6],[41,-14],[43,15],[2,14],[31,22],[26,34],[-19,2],[-28,-15],[-35,-32],[-36,-9],[-27,3],[-4,21],[-74,36],[-14,12],[-1,29],[-20,11],[-28,37],[-19,4],[-17,33],[4,27],[47,3],[60,-2],[25,29],[24,5],[31,29],[-7,7],[-64,-20],[-32,-17],[-102,18],[-11,11],[-35,4],[-7,17],[-41,36],[-39,17],[-27,44],[-23,13],[-28,1],[5,37],[13,27],[-7,16],[26,22],[21,35],[-5,46],[13,4],[51,56],[41,106],[20,13],[8,-33],[-12,-24],[0,-20],[27,-8],[2,47],[12,14],[24,-10],[17,38],[44,10],[63,28],[27,40],[1,56],[-12,22],[-20,4],[8,45],[71,70],[-9,15],[6,35],[-7,8],[6,53],[29,62],[13,49],[-5,41],[48,17],[-6,18],[18,31],[13,-11],[1,-41],[27,-27],[34,-8],[57,7],[48,32],[39,41],[11,-10],[25,9],[21,21],[28,42],[48,112],[-24,46],[-55,61],[-29,-1],[-15,12],[3,31],[15,29],[-14,15],[9,56],[11,27],[-11,40],[12,33],[18,4],[17,19],[47,-39],[38,7],[71,47],[26,88],[-5,12],[3,60],[-10,20],[6,45],[44,-10],[0,19],[38,25],[25,-2],[33,-29],[17,3],[11,-39],[16,-10],[18,11],[29,-17],[26,-4],[32,11],[42,-5],[-29,25],[-32,20],[-25,1],[-12,-9],[-12,28],[-27,23],[35,7],[25,17],[-40,39],[23,65],[15,13],[-23,23],[37,22],[-9,14],[-21,4],[3,21],[26,17],[38,-7],[29,-22],[22,2],[20,-14],[27,-1],[13,-10],[-9,-43],[21,-27],[-9,-18],[12,-35],[19,23],[16,-19],[27,-9],[25,-34],[65,-10],[-4,27],[-17,9],[-27,0],[-13,60],[13,-6],[38,12],[6,-25],[18,-7],[-4,36],[-12,22],[-39,8],[-39,27],[-25,-1],[10,38],[33,56],[23,24],[30,-12],[30,-4],[29,5],[38,-18],[19,2],[-27,37],[18,83],[-9,22],[-17,7],[-10,23],[8,26],[42,18],[20,-25],[23,13],[25,-1],[12,-27],[33,13],[23,-28],[40,-29],[12,31],[21,32],[-3,27],[20,29],[-5,28],[31,37],[2,-27],[21,-20],[-6,-78],[14,-35],[39,-43],[29,-19],[49,-16],[27,-3],[68,4],[62,-4],[79,-1],[74,10],[76,29],[40,29],[21,1],[47,-58],[82,-23],[49,-7],[2,12],[59,32],[24,21],[18,27],[14,0],[40,19],[5,16],[30,1],[2,-28],[14,-21],[56,23],[19,2],[36,-37],[28,14],[-1,21],[28,56],[39,8],[46,22],[35,22],[13,-13],[52,19],[-11,69],[20,73],[11,86],[-13,38],[-17,13],[-27,5],[-12,16],[17,19],[20,8],[8,36],[-32,-6],[-54,13],[-19,28],[-17,6],[3,47],[53,-1],[14,-16],[23,12],[-48,32],[-12,28],[19,26],[-31,11],[7,23],[-32,13],[0,19],[-25,12],[-13,18],[-34,7],[-25,-3],[-47,14],[-51,-24],[-66,9],[-27,-14],[-16,-21],[-22,1],[-23,-13],[-4,-14],[-40,-14],[-40,7],[-9,27],[-15,6],[-11,30],[18,2],[12,23],[-18,15],[-31,-10],[-26,9],[0,20],[-24,-9],[-22,14],[20,16],[6,38],[-49,-14],[10,20],[-27,24],[-28,17],[-18,0],[-14,-18],[-70,-10],[-11,22],[41,4],[10,32],[16,-13],[31,6],[-28,40],[23,20],[17,-7],[10,35],[24,-11],[2,-20],[27,-28],[33,-2],[22,26],[-25,41],[21,-2],[6,24],[-7,26],[22,3],[14,-18],[18,-45],[13,-9],[18,8],[19,-40],[29,-2],[-18,-28],[17,-26],[-15,-18],[22,-38],[5,32],[30,-10],[-10,-36],[21,-56],[13,11],[27,-11],[-5,30],[-18,19],[7,13],[32,-18],[14,30],[-9,18],[-36,23],[7,31],[-8,27],[9,17],[-29,38],[-8,25],[-20,8],[2,19],[38,6],[12,-36],[33,-30],[41,-72],[14,-2],[-1,36],[-16,18],[9,15],[-9,23],[28,10],[15,-8],[27,27],[22,-3],[7,-44],[18,-14],[-3,-62],[-7,-20],[26,-7],[7,32],[16,16],[-7,13],[21,24],[15,-6],[24,-33],[32,-21],[-4,-22],[16,-51],[29,3],[9,-23],[29,-30],[32,-13],[18,-32],[-1,-31],[24,-39],[53,-13],[22,5],[44,48],[10,23],[20,5],[19,29],[23,21],[8,-22],[25,-15],[20,10],[6,34],[-19,27],[-25,18],[6,10],[27,-10],[19,8],[17,-32],[38,-56],[37,-15],[12,-30],[25,-39],[31,-21],[-8,-24],[33,-62],[2,-20],[26,-32],[2,-11],[25,-36],[22,-11],[50,-12],[33,4],[36,24],[37,11],[15,-7],[-9,-26],[-25,2],[-8,-14],[13,-32],[49,11],[31,27],[12,-26],[-7,-19],[31,4],[23,-28],[20,20],[22,0],[32,21],[-5,-83],[34,36],[42,-3],[-1,-28],[27,2],[33,18],[-1,13],[28,23],[49,0],[34,21],[4,21],[16,16],[28,-5],[15,7],[20,-29],[44,-2],[18,9],[6,-23],[-19,-17],[-15,-28],[-28,7],[-16,-7],[-24,-28],[20,-39],[16,2],[19,-33],[36,3],[2,-13],[64,23],[25,34],[34,9],[25,-15],[-2,-17],[16,-21],[-6,-26],[24,6],[7,13],[30,13],[2,-17],[39,-42],[-21,-7],[2,-24],[18,-10],[19,-30],[-13,-39],[-16,-28],[12,-29],[14,24],[5,29],[33,34],[24,4],[-2,34],[11,14],[25,6],[23,-27],[40,-29],[48,-13],[24,-14],[47,1],[4,-7],[56,4],[78,18],[52,35],[31,49],[57,9],[26,-1],[-5,-44],[15,-5],[18,-42],[44,-12],[-1,-53],[14,-18],[28,-3],[26,-17],[19,9],[42,-15],[16,-17],[19,-40],[40,-34],[10,-13],[71,24],[18,0],[21,-28],[47,-30],[5,7],[-44,64],[39,-9],[53,9],[18,-29],[28,-4],[-2,17],[-24,14],[-14,20],[-22,2],[-14,23],[33,2],[15,16],[18,0],[16,17],[-13,22],[46,18],[18,23],[28,2],[20,-33],[52,5],[38,24],[12,24],[19,-3],[7,-23],[25,-12],[45,30],[21,9],[18,22],[32,5],[41,25],[24,0],[64,30],[28,-4],[-10,-18],[-38,-33],[-20,-10],[-31,-47],[-29,-12],[-14,-23],[-15,-7],[-34,-35],[0,-33],[25,-40],[32,-21],[20,-33],[17,32],[31,2],[2,37],[32,22],[13,16],[30,4],[15,26],[27,-30],[15,34],[19,-10],[71,44],[-4,25],[14,13],[17,-7],[-16,-37],[-10,-5],[-25,-37],[-48,-55],[2,-14],[25,-14],[10,-23],[36,4],[8,25],[34,11],[17,-9],[-12,-31],[-16,1],[-12,-44],[-26,-46],[-22,-16],[2,-20],[28,-3],[4,-21],[-11,-18],[9,-16],[26,-19],[34,44],[16,-26],[12,-2],[48,19],[15,-1],[4,-22],[36,-6],[27,6],[45,29],[36,33],[0,32],[22,24],[8,28],[30,59],[-8,33],[-17,20],[-23,-7],[-23,6],[-52,-9],[-29,30],[-23,-12],[-19,4],[2,33],[25,-3],[15,11],[20,34],[35,44],[35,24],[30,-10],[27,36],[11,-5],[15,32],[30,38],[16,-13],[32,22],[23,-4],[38,14],[6,20],[52,5],[-29,-25],[-58,-20],[-22,-1],[-4,-25],[-13,-21],[40,-15],[16,32],[20,-4],[6,-28],[16,-42],[17,-24],[18,-6],[-2,-33],[-10,-19],[23,-58],[46,-32],[2,-33],[15,-13],[49,-5],[7,13],[22,0],[21,40],[-39,22],[-20,24],[25,15],[54,14],[6,-21],[33,-33],[35,0],[18,-9],[11,-25],[16,-2],[-1,-29],[27,-3],[11,-43],[-11,-18],[19,-28],[-42,-20],[-14,-24],[-20,-12],[-26,-28],[-38,-49],[-32,-31],[-13,7],[15,29],[20,7],[-3,39],[-14,1],[-57,-42],[18,-19],[5,-23],[-6,-20],[-19,0],[-6,-18],[15,-12],[-25,-25],[-26,-59],[16,-42],[-65,10],[-20,-18],[-6,-28],[18,-10],[4,-19],[-16,-40],[-24,-3],[-3,52],[-44,24],[-13,-14],[10,-36],[-16,-15],[-35,39],[-18,-14],[22,-19],[-10,-31],[28,-19],[4,-16],[34,-24],[15,-22],[76,-39],[18,-64],[-20,3],[-5,40],[-31,-6],[-30,-36],[-2,36],[-12,15],[-26,-21],[-11,8],[-24,-15],[-31,18],[-7,-18],[26,-6],[28,2],[1,-16],[26,-11],[3,-33],[29,-3],[-21,-34],[-17,-53],[-18,7],[-18,-10],[-13,-20],[-8,-46],[-71,-27],[-14,-25],[-42,-57],[-10,0],[-15,29],[19,24],[-11,21],[44,-1],[15,19],[-8,27],[-13,9],[5,56],[-14,23],[13,11],[-5,50],[-29,11],[-27,-27],[-2,-21],[14,-27],[-14,-24],[3,-22],[-27,-2],[-60,33],[-2,-16],[22,-18],[-7,-19],[-21,-21],[-1,-24],[-13,-14],[-23,13],[-26,-12],[-4,26],[-11,8],[16,65],[-10,23],[-40,-29],[5,-19],[-28,-34],[2,-29],[-20,9],[-13,-17],[13,-20],[-21,-29],[-11,48],[-13,27],[-17,4],[-24,-19],[-6,-35],[-22,15],[-29,-18],[-10,-31],[-16,-11],[-13,-50],[41,-22],[5,-34],[43,8],[-8,-35],[-19,10],[-29,-9],[-30,20],[-25,-23],[6,-22],[-9,-51],[11,-36],[-26,-10],[-5,-25],[11,-24],[19,-7],[7,-36],[29,-22],[-23,-20],[11,-28],[24,-17],[43,2],[50,33],[6,21],[22,7],[-2,19],[20,18],[21,-11],[4,-14],[-22,-10],[-2,-17],[-19,-19],[1,-31],[-15,-6],[-14,-38],[9,-40],[-24,-29],[-2,-36],[-19,-17],[-13,-33],[-39,-32],[-5,-64],[-8,-32],[-14,-20],[-10,-87],[-45,-30],[-20,-18],[-27,-3],[-59,-64],[-23,-44],[-39,-59],[5,-15],[-55,-15],[-19,-28],[-10,-31],[-45,-61],[-20,-54],[1,-35],[-6,-15],[-24,-22],[-30,-1],[-47,-58],[-36,8],[12,-46],[0,-37],[18,-39],[-3,-16],[61,-106],[33,-18],[22,-21],[52,-30],[35,-13],[28,8],[50,-34],[34,-38],[19,2],[62,-39],[58,-30],[37,-33],[25,-33],[42,-23],[15,-15],[62,-27],[28,-25],[66,-30],[27,-23],[38,1],[37,-25],[2,-32],[22,-50],[6,-38],[20,-36],[27,-17],[4,-13],[70,-25],[21,1],[23,-20],[34,-20],[36,-39],[34,-26],[46,6],[46,27],[13,26],[79,-24],[-9,-30],[-27,-38],[-3,-13],[-36,5],[5,-20],[18,-2],[6,-21],[36,-40],[2,-22],[-23,-20],[14,-34],[24,-1],[40,42],[3,-16],[51,6],[31,-7],[15,-16],[36,-4],[8,29],[41,24],[23,23],[12,-25],[14,2],[44,-48],[36,-22],[36,-9],[38,-16],[49,-31],[44,-10],[57,-80],[59,-32],[21,-4],[21,-18],[17,5],[28,-7],[31,-18],[61,-11],[6,6],[50,-16],[79,-37],[49,-10],[19,-33],[20,-21],[21,-40],[40,-46],[32,-51],[24,-22],[54,-39],[12,-19],[43,-35]],[[22641,31727],[23,33],[9,29],[37,-23],[23,8],[23,34],[17,-6],[21,7],[19,-7],[48,30],[50,48],[39,27],[15,42],[-22,19],[12,17],[49,-16],[13,-31],[-31,-23],[-7,-27],[-35,-18],[-25,-32],[-12,-26],[-30,-35],[-19,-11],[-30,3],[-14,-30],[-32,-1],[-66,-15],[-31,-15],[-34,-36],[-18,20],[8,35]],[[23549,31892],[12,50],[16,-11],[-18,-32],[6,-44],[-21,-11],[-5,31],[10,17]],[[18125,31647],[19,-11],[-6,-21],[-29,-4],[-19,7],[12,24],[23,5]],[[18159,31725],[47,15],[6,-16],[-28,-6],[-25,7]],[[18148,31669],[29,20],[8,-23],[-37,3]],[[19415,31648],[42,20],[23,-3],[14,-16],[7,-28],[-11,-18],[-23,-1],[-52,46]],[[21988,31708],[2,10],[44,8],[27,-20],[-19,-17],[-26,3],[-28,16]],[[21929,31729],[4,-26],[-25,9],[21,17]],[[22135,31787],[-10,15],[6,19],[30,5],[39,-10],[-15,-17],[-50,-12]],[[23595,31944],[18,20],[33,-1],[1,-14],[-52,-5]],[[23452,32177],[-6,13],[20,20],[29,12],[15,21],[41,32],[-5,-41],[-15,-23],[-79,-34]],[[23220,31697],[30,11],[2,11],[49,-12],[49,31],[12,29],[23,-1],[8,-31],[-37,-25],[-81,-33],[-17,-13],[-15,10],[-36,-7],[-11,16],[24,14]],[[23228,31567],[2,-21],[-42,-4],[10,30],[30,-5]],[[23490,31880],[22,-19],[-1,-13],[-27,-8],[-7,11],[13,29]],[[23877,31623],[-1,29],[27,17],[-2,-48],[-24,2]],[[23829,28094],[9,6],[35,-4],[34,-17],[5,-17],[-19,-21],[-10,-24],[-32,-22],[-44,-5],[0,16],[15,18],[-7,12],[-1,44],[15,14]],[[23951,28131],[7,-19],[-12,-11],[-20,10],[-8,39],[17,11],[-14,23],[1,17],[34,4],[18,-62],[-23,-12]],[[24028,28005],[-13,53],[24,43],[10,-3],[30,22],[-8,37],[28,-11],[12,-39],[28,-6],[21,-24],[-3,-18],[7,-31],[-6,-22],[12,-32],[15,-5],[-9,-38],[-13,-17],[-29,-14],[-16,7],[-3,35],[-20,-6],[-26,25],[-12,46],[-29,-2]],[[20464,32104],[17,-24],[-33,-21],[-11,17],[6,22],[-11,20],[42,21],[13,17],[65,-13],[8,-20],[-35,-1],[-28,-16],[-33,-2]],[[20470,32246],[30,4],[45,27],[27,-51],[-40,-1],[-14,10],[-23,-21],[-18,4],[-7,28]],[[23018,31992],[16,17],[13,-22],[-26,-12],[-3,17]],[[23916,28174],[-1,-18],[-35,4],[7,23],[29,-9]],[[23696,28186],[-20,-26],[4,-32],[-11,-32],[-39,5],[-15,-13],[-22,0],[-19,13],[16,14],[-6,34],[17,29],[-10,20],[58,14],[13,15],[27,-9],[7,-32]],[[19379,32148],[4,30],[19,-13],[-4,-22],[-19,5]],[[23496,29888],[-8,21],[14,17],[17,-16],[54,-7],[45,24],[15,-6],[20,11],[27,3],[-7,19],[37,-2],[1,22],[-18,7],[-3,28],[-22,7],[1,41],[21,1],[29,-20],[36,6],[14,34],[33,6],[8,-29],[-12,-27],[-36,-17],[14,-45],[32,-44],[-5,-22],[30,9],[54,-24],[31,16],[6,27],[-12,11],[12,53],[44,-5],[16,-10],[7,-43],[-28,-36],[-25,-50],[-2,-18],[-44,7],[-22,-12],[-22,-41],[-7,-46],[16,-22],[27,5],[1,-17],[-42,-7],[-17,-25],[-15,3],[-32,-45],[4,-54],[19,-22],[30,0],[10,-10],[25,45],[15,1],[42,-36],[9,-21],[27,-2],[15,9],[21,38],[26,5],[20,-8],[-11,-29],[-19,-10],[19,-38],[-11,-13],[6,-21],[-12,-21],[-29,11],[-12,-19],[-17,3],[-23,24],[-25,1],[-47,17],[-41,2],[-59,-27],[-29,-9],[-18,10],[-10,20],[-86,10],[-16,21],[-31,-4],[-36,20],[-19,22],[-41,-6],[-39,-18],[-30,-23],[-3,30],[74,35],[19,15],[2,17],[24,31],[-14,39],[-21,100],[13,26],[15,57],[-19,40]],[[19190,32130],[10,14],[-4,23],[18,5],[14,-35],[-16,-24],[-22,17]],[[19661,32587],[11,-25],[29,6],[-19,-29],[10,-21],[7,-64],[-20,-13],[-8,-31],[-23,1],[-14,21],[-10,54],[-44,56],[-24,40],[31,17],[5,51],[-31,21],[-19,30],[41,-18],[39,14],[19,17],[-5,34],[13,19],[28,-1],[-19,-30],[6,-44],[13,-28],[5,-43],[11,-9],[-32,-25]],[[22769,28835],[27,24],[-1,31],[10,16],[33,-12],[8,-48],[-28,-4],[-31,-14],[-18,7]],[[23221,30217],[8,11],[-27,41],[13,20],[-8,13],[13,20],[-7,12],[16,22],[13,-34],[14,-19],[29,-17],[-7,-15],[-28,2],[-22,-27],[19,-15],[-26,-14]],[[17712,31964],[-27,-50],[-36,9],[-59,-12],[-87,25],[-32,4],[-40,22],[-41,8],[-108,-34],[-69,-18],[-85,-1],[-22,26],[-6,24],[12,19],[25,-11],[13,38],[-2,42],[22,15],[35,-32],[30,-2],[40,51],[12,1],[42,-45],[0,31],[-20,25],[-39,2],[10,54],[-26,28],[16,19],[8,31],[-13,24],[-29,-7],[-8,15],[21,14],[9,28],[51,28],[23,34],[-5,18],[16,12],[39,2],[34,22],[17,-21],[18,-57],[29,-28],[2,-25],[-25,-36],[-2,-22],[24,-33],[25,-6],[40,-31],[-4,-39],[8,-50],[16,-3],[49,-25],[16,4],[14,-16],[26,-9],[4,-16],[23,-3],[24,-21],[-8,-22]],[[17489,32376],[-20,-1],[-4,19],[24,41],[-20,32],[-25,16],[9,89],[28,4],[46,-45],[25,-34],[25,-25],[27,-14],[22,2],[7,15],[39,-22],[10,-33],[-18,-21],[-17,2],[-13,-22],[3,-23],[28,-16],[16,15],[15,-2],[44,29],[-4,-41],[39,-46],[-1,-20],[61,-14],[0,-11],[29,-18],[9,14],[-28,11],[6,17],[-16,8],[-23,32],[-35,7],[7,35],[59,10],[8,11],[47,2],[30,8],[61,43],[68,-26],[13,-18],[42,-12],[18,20],[-11,29],[24,6],[37,21],[23,37],[26,1],[15,-11],[7,-26],[-5,-20],[22,-23],[18,31],[-9,33],[6,32],[15,12],[28,6],[5,27],[47,-12],[17,-28],[-16,-19],[-2,-19],[26,-4],[19,25],[30,-13],[0,-26],[23,-7],[0,26],[14,13],[31,-17],[-8,-37],[18,-7],[3,-24],[17,-28],[-7,-14],[18,-15],[22,13],[24,-14],[10,-16],[4,-44],[-15,-17],[-27,9],[-32,-34],[-13,-46],[10,-19],[-7,-19],[14,-21],[-53,-2],[-10,15],[-23,5],[-53,-94],[-52,-58],[-16,8],[-21,-9],[-61,-50],[-36,-14],[-40,-25],[-25,-5],[-34,-47],[-38,-12],[-27,-34],[-21,-12],[-18,3],[-21,34],[-52,42],[-18,11],[-50,5],[-68,36],[-49,13],[-14,33],[-31,16],[-18,23],[-23,5],[-7,14],[-36,31],[-25,-6],[-39,25],[-16,35],[2,26],[14,28],[-5,17],[-28,14],[-6,16],[-22,20],[3,20],[-16,23],[8,29],[-16,19],[-1,43]],[[23271,29968],[-17,5],[-23,-21],[16,-31],[0,-14],[-39,-2],[-23,22],[15,27],[-11,24],[3,32],[48,-19],[13,22],[5,25],[11,8],[1,25],[35,7],[25,-13],[25,-30],[17,-2],[4,-22],[-26,-7],[9,-55],[-20,7],[-5,-47],[-14,-15],[-36,-10],[6,33],[-22,30],[3,21]],[[21999,31630],[-20,-29],[-32,14],[-2,55],[42,4],[21,-24],[-9,-20]],[[22680,29237],[2,14],[27,-3],[-18,-25],[-11,14]],[[23578,30024],[17,0],[23,-22],[2,-35],[-22,-18],[-25,17],[-7,19],[-18,9],[3,27],[27,3]],[[23071,32026],[-41,18],[2,18],[72,41],[30,-12],[-63,-65]],[[23392,32143],[28,21],[6,14],[21,6],[1,-23],[-63,-51],[-33,13],[-7,-40],[-25,-5],[-13,11],[-36,-24],[-23,19],[10,10],[52,1],[8,45],[31,17],[18,-22],[25,8]],[[23576,32328],[41,45],[31,25],[19,64],[37,50],[19,19],[8,21],[35,-4],[20,25],[-4,35],[15,11],[19,44],[-15,34],[37,21],[-23,-107],[-13,-19],[-14,-58],[-36,-16],[5,-22],[-45,-51],[-9,-33],[-20,-17],[-17,-38],[-52,-59],[-13,12],[-27,-7],[2,25]],[[23446,29899],[-33,3],[19,28],[20,-14],[-6,-17]],[[18111,31683],[-9,22],[28,6],[7,-20],[-26,-8]],[[17098,30566],[11,22],[28,1],[-4,-25],[-35,2]],[[17597,31172],[1,-19],[-16,-18],[17,-47],[-21,8],[-11,20],[7,29],[-10,12],[33,15]]],"transform":{"scale":[0.0009999934965241103,0.0009999721300002966],"translate":[112.92113459,-43.740364590000006]},"objects":{"states":{"type":"GeometryCollection","geometries":[{"arcs":[[0,1,2,3,4],[5]],"type":"Polygon","properties":{"state_code":"1","state_name":"New South Wales"}},{"arcs":[[[6,-2,7]],[[8]],[[9]],[[10]],[[11]],[[12]]],"type":"MultiPolygon","properties":{"state_code":"2","state_name":"Victoria"}},{"arcs":[[[-4,13,14,15,16]],[[17]],[[18]],[[19]],[[20]],[[21]],[[22]],[[23]],[[24]],[[25]],[[26]],[[27]],[[28]],[[29]],[[30]],[[31]],[[32]],[[33]],[[34]],[[35]],[[36]],[[37]],[[38]],[[39]],[[40]],[[41]],[[42]],[[43]],[[44]],[[45]],[[46]],[[47]],[[48]],[[49]],[[50]],[[51]],[[52]],[[53]],[[54]],[[55]],[[56]],[[57]],[[58]],[[59]]],"type":"MultiPolygon","properties":{"state_code":"3","state_name":"Queensland"}},{"arcs":[[[60,61,-14,-3,-7,62]],[[63]],[[64]],[[65]],[[66]],[[67]],[[68]],[[69]]],"type":"MultiPolygon","properties":{"state_code":"4","state_name":"South Australia"}},{"arcs":[[[70,-61,71]],[[72]],[[73]],[[74]],[[75]],[[76]],[[77]],[[78]],[[79]],[[80]],[[81]],[[82]],[[83]],[[84]],[[85]],[[86]],[[87]],[[88]],[[89]],[[90]],[[91]],[[92]],[[93]],[[94]],[[95]],[[96]],[[97]],[[98]],[[99]],[[100]],[[101]],[[102]],[[103]],[[104]],[[105]],[[106]],[[107]],[[108]],[[109]],[[110]],[[111]],[[112]],[[113]],[[114]],[[115]],[[116]],[[117]],[[118]],[[119]],[[120]]],"type":"MultiPolygon","properties":{"state_code":"5","state_name":"Western Australia"}},{"arcs":[[[121]],[[122]],[[123]],[[124]],[[125]],[[126]],[[127]],[[128]],[[129]],[[130]],[[131]],[[132]],[[133]],[[134]],[[135]]],"type":"MultiPolygon","properties":{"state_code":"6","state_name":"Tasmania"}},{"arcs":[[[-62,-71,136,-15]],[[137]],[[138]],[[139]],[[140]],[[141]],[[142]],[[143]],[[144]],[[145]],[[146]],[[147]],[[148]],[[149]],[[150]],[[151]],[[152]],[[153]],[[154]],[[155]],[[156]],[[157]],[[158]],[[159]],[[160]],[[161]],[[162]],[[163]],[[164]],[[165]],[[166]],[[167]],[[168]],[[169]],[[170]],[[171]],[[172]],[[173]],[[174]],[[175]],[[176]],[[177]],[[178]]],"type":"MultiPolygon","properties":{"state_code":"7","state_name":"Northern Territory"}},{"arcs":[[-6]],"type":"Polygon","properties":{"state_code":"8","state_name":"Australian Capital Territory"}}]}}}