{"type":"Topology","arcs":[[[37433,84995],[68,-52],[29,-132],[-4,-70],[-56,4],[-54,35],[-64,83],[-6,256],[70,-12],[17,-112]],[[38065,85394],[53,-98],[7,-148],[-69,61],[-134,185],[-17,70],[-7,148],[58,26],[32,-52],[77,-192]],[[33360,88617],[131,-5],[139,-56],[-30,-33],[-105,33],[-100,-32],[-35,93]],[[39499,35578],[-168,-56],[-396,-209],[-37,-46],[-77,-29],[-169,-126],[-1072,-512],[-495,-198],[-617,-116],[-443,-176],[-75,-19],[-57,-67],[-598,-185],[-438,-59],[-66,-2],[-75,-29],[-288,9],[-282,-30],[-78,30],[-71,-31],[-202,-16],[-751,100],[-232,79],[-71,44],[-155,27],[-118,-38],[-83,-84],[-62,-21],[-175,21],[-74,-32],[-264,-145],[-164,-124],[-653,-518],[-155,-46],[-335,-112],[-593,-329],[-236,-75],[-241,-287],[-167,-101],[-308,-108],[-467,-71],[-397,-75],[-103,-39],[-148,-141],[-132,-73],[-89,-89],[-119,-160],[-53,-102],[-32,-104],[-30,-187],[-59,-92],[-91,-207],[-3,-69],[-103,-365],[-10,-141],[-22,-60],[-149,-62],[-70,-84],[-12,-52],[-106,-73],[-143,-166],[-59,-157],[15,-81],[-69,-66],[-151,-78],[-65,-102],[-103,1],[-35,-24],[-99,-162],[-81,23],[-83,92],[-188,28],[-97,-38],[-72,-81],[-117,-166],[-85,-42],[-51,22],[-42,-36],[-97,-12],[-19,22],[-35,187],[-47,103],[-70,78],[-94,46],[-58,7],[-170,-36],[-189,-73],[-89,-20],[-82,11],[-48,57],[-60,6],[-69,-35],[-214,4],[-100,-16],[-81,-48],[21,-77],[-56,-67],[-95,84],[-48,-43],[-275,89],[-99,1],[-92,-29],[-81,-61],[-38,-76],[5,-98],[-63,-36],[-56,68],[-74,-82],[-228,5],[-52,36],[72,80],[7,48],[-57,110],[-37,150],[-68,61],[-59,92],[-193,-10],[-57,-30],[-85,-93],[-163,-75],[-91,14],[-79,67],[-139,35],[-92,-61],[-52,1],[-64,80],[-171,89],[-85,-7],[-404,20],[-136,-52],[-122,-15],[-153,-90],[-83,48],[-86,28],[-193,-61],[-119,-22],[-124,39],[-129,3],[-190,-89],[-106,-14],[-429,-2],[-67,-43],[-6,-66],[-38,-26],[-257,-99],[-69,-11],[-32,33],[-253,71],[-244,23],[-139,-57],[-93,7],[-112,68],[-91,-3],[-181,-109],[-171,-16],[-129,-50],[-186,-190],[-68,-44],[-153,-65],[-67,-53],[-17,-73],[-84,-43],[-82,-200],[-102,-89],[-55,-139],[-12,-150],[34,-67],[126,-38],[59,-37],[-196,-62],[-91,90],[-83,13],[-58,-44],[-21,-80],[14,-84],[48,-56],[-119,-104],[-48,124],[-35,21],[-85,-22],[-37,-42],[-22,-166],[-98,-28],[-28,84],[-49,29],[-73,-4],[-105,67],[-454,79],[-84,-38],[-143,19],[104,-114],[-16,-47],[-210,-37],[-154,-116],[12,-120],[62,-16],[-127,-131],[-97,-28],[-130,-86],[-221,-52],[-107,-41],[-122,-112],[-105,-212],[34,-153],[-40,-92],[-104,9],[-192,-18],[-152,-83],[-86,-10],[82,-178],[-4,-43],[-74,0],[-121,88],[-253,-83],[-93,22],[-84,-22],[-40,22],[-52,-40],[-143,-13],[-42,-61],[69,-76],[71,-31],[30,27],[-20,78],[60,-1],[42,-102],[42,-25],[122,4],[-130,-87],[-143,0],[-74,26],[-124,111],[-153,60],[-155,15],[-106,-45],[-35,-56],[-18,-172],[-75,37],[-124,99],[-193,48],[-247,155],[-67,18],[-20,-44],[-140,53],[-107,-17],[-78,39],[-49,-17],[-77,-147],[-83,73],[-163,51],[-93,-24],[-51,32],[-108,1],[-94,-96],[-53,-14],[-81,18],[-133,83],[-134,40],[-18,-61],[-173,0],[-50,-66],[-131,87],[-130,19],[-70,44],[-94,-2],[-74,81],[-98,71],[-29,73],[281,-63],[7,51],[-61,46],[-82,24],[-134,143],[-37,-18],[65,-120],[-56,-40],[-112,14],[-202,104],[-374,116],[-188,28],[-101,-19],[8,102],[-87,131],[-31,104],[-462,543],[-327,280],[-103,63],[-109,30],[-44,83],[-47,14],[-379,202],[-177,47],[-194,-10],[-47,-25],[-67,-118],[-71,17],[-223,244],[-18,51],[3,197],[-22,102],[-78,185],[9,62],[-5,414],[-22,121],[1,116],[60,185],[-42,73],[-30,109],[-6,112],[35,84],[66,68],[12,106],[-31,160],[31,62],[106,-48],[110,-166],[69,-70],[187,-84],[104,-20],[112,2],[207,58],[96,49],[69,57],[204,248],[143,255],[72,170],[34,145],[45,64],[99,-26],[60,32],[21,79],[-6,185],[-41,11],[-12,-106],[-48,-141],[19,783],[-35,258],[-87,376],[-58,447],[28,116],[42,90],[113,172],[44,-53],[-132,-167],[0,-144],[69,-219],[57,-119],[57,-29],[21,49],[-61,180],[-35,39],[-25,142],[8,59],[68,-41],[109,-2],[34,28],[16,76],[-15,69],[-83,39],[-36,86],[50,133],[26,109],[0,110],[-29,92],[-64,55],[69,108],[-53,90],[-68,38],[-32,50],[113,1],[40,26],[52,234],[-3,66],[-51,102],[19,80],[-37,141],[39,379],[-54,462],[-51,242],[-50,127],[-186,304],[-133,333],[-236,391],[-176,505],[-172,425],[-183,334],[-141,153],[-47,254],[-149,324],[-15,82],[-84,248],[-15,221],[-51,232],[-58,171],[30,50],[-8,123],[-92,67],[-17,54],[33,204],[-42,158],[-58,76],[-12,107],[61,383],[-5,65],[-44,150],[-17,256],[13,256],[37,232],[45,170],[-2,129],[-61,150],[-34,125],[-25,177],[-43,107],[-39,174],[-132,372],[-26,49],[-441,535],[-120,220],[-27,121],[-37,38],[44,110],[6,138],[-20,137],[-144,397],[-55,94],[-211,268],[-132,232],[-30,90],[-115,186],[-122,74],[-38,38],[-194,256],[-47,134],[-7,128],[-94,341],[-19,123],[-2,129],[57,178],[18,88],[36,62],[4,64],[-171,716],[-152,393],[-220,428],[-389,754],[-270,425],[-157,297],[-145,156],[-162,197],[-267,303],[-109,117],[-37,56],[-14,131],[19,43],[-37,60],[-98,234],[-77,74],[-139,188],[12,36],[119,-103],[118,-33],[51,-36],[34,198],[-18,222],[14,95],[37,84],[36,-373],[22,-337],[-4,-119],[18,-107],[65,-139],[33,20],[-47,127],[-7,99],[26,139],[33,55],[7,329],[-58,170],[15,87],[62,-142],[21,-345],[40,63],[95,-12],[-4,-123],[29,-146],[30,-40],[54,-190],[18,-146],[-33,-72],[7,-103],[-33,-114],[70,11],[0,175],[44,166],[-40,127],[11,114],[40,20],[33,-59],[44,-194],[-22,-95],[36,-182],[-26,-75],[26,-60],[-4,-222],[69,36],[11,103],[63,91],[51,20],[-4,-202],[-22,-71],[26,-88],[43,4],[22,-103],[38,-55],[21,119],[161,56],[127,-12],[4,107],[95,56],[84,154],[7,83],[-15,127],[-26,71],[26,60],[3,106],[-40,71],[-133,155],[-80,76],[-80,9],[-160,50],[-10,112],[-76,133],[-93,127],[-83,22],[-25,157],[23,82],[-35,27],[-22,82],[10,93],[-95,64],[12,83],[-29,114],[-93,107],[-12,77],[-119,189],[-17,78],[22,141],[72,150],[31,93],[62,82],[31,93],[31,14],[23,-204],[-9,-68],[30,-52],[56,-4],[70,-37],[58,-214],[57,-96],[73,-40],[35,-93],[130,-43],[-27,-151],[25,-80],[73,-37],[9,-58],[-62,-92],[9,-146],[-49,-141],[-14,-267],[-22,-78],[58,-97],[0,-49],[85,0],[9,-39],[72,10],[129,253],[49,127],[27,107],[-67,284],[83,-12],[59,-73],[-17,-165],[22,-170],[-14,-91],[55,-55],[49,-5],[-31,-155],[49,-204],[35,-213],[127,-176],[117,-136],[85,-34],[98,103],[31,58],[126,55],[21,92],[45,83],[-73,209],[-31,150],[13,83],[74,308],[-88,181],[21,81],[48,-60],[94,23],[5,54],[-56,64],[-8,66],[72,194],[-12,60],[-160,119],[-93,37],[-65,221],[-70,61],[-18,69],[-108,74],[-82,230],[-158,239],[-57,118],[-163,438],[-21,115],[-90,164],[-35,110],[-135,105],[-85,35],[-86,129],[-21,101],[-35,64],[-26,121],[51,91],[-17,128],[-46,47],[-71,10],[-14,185],[39,103],[-6,76],[-35,126],[-152,252],[-253,330],[-55,104],[-41,118],[-22,132],[-15,490],[30,104],[62,71],[26,60],[-34,195],[-12,165],[79,124],[34,118],[-2,172],[79,113],[25,58],[60,262],[29,49],[52,19],[98,321],[70,66],[21,45],[112,51],[44,90],[93,67],[30,46],[11,79],[35,81],[6,203],[28,186],[-34,256],[-50,235],[25,129],[76,65],[54,136],[-10,359],[-14,92],[-65,141],[-38,190],[-113,141],[-57,32],[-78,8],[32,112],[1,64],[-31,83],[-2,101],[-30,87],[35,72],[79,54],[59,129],[36,37],[23,161],[44,128],[111,154],[200,655],[31,183],[61,108],[59,180],[158,276],[60,66],[124,77],[102,23],[77,36],[42,-90],[-58,-72],[-61,-227],[-77,-547],[-33,-102],[-14,-103],[107,-253],[9,-45],[-36,-165],[36,-17],[56,125],[59,-68],[-18,-114],[-30,-7],[-71,-92],[-12,-72],[19,-75],[-37,-117],[29,-79],[63,-51],[78,-1],[40,41],[63,119],[159,73],[33,-19],[49,-113],[43,-18],[73,46],[11,105],[29,86],[21,167],[73,177],[54,182],[59,92],[0,102],[74,26],[19,111],[39,111],[2,59],[-56,102],[-9,91],[18,25],[116,-137],[119,256],[30,92],[51,80],[15,122],[22,41],[77,26],[55,76],[193,83],[368,260],[103,35],[93,-32],[114,49],[82,71],[41,-37],[291,197],[567,253],[59,38],[39,104],[103,125],[163,240],[57,65],[89,71],[354,186],[30,29],[29,104],[71,107],[45,118],[69,91],[76,76],[213,112],[81,32],[71,51],[89,21],[74,49],[55,81],[34,115],[4,135],[72,48],[116,-59],[105,21],[97,80],[213,19],[193,146],[17,66],[164,47],[276,226],[107,127],[89,168],[28,76],[83,20],[-25,-125],[-9,-119],[-54,-71],[-3,-90],[119,-120],[107,-26],[104,44],[87,90],[259,138],[81,-46],[55,23],[89,99],[32,-22],[-11,-138],[85,-101],[184,-87],[96,-29],[104,-14],[206,15],[186,48],[75,41],[87,76],[58,29],[117,-44],[60,0],[134,63],[50,4],[148,79],[72,19],[97,154],[79,14],[59,91],[14,110],[478,389],[102,42],[132,-70],[83,49],[142,58],[49,-59],[65,-20],[103,47],[347,74],[134,36],[53,-1],[48,-35],[84,-6],[50,17],[88,76],[166,33],[65,57],[49,76],[71,152],[192,242],[38,160],[99,78],[102,43],[30,80],[66,48],[56,-14],[106,-107],[5,123],[21,18],[99,-3],[196,-71],[207,-34],[146,-51],[53,37],[41,-13],[32,-76],[89,-66],[107,-47],[57,9],[130,84],[54,81],[93,-9],[36,29],[-3,91],[45,31],[166,-9],[257,57],[402,74],[412,44],[320,119],[693,309],[746,386],[427,336],[93,108],[68,36],[290,352],[257,394],[253,453],[50,167],[60,113],[12,92],[70,99],[38,138],[73,163],[9,139],[-60,72],[-21,80],[75,-13],[84,32],[112,20],[111,125],[27,114],[-13,39],[-106,75],[104,105],[56,175],[67,104],[105,-56],[107,19],[275,237],[54,72],[45,121],[146,78],[89,90],[62,113],[34,-40],[57,124],[74,31],[180,108],[57,88],[54,170],[-3,112],[-17,78],[-41,51],[-149,56],[-86,10],[-77,-26],[-49,-87],[-67,61],[64,98],[29,101],[-1,114],[-34,200],[9,189],[20,94],[-69,143],[-18,101],[-66,194],[-5,313],[21,349],[43,136],[12,103],[45,91],[59,59],[160,213],[-56,53],[48,96],[335,347],[78,11],[49,-44],[34,38],[9,62],[-22,89],[82,2],[57,-102],[33,-21],[96,14],[-53,139],[-73,106],[2,88],[48,20],[6,70],[42,76],[75,48],[33,-71],[70,-12],[53,35],[98,5],[88,76],[82,-1],[116,-54],[-142,148],[-42,81],[-2,98],[33,93],[0,102],[32,75],[63,57],[99,-5],[28,26],[53,108],[39,13],[40,184],[33,103],[54,0],[168,124],[28,-65],[-48,-80],[106,-54],[41,-37],[-43,-73],[-125,14],[-29,-95],[30,-71],[-75,-152],[71,-145],[79,43],[14,-33],[10,-151],[30,-48],[60,27],[56,-78],[27,-68],[-16,-110],[29,-51],[110,-63],[14,-143],[-32,-109],[-1,-64],[99,-45],[85,-145],[104,-111],[15,-43],[2,-120],[31,-94],[132,-182],[41,-126],[71,-149],[-24,-74],[74,-148],[85,-45],[57,-119],[108,-135],[25,-125],[104,-141],[15,-51],[18,-164],[51,62],[-2,165],[-66,202],[17,254],[67,144],[-1,104],[33,83],[12,104],[54,42],[23,50],[-158,271],[-13,152],[41,128],[110,25],[77,-51],[32,-154],[43,41],[87,-58],[45,-50],[34,-104],[58,-69],[80,-45],[96,-162],[47,-22],[82,7],[2,49],[-76,25],[-72,81],[-41,92],[-55,235],[-49,159],[56,12],[112,-88],[16,63],[-65,75],[-4,98],[70,68],[34,79],[132,87],[38,117],[-11,57],[-42,27],[-19,-115],[-52,-60],[-166,-67],[-105,-27],[-59,36],[-87,192],[-39,169],[-59,81],[-122,78],[-117,115],[-211,34],[8,35],[131,78],[-30,65],[135,90],[-31,83],[-101,-11],[-24,-69],[-81,-12],[-60,68],[-73,54],[-76,78],[103,-12],[57,10],[-8,93],[86,-88],[231,-93],[41,43],[-68,64],[114,28],[-283,173],[38,92],[232,-96],[155,-6],[-89,91],[-58,20],[-47,63],[46,33],[119,-62],[37,23],[2,89],[-43,40],[-99,7],[-76,92],[-41,-64],[-40,4],[-133,154],[67,13],[23,55],[-14,61],[-41,33],[24,76],[76,87],[236,22],[69,-22],[33,45],[42,-65],[53,-2],[94,-106],[-53,-78],[100,-18],[-37,-44],[-198,-38],[173,-147],[146,-57],[19,-87],[-87,-35],[69,-183],[78,60],[-9,119],[38,92],[94,-45],[97,-92],[21,21],[-87,169],[-15,81],[85,22],[-154,153],[23,39],[97,-55],[140,-27],[21,-42],[76,14],[141,-40],[110,-92],[70,-214],[57,-61],[294,-37],[59,129],[83,34],[61,-63],[120,-56],[291,-24],[76,4],[66,35],[186,17],[105,-9],[86,-98],[89,-22],[96,15],[13,64],[-106,-18],[-78,52],[-138,40],[-137,89],[-248,53],[-57,2],[-181,-29],[-57,-36],[-48,43],[-30,-21],[-77,7],[-28,26],[-17,90],[-28,49],[33,131],[-45,71],[39,143],[58,18],[29,56],[3,214],[57,52],[45,-62],[0,-124],[67,-81],[50,-102],[65,144],[106,101],[-1,206],[-14,108],[59,93],[5,175],[81,98],[57,13],[45,-58],[60,179],[59,42],[-132,45],[-116,-8],[-54,-37],[-57,-123],[-69,-80],[-106,-284],[-71,-83],[7,171],[-34,40],[-15,93],[-46,157],[-26,13],[-88,-107],[-12,209],[-36,99],[-3,130],[16,32],[-29,88],[98,54],[23,142],[-22,52],[-53,-12],[16,146],[-33,109],[86,-39],[66,42],[0,90],[52,67],[77,4],[82,-40],[99,-78],[127,6],[0,216],[48,17],[-15,-90],[27,-46],[70,-4],[22,50],[-46,43],[-1,72],[63,132],[73,38],[0,41],[-115,-7],[-42,30],[8,46],[54,11],[22,66],[-84,19],[0,124],[60,-37],[58,28],[9,-63],[113,-52],[-39,-129],[128,129],[92,-77],[-33,-108],[151,21],[91,-41],[91,-137],[88,-46],[0,-47],[-42,-92],[38,-27],[64,44],[24,-83],[55,-21],[29,145],[61,-15],[176,-150],[-85,134],[-125,123],[42,213],[97,74],[-62,70],[-76,-17],[-86,69],[-132,-92],[-81,-32],[-55,-45],[-55,15],[-23,100],[-31,57],[98,99],[0,53],[129,64],[73,-40],[47,52],[73,123],[-102,41],[-26,-99],[-73,41],[-27,-66],[-76,-38],[-152,-141],[0,102],[-34,63],[30,61],[-17,35],[-67,-6],[19,70],[35,19],[17,61],[110,42],[128,-58],[32,-45],[59,110],[75,40],[1,130],[-43,27],[-6,141],[39,23],[44,-43],[44,56],[55,-13],[3,-49],[-49,-61],[31,-138],[55,92],[29,12],[39,-73],[-22,-59],[92,-241],[53,101],[-74,263],[66,-49],[105,-39],[84,-61],[76,-88],[-17,-61],[91,-67],[114,42],[154,-38],[30,34],[-17,65],[-77,-14],[-49,39],[-11,178],[151,84],[-33,52],[-82,-35],[-73,60],[-180,1],[-13,109],[-55,-40],[-59,61],[-38,-25],[-67,38],[43,40],[29,70],[92,21],[24,-53],[65,-3],[-5,76],[52,29],[-27,50],[-74,36],[-85,-13],[-102,83],[-7,158],[-68,3],[-58,63],[17,86],[82,3],[10,85],[88,104],[87,-27],[25,57],[52,14],[-7,58],[-104,-5],[-15,51],[26,60],[55,55],[60,28],[60,-21],[46,90],[8,86],[48,29],[-2,-247],[80,82],[40,20],[82,-235],[4,99],[49,17],[17,203],[67,-61],[-17,126],[36,50],[76,-34],[56,1],[1,-49],[-68,-94],[74,-26],[77,26],[-13,56],[47,80],[-16,37],[22,161],[29,95],[-71,150],[11,43],[-20,145],[29,50],[-27,46],[80,95],[42,-24],[22,-76],[121,-68],[97,27],[-50,-102],[14,-57],[-47,-46],[-65,43],[-36,-104],[36,-292],[23,-45],[5,-99],[-116,-272],[38,-72],[107,351],[36,100],[5,134],[17,74],[53,-28],[-20,-56],[27,-46],[-27,-76],[121,38],[98,-11],[-12,-69],[39,-105],[10,-76],[-21,-84],[27,-64],[42,-17],[129,-116],[22,5],[17,122],[-52,81],[52,152],[100,-9],[43,-71],[35,13],[-1,64],[34,29],[38,-30],[36,33],[-23,138],[-35,44],[-12,69],[-75,70],[9,54],[121,81],[63,17],[4,91],[29,49],[-24,97],[-3,103],[21,27],[110,30],[61,63],[12,55],[-14,101],[27,28],[-42,115],[-67,46],[-247,4],[-35,20],[-43,121],[13,120],[73,-106],[59,-7],[3,113],[30,19],[66,-125],[43,27],[-14,142],[-123,80],[59,32],[36,97],[72,4],[-30,-82],[142,-22],[-47,-70],[52,-20],[-66,-72],[-35,-91],[81,45],[120,110],[43,-33],[-77,-56],[79,-93],[9,-38],[-111,-28],[-8,-109],[80,23],[38,-65],[-56,-178],[124,-77],[15,-113],[155,92],[84,23],[1,31],[-78,96],[-49,16],[38,69],[17,79],[67,42],[-35,40],[36,41],[82,9],[33,112],[102,104],[44,-65],[49,0],[45,37],[97,150],[102,-39],[-104,-64],[-19,-60],[-45,-40],[-18,-103],[-70,-83],[-6,-77],[131,49],[29,-11],[-84,-121],[69,-101],[92,37],[32,-50],[-7,-130],[55,-66],[47,126],[88,51],[2,131],[64,100],[36,-104],[41,-8],[38,95],[16,83],[43,85],[-59,-6],[-47,74],[15,70],[99,-21],[35,61],[67,0],[68,-37],[65,37],[-74,39],[13,42],[-56,175],[-68,112],[-50,163],[93,13],[92,32],[1,-106],[49,-19],[25,52],[58,9],[-75,86],[-3,44],[45,33],[45,-8],[78,-54],[5,84],[91,37],[99,-128],[66,-34],[3,-143],[40,29],[80,-35],[5,-44],[-41,-133],[73,10],[26,-126],[29,-79],[55,-44],[31,34],[52,135],[4,90],[54,-63],[-2,-89],[26,-52],[41,40],[57,130],[35,-17],[90,-121],[110,-68],[-25,131],[54,38],[39,-75],[72,-41],[22,-58],[49,62],[74,-133],[9,-81],[-15,-104],[84,-90],[22,62],[105,-103],[37,-15],[106,-106],[39,2],[147,-135],[12,-56],[67,-114],[142,-147],[83,-245],[64,-24],[25,-43],[-6,-108],[51,-40],[17,65],[50,-15],[19,-51],[-59,-76],[78,-27],[46,-69],[120,-106],[-37,-33],[19,-87],[48,-16],[95,53],[119,-118],[31,-98],[126,-49],[141,-145],[97,-1],[32,-32],[0,-102],[-74,37],[-32,-16],[-8,-99],[32,-154],[-34,-32],[-78,-5],[-76,-58],[48,-26],[-11,-97],[-61,-232],[-43,-114],[-1,-147],[-42,-85],[-15,-107],[43,-147],[-22,-307],[-38,-43],[-43,0],[71,-226],[2,-109],[-40,-116],[-88,-104],[62,-27],[94,91],[43,97],[28,127],[14,139],[-1,128],[-42,185],[24,15],[1,103],[35,25],[121,-93],[123,-140],[76,-149],[61,-218],[40,200],[-12,76],[-32,57],[-91,102],[-53,94],[-9,61],[23,74],[-18,126],[-46,53],[-10,129],[50,104],[167,187],[-2,50],[74,112],[42,-94],[30,-252],[55,110],[130,-166],[64,-19],[29,36],[10,97],[-91,183],[-36,133],[-2,79],[78,57],[-29,44],[-61,35],[-16,81],[110,11],[96,38],[129,79],[144,-75],[208,-29],[93,-29],[86,-86],[46,14],[164,-54],[211,0],[132,-71],[65,-13]],[[39499,85656],[0,-1044],[0,-1035],[0,-1035],[0,-1036],[0,-1035],[0,-1035],[0,-1036],[0,-1035],[0,-1035],[0,-1036],[0,-1035],[0,-1036],[0,-1035],[0,-1035],[0,-1036],[0,-1035],[0,-1035],[0,-1036],[0,-1035],[0,-1036],[0,-1035],[0,-1036],[0,-1035],[0,-1035],[0,-1036],[0,-1035],[0,-1035],[0,-1036],[0,-1035],[0,-1035],[0,-1036],[0,-1035]],[[39499,52516],[0,-1059],[0,-1060],[0,-1059],[0,-1059],[0,-1059],[0,-1059],[0,-1060],[0,-1059],[0,-1059],[0,-1059],[0,-1059],[0,-1060],[0,-1059],[0,-1059],[0,-1059],[0,-1050]],[[730,52313],[20,-52],[-14,-129],[-30,-32],[-73,42],[-16,98],[-37,115],[-49,61],[-130,202],[-90,76],[-83,283],[-117,152],[-26,62],[23,55],[-21,170],[-87,196],[7,217],[-7,105],[65,94],[129,6],[23,-19],[-4,-168],[34,-108],[57,-121],[20,-260],[48,-89],[46,-146],[118,-268],[-55,-154],[1,-76],[120,-41],[109,-177],[19,-94]],[[335,54710],[-11,69],[60,208],[18,99],[-10,221],[23,99],[72,59],[-30,-210],[-5,-180],[-58,-150],[-8,-154],[-51,-61]],[[571,55710],[-55,-87],[-46,-15],[54,473],[63,2],[-58,-269],[3,-75],[39,-29]],[[6251,68204],[15,-47],[-74,-144],[-4,-73],[-63,-61],[-42,-72],[-75,-39],[-73,80],[-43,-68],[-53,48],[34,163],[47,85],[172,237],[72,73],[55,2],[14,-141],[18,-43]],[[28244,84507],[67,3],[16,-35],[-49,-81],[-1,-49],[-85,27],[-50,-59],[-84,39],[-19,42],[180,60],[25,53]],[[28631,84272],[64,-32],[83,-180],[-212,-95],[-35,62],[87,124],[-80,18],[-76,-41],[-52,11],[-66,50],[29,30],[5,74],[73,26],[5,113],[117,89],[41,15],[-47,-158],[61,-37],[3,-69]],[[29497,85342],[25,-72],[-5,-84],[-61,23],[-35,81],[-67,0],[-15,55],[57,59],[42,-52],[50,101],[9,-111]],[[30153,86841],[33,-34],[-20,-86],[-56,-94],[53,-108],[-16,-52],[-112,-64],[7,-63],[-31,-27],[-41,87],[-60,-5],[-16,38],[16,173],[96,23],[9,94],[-58,39],[18,46],[86,74],[92,-41]],[[6732,34207],[45,-198],[-45,-48],[-32,208],[32,38]],[[6319,34666],[80,5],[68,-36],[-92,-57],[-80,43],[24,45]],[[1867,45215],[59,11],[41,61],[72,1],[-138,-166],[-34,93]],[[39499,85656],[125,-36],[101,-53],[48,-53],[21,-91],[86,-22],[44,-33],[35,-118],[-29,-161],[55,-118],[3,-57],[-67,-167],[-47,-149],[47,5],[69,162],[31,-55],[-11,-108],[15,-45],[72,369],[48,17],[-18,228],[-31,68],[-18,214],[-35,276],[56,-2],[61,-130],[49,78],[87,-1],[82,-52],[37,-75],[254,-86],[54,-72],[36,-149],[99,-67],[47,-69],[63,-189],[-32,-157],[109,91],[39,13],[52,-39],[0,-83],[26,-69],[123,16],[-14,102],[-154,207],[-71,210],[-26,184],[-18,45],[69,142],[13,161],[48,14],[61,-43],[196,-30],[76,1],[162,63],[23,47],[146,118],[116,-67],[-6,76],[33,165],[-94,-91],[-153,-48],[-232,-134],[-88,-8],[81,129],[-17,35],[-82,-61],[-77,-17],[-133,112],[9,90],[-114,90],[-50,62],[-41,132],[12,60],[124,20],[116,-5],[61,19],[49,81],[99,74],[-24,33],[-118,-54],[-82,-69],[-47,-4],[-101,27],[-101,0],[-122,62],[-148,143],[-50,0],[-18,61],[-50,20],[-26,72],[-121,81],[-23,30],[37,236],[89,133],[10,102],[42,94],[107,125],[47,97],[7,164],[-31,86],[13,36],[64,-39],[38,28],[42,-100],[141,58],[11,112],[58,-20],[142,30],[66,28],[45,71],[25,91],[-3,142],[-73,98],[20,86],[46,77],[133,120],[49,70],[-66,60],[-9,197],[60,181],[43,96],[25,215],[76,50],[17,79],[39,88],[38,-28],[0,-160],[20,-32],[133,-56],[182,77],[47,33],[124,132],[52,-36],[73,84],[125,216],[56,74],[88,50],[107,-73],[19,73],[-127,90],[-50,11],[-52,62],[-41,82],[-133,193],[-93,21],[-10,25],[1,325],[39,144],[-12,173],[42,56],[53,9],[31,52],[56,-108],[105,-1],[177,95],[40,61],[41,128],[-2,183],[24,90],[-39,166],[23,68],[113,-28],[8,87],[109,76],[168,-81],[-52,104],[54,46],[102,-232],[166,-100],[37,39],[84,-20],[50,52],[-203,70],[-35,-20],[-59,103],[-8,61],[61,-10],[52,56],[-24,57],[-59,-3],[-11,51],[61,191],[1,50],[-35,75],[23,54],[51,22],[-103,108],[67,44],[87,8],[81,-27],[53,-64],[107,-6],[109,-57],[-26,-102],[26,-101],[2,-184],[65,82],[79,-65],[84,-172],[78,57],[53,-16],[67,13],[-126,101],[-50,62],[-13,104],[96,-15],[76,-50],[28,33],[-77,101],[-67,10],[-51,93],[-39,20],[-58,-45],[-46,35],[14,87],[-14,54],[83,22],[-8,74],[76,47],[28,55],[46,4],[43,-40],[224,-42],[64,-39],[1,59],[-62,147],[9,152],[-13,57],[-57,83],[-3,104],[64,72],[43,2],[84,-63],[45,54],[49,-16],[53,-83],[61,26],[63,-80],[69,-42],[39,-70],[61,6],[-45,72],[1,56],[44,67],[7,107],[27,108],[5,94],[35,59],[38,-2],[38,-141],[0,-134],[24,-134],[46,-102],[66,-81],[82,-70],[100,-58],[111,-24],[157,38],[54,3],[84,-37],[421,78],[136,70],[60,62],[52,27],[47,-9],[24,-90],[48,-41],[106,-42],[61,-43],[108,-44],[80,28],[92,66],[86,88],[50,72],[111,40],[49,143],[37,12],[43,-73],[23,-141],[45,5],[122,75],[83,-43],[78,-170],[24,-91],[-83,-127],[0,-101],[109,146],[42,92],[-65,204],[4,125],[37,104],[122,57],[137,110],[80,14],[72,-54],[178,-73],[97,-11],[-7,41],[-164,129],[-54,117],[0,118],[59,412],[-5,97],[-20,44],[-118,102],[19,52],[132,173],[30,103],[71,61],[-113,54],[-134,40],[-105,115],[17,88],[-83,75],[-74,156],[-148,88],[-160,35],[-56,-10],[-88,-69],[-166,20],[-27,-9],[-90,-93],[-44,20],[-88,-81],[-88,-40],[-53,15],[-103,101],[-30,99],[61,24],[-36,72],[-124,-20],[-20,76],[-40,-19],[-45,35],[1,45],[77,38],[-34,64],[-64,-23],[-41,35],[7,60],[-171,52],[-99,-41],[-118,19],[16,33],[75,27],[-10,81],[94,-42],[20,42],[-55,120],[-14,64],[72,-17],[53,37],[31,68],[142,-237],[105,75],[-36,175],[52,-3],[-20,115],[81,-29],[74,-120],[82,-37],[-10,-76],[30,-33],[70,60],[14,-39],[-34,-92],[17,-102],[-15,-133],[50,-35],[9,89],[53,-38],[-1,-173],[55,-65],[71,-12],[-1,56],[-37,120],[38,5],[57,-42],[21,72],[-64,86],[-52,22],[19,59],[-3,82],[-33,80],[23,36],[-53,121],[-53,57],[1,59],[33,41],[66,-27],[69,-143],[61,-47],[57,-178],[58,2],[-25,110],[-13,122],[12,46],[51,27],[53,-26],[74,47],[83,-204],[8,-93],[-22,-111],[64,0],[42,161],[59,49],[73,-64],[67,-118],[37,-110],[-12,-59],[63,-1],[56,-76],[21,-57],[109,-92],[48,-92],[41,-117],[60,-95],[102,-23],[107,71],[44,60],[26,85],[113,77],[-2,54],[56,-2],[96,-55],[16,68],[-24,112],[-60,60],[14,31],[93,-12],[74,-66],[46,-114],[63,-36],[63,-85],[83,-185],[77,-44],[-5,-152],[62,-108],[103,-230],[63,-89],[45,-38],[187,-37],[53,26],[22,97],[135,0],[29,-48],[-72,-43],[-33,-90],[19,-31],[120,-5],[38,75],[47,36],[37,-57],[-25,-81],[67,0],[96,-61],[15,30],[95,53],[49,-14],[-3,-96],[40,-34],[78,39],[79,-105],[98,44],[50,144],[84,-22],[85,22],[126,164],[67,0],[40,-35],[96,-37],[41,1],[34,49],[57,-105],[-73,-48],[-34,-72],[-62,17],[-58,-43],[-30,-73],[23,-71],[117,-97],[128,-77],[102,72],[56,24],[44,106],[36,13],[69,-39],[46,-105],[0,-114],[111,124],[30,-1],[42,-132],[82,-49],[-67,-87],[54,-123],[-17,-149],[42,-22],[27,69],[116,106],[20,122],[46,23],[152,-156],[87,-66],[115,-44],[229,-21],[98,36],[104,8],[69,56],[177,209],[45,25],[112,14],[15,-141],[78,-146],[73,18],[26,-158],[35,-106],[48,-22],[115,-2],[98,-34],[93,-186],[87,-54],[73,-99],[55,-2],[101,50],[33,0],[61,-78],[112,-92],[50,28],[-20,50],[-100,69],[-47,69],[93,-2],[124,21],[61,-84],[46,-26],[89,39],[-181,111],[-56,5],[-46,46],[36,35],[68,3],[119,74],[25,42],[-51,34],[53,52],[66,17],[36,52],[56,-11],[97,-72],[78,6],[110,46],[26,98],[48,-46],[89,-50],[41,-4],[84,91],[220,148],[-24,31],[-163,-46],[-105,-96],[-29,-5],[-38,95],[12,92],[74,113],[53,6],[81,-35],[36,56],[76,45],[94,-27],[89,66],[85,88],[66,47],[20,56],[74,28],[29,63],[-45,172],[24,31],[54,-8],[90,-53],[-36,-116],[-46,-101],[-154,-190],[-73,-114],[-43,-36],[-86,-18],[-103,-98],[18,-23],[153,64],[159,20],[113,59],[14,-42],[-118,-37],[-65,-49],[-87,-93],[-67,-104],[-284,-276],[5,-115],[42,-101],[110,-118],[44,-103],[49,121],[33,40],[52,-19],[51,139],[99,86],[80,108],[56,-24],[24,-67],[54,106],[82,10],[149,182],[18,-63],[-77,-79],[-48,-108],[-76,-55],[-46,-86],[37,-57],[17,-74],[92,-7],[121,86],[40,-3],[6,-97],[-56,-27],[-34,-112],[-101,-154],[20,-90],[51,29],[-4,-90],[27,-125],[66,-7],[20,82],[45,4],[19,-46],[140,28],[39,-16],[40,-62],[108,18],[87,43],[78,75],[49,96],[72,235],[74,143],[-2,100],[-33,36],[-89,28],[-193,-29],[-24,58],[-111,12],[6,75],[104,26],[15,65],[129,197],[42,45],[88,2],[63,79],[138,149],[55,34],[25,59],[74,-25],[77,29],[33,57],[99,38],[30,-23],[-74,-67],[-193,-82],[20,-107],[30,-12],[73,56],[34,-16],[66,-256],[65,-12],[-12,-194],[21,-77],[146,-185],[34,-81],[66,-57],[70,4],[65,47],[50,69],[-32,50],[-61,17],[-67,87],[70,53],[78,25],[47,-22],[110,-125],[126,-28],[125,-195],[17,-100],[-15,-79],[53,-21],[35,-49],[-88,-13],[-47,-36],[-116,-136],[-166,-243],[28,178],[-38,33],[-122,-91],[-5,-95],[16,-119],[41,-79],[-73,-12],[-75,-112],[-54,-165],[45,-81],[-18,-44],[-49,24],[-104,9],[-48,-38],[-16,-55],[49,-91],[0,-162],[-27,-35],[-60,22],[-52,222],[-53,15],[-40,-34],[13,-148],[-51,-3],[-38,75],[-55,-36],[39,-174],[90,-89],[47,26],[0,-122],[55,3],[169,-128],[9,-63],[42,-59],[-14,-52],[-75,72],[-47,20],[-50,-94],[-41,7],[-2,95],[-60,53],[-106,-39],[-7,-75],[69,-55],[30,-94],[81,-24],[-68,-131],[-20,-157],[-45,36],[-50,-17],[-28,-53],[-8,-182],[-51,-68],[-17,101],[-125,-76],[-78,-165],[-62,-72],[-52,77],[58,43],[-18,98],[69,-19],[40,29],[15,58],[-52,92],[10,88],[-16,43],[18,254],[-15,31],[-81,24],[-70,-131],[41,-90],[-31,-124],[-85,7],[-31,93],[-71,-64],[33,-138],[-81,-43],[-14,-61],[-72,-11],[-47,-81],[-48,167],[44,102],[-1,76],[-49,65],[-80,-100],[-44,-122],[0,-91],[-54,23],[-28,-68],[16,-141],[-31,-57],[-39,224],[-55,63],[-75,-49],[-24,-129],[-62,57],[-46,-32],[-41,-106],[-59,-69],[1,-124],[92,-30],[4,-112],[103,0],[0,-101],[-46,8],[-64,-53],[-50,78],[-47,23],[-48,-23],[-15,-54],[34,-284],[-44,-48],[-14,-97],[63,-158],[35,-40],[77,38],[17,-63],[-72,-38],[-17,-77],[36,-75],[87,-34],[81,24],[65,59],[90,141],[11,62],[64,20],[35,-45],[-60,-76],[-50,-185],[-69,-142],[19,-71],[-48,-115],[-4,-121],[-66,-103],[-102,-71],[-49,-525],[15,-177],[-48,17],[-88,-33],[-29,-55],[-82,-22],[-122,-115],[-61,-98],[-145,-322],[-18,-62],[-43,-28],[-63,15],[-38,-63],[-189,-382],[-35,-106],[11,-104],[-169,-102],[-48,-104],[-45,-6],[-92,31],[32,-82],[31,-220],[107,-305],[54,-95],[200,-211],[74,-50],[84,-31],[92,11],[42,-70],[96,-94],[21,-50],[46,14],[104,-51],[43,-59],[159,-87],[223,-264],[126,-50],[100,-61],[116,-113],[112,-54],[72,-66],[99,-50],[84,-81],[42,-139],[26,-221],[40,-77],[158,-128],[167,-23],[126,-157],[149,-133],[62,-15],[101,39],[42,-130],[144,-132],[83,-144],[46,-44],[-45,-158],[27,-62],[89,22],[39,83],[148,-24],[78,4],[48,-22],[66,-64],[89,151],[121,64],[40,-83],[93,-90],[109,-73],[109,-39],[63,-52],[93,-22],[128,-107],[102,-152],[170,-150],[128,-26],[21,-55],[72,1],[59,-66],[55,-19],[80,24],[50,-7],[272,-118],[70,-59],[139,-62],[83,-152],[12,-46],[147,-244],[54,-109],[205,-218],[123,-93]],[[61606,80674],[0,-917],[0,-879],[0,-878],[0,-879],[0,-879],[0,-879],[0,-879],[0,-878],[0,-879],[0,-879],[0,-879],[0,-878],[0,-879],[0,-879],[0,-878],[0,-879],[0,-879],[0,-879],[0,-878],[0,-879],[0,-879],[0,-879],[0,-878],[0,-879],[0,-879],[0,-879],[0,-878],[0,-879],[0,-879],[0,-879],[0,-879],[0,-878]],[[61606,52516],[-691,0],[-691,0],[-691,0],[-690,0],[-691,0],[-691,0],[-691,0],[-691,0],[-691,0],[-690,0],[-691,0],[-691,0],[-691,0],[-691,0],[-691,0],[-690,0],[-691,0],[-691,0],[-691,0],[-691,0],[-691,0],[-691,0],[-690,0],[-691,0],[-691,0],[-691,0],[-691,0],[-690,0],[-691,0],[-691,0],[-691,0],[-691,0]],[[41052,85719],[3,-71],[-53,10],[-66,122],[52,28],[64,-89]],[[40809,85863],[109,-184],[32,-146],[-4,-128],[-77,133],[-57,148],[-80,177],[15,38],[62,-38]],[[53955,94024],[100,-32],[17,-57],[-20,-58],[-42,-33],[-48,17],[-52,105],[-31,116],[76,-58]],[[54151,94116],[51,-45],[-91,-39],[-97,56],[-2,39],[117,19],[22,-30]],[[54536,94404],[-35,-37],[-123,-33],[-28,35],[19,66],[75,-2],[92,-29]],[[50328,95409],[112,25],[52,-10],[-3,-71],[-192,-36],[31,-91],[-90,-35],[-31,143],[121,75]],[[50495,95818],[41,-161],[-124,17],[-99,-88],[-1,90],[53,52],[130,90]],[[58340,83289],[13,-47],[89,-73],[-41,-108],[-78,-115],[-83,87],[-35,105],[15,64],[120,87]],[[58659,83352],[73,-78],[-127,-34],[39,-90],[-9,-37],[-94,-70],[-51,4],[28,204],[-28,81],[127,0],[42,20]],[[59340,83027],[70,-68],[-15,-87],[-67,-130],[-71,38],[-26,112],[-81,28],[-36,110],[-10,114],[-74,3],[-41,-31],[20,160],[52,81],[88,75],[-13,67],[52,-2],[28,-103],[137,-72],[-4,-220],[-9,-75]],[[58205,83659],[-33,-73],[-5,-143],[-30,-70],[-101,22],[-67,-43],[-52,43],[34,55],[-34,65],[69,83],[-4,75],[191,53],[32,-67]],[[58893,83515],[-54,-30],[4,-72],[-66,-40],[-28,106],[44,71],[-33,66],[39,99],[42,-6],[8,-65],[44,-129]],[[56120,85656],[-10,-97],[-88,15],[-53,-52],[-44,31],[68,68],[-11,63],[42,72],[53,-12],[43,-88]],[[57397,89116],[5,-67],[-96,-41],[75,-147],[-46,-6],[-40,-137],[-90,-48],[6,89],[-61,157],[-22,28],[-58,-21],[-6,-69],[13,-136],[-97,68],[-5,278],[123,-56],[21,105],[54,111],[38,25],[89,-32],[27,-54],[70,-47]],[[59030,87700],[-34,-44],[52,-108],[-43,-28],[2,-76],[-25,-47],[-45,10],[-26,-56],[-126,69],[-40,-29],[-75,52],[-103,9],[-73,26],[-130,-87],[-101,15],[-438,190],[-57,54],[-53,6],[-87,-31],[-58,-56],[-67,-22],[-5,49],[99,82],[106,69],[25,79],[39,56],[-37,95],[-16,93],[-15,179],[3,96],[38,168],[10,93],[-57,133],[43,66],[97,-87],[20,19],[98,-2],[33,47],[-15,41],[26,55],[76,-101],[32,65],[51,-42],[32,59],[1,63],[-69,266],[94,-21],[19,-78],[44,55],[31,-17],[62,134],[60,4],[47,-25],[-28,-128],[-73,-39],[-19,-69],[37,-54],[83,-6],[-51,-83],[34,-111],[65,-45],[128,-27],[42,10],[58,71],[4,74],[-30,29],[35,122],[36,-21],[115,-1],[34,-60],[18,-82],[-120,-163],[-48,-164],[-81,30],[-77,-37],[-57,-80],[-21,-98],[27,-82],[86,-56],[-63,-84],[-37,19],[-38,-54],[-80,0],[-30,-188],[46,-175],[70,-14],[70,9],[21,113],[53,-29],[150,-145],[51,26],[39,66],[21,88],[44,-23],[85,0],[-44,-79]],[[57027,89923],[-2,80],[32,54],[100,-184],[-46,-13],[-39,-50],[22,-119],[-41,-1],[-55,122],[29,111]],[[58700,93968],[17,-83],[-27,-96],[-39,83],[5,71],[44,25]],[[47820,93981],[59,-35],[10,-79],[-25,-68],[-44,-1],[-118,103],[44,62],[74,18]],[[57406,94267],[64,-35],[-34,-77],[-82,-76],[-125,-45],[-83,-72],[-82,11],[-54,51],[14,58],[66,9],[71,85],[43,-72],[127,43],[75,120]],[[57833,94511],[33,237],[47,-7],[-46,-147],[13,-70],[-47,-13]],[[58179,94951],[26,-31],[-71,-83],[-144,-42],[22,75],[49,-11],[67,37],[51,55]],[[56585,95067],[-11,70],[72,66],[106,61],[76,-27],[-120,-175],[-49,-23],[-74,28]],[[48390,95247],[52,6],[17,-67],[-51,-124],[-106,-34],[-62,3],[-115,145],[-8,62],[90,54],[84,-45],[99,0]],[[57733,95655],[111,100],[36,-25],[-21,-64],[-43,-54],[-159,-99],[-41,-104],[-124,-67],[-68,-5],[-96,-106],[-69,0],[-86,-85],[-13,101],[103,61],[85,158],[41,25],[46,-79],[43,-35],[119,175],[136,103]],[[43274,95073],[29,11],[64,-42],[111,-100],[37,-57],[-17,-109],[-135,-78],[-128,4],[-61,-28],[-141,82],[-193,53],[-96,70],[-97,-36],[-114,-22],[-217,-105],[-154,-9],[-76,15],[-72,83],[-18,54],[36,53],[56,-13],[38,23],[5,57],[-18,135],[18,60],[41,-7],[75,-63],[66,-14],[53,20],[84,116],[-17,67],[-26,250],[36,121],[-32,60],[-95,-8],[84,163],[116,103],[75,151],[27,32],[140,24],[57,-28],[58,-161],[63,-117],[-39,-153],[7,-105],[26,-45],[119,-97],[40,-74],[3,-172],[-37,-133],[123,14],[96,-45]],[[45731,95942],[4,-98],[-21,-86],[-117,0],[-53,-155],[-7,-105],[39,-113],[-103,-20],[-87,74],[-46,-6],[-128,-291],[-56,-57],[-25,-69],[-88,-15],[-104,-81],[-33,-56],[-252,-158],[-292,-292],[-46,-22],[-49,17],[-47,82],[-67,67],[-85,54],[-127,51],[-118,85],[-118,44],[-93,67],[-35,61],[-117,119],[-75,55],[-58,92],[-152,52],[-19,60],[-17,254],[-50,42],[-77,136],[-55,326],[-4,59],[-33,61],[33,113],[-64,82],[-35,109],[17,145],[67,91],[89,-148],[172,-221],[24,-58],[71,72],[70,-9],[56,-78],[-15,-94],[-69,-83],[-9,-54],[47,-53],[52,33],[98,125],[48,38],[25,-41],[-36,-97],[93,-135],[79,114],[149,48],[150,24],[104,141],[81,11],[81,-21],[52,-59],[85,-56],[22,-136],[27,3],[47,252],[124,73],[87,98],[45,25],[58,-238],[102,-184],[26,59],[-32,98],[0,124],[-41,4],[16,145],[60,114],[49,40],[60,15],[44,-23],[25,-55],[7,-79],[-37,-86],[62,-4],[39,90],[94,-41],[80,37],[63,-17],[30,-103],[-12,-57],[51,-19],[12,-142],[34,-99],[70,34],[61,-22],[23,-79]],[[58569,97053],[-74,-291],[-33,-109],[-9,-95],[-90,-50],[-28,-98],[-72,-90],[-30,-131],[-37,-12],[-54,-130],[-161,-206],[-60,73],[-6,72],[155,129],[48,82],[13,127],[77,145],[91,148],[84,26],[53,170],[4,71],[48,52],[10,45],[-40,40],[49,62],[62,-30]],[[48070,96695],[68,61],[-14,157],[-60,70],[-11,93],[69,-44],[100,43],[38,150],[80,41],[-49,-132],[84,-286],[-8,-41],[-61,-30],[-9,-62],[90,-24],[-15,-72],[36,-180],[-13,-77],[-52,-130],[-3,-87],[-84,102],[-11,101],[-64,172],[-111,175]],[[61606,52516],[921,0],[921,0],[921,0],[921,0],[921,0],[921,0],[921,0],[922,0],[0,-1117],[0,-1116],[0,-1116],[0,-1117],[0,-1116],[0,-1117],[0,-1116],[0,-1116]],[[68975,43585],[0,-936],[0,-935],[0,-935],[0,-935],[0,-935],[0,-935],[0,-935],[0,-936],[0,-935],[0,-935],[0,-935],[0,-935],[0,-935],[0,-935],[0,-935],[0,-914]],[[68975,28644],[-81,95],[0,-1725],[0,-1488],[1,-1488],[0,-1488],[0,-1487],[0,-1488],[1,-1488],[0,-1473]],[[68896,16614],[-41,15],[-584,-49],[-109,27],[-109,74],[-55,-3],[-116,85],[-241,209],[-145,57],[-18,61],[-76,52],[-16,104],[-40,92],[-121,200],[-15,52],[-101,195],[-67,70],[-187,140],[-66,74],[59,41],[-6,58],[-43,59],[-126,79],[-78,28],[-24,-60],[-82,44],[-475,650],[-61,142],[-70,119],[98,84],[17,79],[-86,133],[-33,75],[-10,112],[-58,91],[-90,59],[-8,44],[277,153],[75,69],[65,98],[37,111],[16,123],[-16,394],[-8,40],[-307,742],[-231,503],[-166,382],[-128,118],[-104,152],[-39,79],[-454,455],[-180,174],[-92,56],[-77,85],[-76,38],[-90,84],[-76,38],[-80,84],[-75,32],[-124,89],[102,30],[102,-56],[853,-781],[244,-237],[125,-149],[164,-215],[246,-530],[1,130],[-136,320],[-41,161],[-290,375],[-44,40],[-97,34],[-104,124],[-464,415],[-47,14],[-180,160],[-131,83],[-12,52],[46,52],[50,-22],[26,123],[121,110],[49,-15],[73,-74],[121,-57],[14,-54],[-37,-148],[71,-109],[-71,-71],[47,-56],[175,-17],[56,38],[-1,119],[56,118],[-11,43],[-176,164],[-118,41],[-43,52],[188,77],[136,-35],[61,87],[-63,104],[36,119],[-32,56],[-89,-83],[-34,123],[-83,75],[-109,38],[-96,-75],[-202,-135],[-136,-4],[-46,18],[-113,-46],[-51,-41],[-21,-66],[11,-83],[30,-34],[110,-34],[43,-31],[-1,-61],[-59,-12],[-80,35],[-139,26],[-90,89],[-190,-14],[12,-75],[43,-18],[175,-2],[121,-85],[80,24],[35,-57],[-110,-26],[-101,22],[-63,-35],[-73,11],[-93,53],[-57,12],[-111,-11],[-210,-59],[-53,-25],[-40,-85],[-132,-107],[-93,-43],[-231,-36],[-384,18],[-144,-51],[-111,2],[-46,25],[-125,117],[38,194],[90,79],[241,114],[73,62],[170,254],[174,95],[42,91],[3,182],[53,63],[12,75],[-32,86],[18,224],[101,160],[16,55],[-11,127],[-46,244],[-11,119],[19,244],[56,67],[83,-38],[-35,122],[-98,51],[-38,76],[-65,22],[-35,46],[-16,116],[-189,180],[-67,165],[-87,48],[-37,62],[-47,135],[-82,351],[-52,96],[-122,83],[20,90],[-12,54],[-144,202],[-55,47],[-60,-157],[-92,-138],[-15,-107],[68,-133],[-94,-145],[-168,-173],[-95,-331],[-8,-164],[-15,-26],[67,-102],[-58,-127],[-19,-71],[-14,-207],[-23,-79],[-64,-131],[-46,-61],[-45,-200],[-65,-173],[-20,-94],[19,-80],[-66,-71],[14,-103],[-13,-118],[-70,-35],[-62,-82],[-55,-26],[-126,43],[-145,106],[-100,0],[-94,40],[-93,3],[-100,-23],[-129,-125],[-46,-17],[-175,18],[-54,-18],[-74,-77],[-42,-79],[-55,-54],[-114,5],[-150,42],[-54,-2],[-145,-83],[-67,-86],[-98,-37],[-98,5],[-94,140],[49,128],[85,48],[14,50],[94,77],[66,148],[-8,100],[-39,72],[24,70],[60,54],[-11,92],[145,197],[158,-75],[110,-3],[206,57],[107,5],[100,-69],[122,-27],[83,-49],[65,25],[70,84],[17,101],[12,244],[51,120],[0,144],[84,283],[-34,83],[-12,106],[-34,82],[-4,180],[-47,56],[-70,-53],[-39,6],[73,175],[49,0],[47,146],[20,283],[-22,136],[-72,151],[41,77],[88,-37],[32,37],[85,196],[-6,67],[-48,102],[51,92],[93,97],[60,31],[35,91],[-67,102],[71,57],[56,75],[151,134],[90,182],[61,97],[59,-15],[153,216],[39,84],[67,-88],[61,33],[-1,114],[17,150],[-83,213],[-102,179],[18,112],[-19,45],[-107,148],[-19,100],[74,161],[35,46],[97,33],[142,106],[50,-18],[49,43],[80,-39],[46,70],[-20,175],[-37,88],[-49,49],[-55,-3],[-50,49],[-136,646],[0,41],[88,63],[-125,128],[-94,35],[1,117],[-15,53],[-53,54],[-44,84],[22,102],[-64,19],[-19,85],[-36,4],[-29,-150],[19,-57],[0,-199],[-16,-98],[64,-27],[51,-109],[15,-122],[4,-232],[-52,-129],[-87,-77],[57,-129],[-13,-61],[-112,3],[-123,103],[-103,-18],[-91,-94],[-12,-125],[-190,-220],[-149,-93],[-44,-244],[-114,-214],[-12,-52],[-16,-234],[-42,-123],[-132,-202],[-133,-337],[-66,-122],[-99,-72],[-72,-84],[-176,-32],[-155,-41],[-65,32],[-21,62],[-49,42],[-86,-24],[-25,-95],[-91,-59],[16,-78],[56,-31],[-82,-64],[-176,-18],[-113,-90],[-90,-24],[-33,-58],[-100,-51],[-155,-58],[-61,-76],[-3,-61],[-102,-71],[-114,-110],[-152,-52],[-153,-138],[-28,-59],[-23,-119],[-51,-73],[-24,-82],[-60,-70],[-151,-297],[-81,-67],[-150,-70],[-57,-87],[29,-43],[-39,-57],[35,-105],[-23,-191],[-70,-46],[-44,150],[-65,-14],[-126,-80],[-98,-21],[-36,-42],[-51,-164],[58,-90],[-23,-97],[-48,57],[-89,-31],[-31,-162],[7,-61],[59,-84],[-15,-64],[-110,5],[-95,-115],[47,-48],[120,6],[92,47],[91,99],[78,-46],[41,44],[-4,67],[68,14],[4,-171],[-14,-51],[-99,-131],[-6,-42],[105,-307],[-23,-33],[-94,-50],[-48,30],[-43,126],[-156,77],[-23,72],[-80,92],[-97,50],[-101,-10],[-92,-89],[-49,-82],[15,-90],[-142,-13],[-22,15],[-3,109],[-45,93],[-225,253],[-88,135],[-115,110],[-172,82],[-98,-2],[55,103],[-5,39],[-128,136],[-90,67],[-51,15],[-141,-33],[-127,-85],[-29,78],[77,111],[30,116],[90,107],[26,91],[44,-2],[-21,-99],[9,-68],[70,-52],[177,-41],[-28,-81],[42,-75],[72,-29],[6,-86],[133,-89],[75,35],[152,26],[14,36],[-164,36],[15,122],[-37,30],[-50,-64],[-46,3],[-30,137],[36,57],[10,94],[-17,63],[-67,130],[-36,393],[-44,162],[-67,124],[-89,4],[-84,124],[85,29],[18,33],[-33,351],[-102,136],[-69,176],[-126,72],[-183,222],[-145,143],[-146,105],[-99,89],[-57,91],[-79,36],[-6,107],[50,173],[-6,133],[-27,122],[-74,196],[-25,120],[-205,236],[-110,69],[-23,50],[133,24],[-28,97],[-64,85],[-57,7],[-153,54],[-64,-6],[-27,-44],[49,-72],[98,-2],[19,-61],[59,-58],[-84,-63],[-57,101],[-38,31],[-117,27],[-158,107],[-77,10],[-231,-102],[-46,-50],[-134,126],[-33,165],[-57,146],[-51,49],[-125,-4],[-54,46],[123,48],[33,89],[-52,104],[-66,24],[-38,-40],[-68,41],[-94,7],[-56,74],[67,84],[91,70],[21,70],[-60,168],[-95,138],[11,57],[293,-23],[58,-13],[-51,-102],[9,-121],[51,-9],[14,72],[46,80],[65,61],[64,160],[-2,54],[-57,215],[-107,192],[-201,199],[-97,7],[-63,-48],[-74,34],[-51,-21],[-92,-119],[-142,16],[-87,-126],[-64,-16],[-53,56],[28,71],[-15,139],[25,79],[66,100],[36,-70],[88,42],[8,57],[-101,138],[-34,87],[-117,120],[-37,70],[-49,8],[-57,-57],[-58,55],[-4,81],[-126,56],[-50,37],[1,77],[-75,59],[50,63],[-81,62],[-113,19],[-42,-23],[-34,-180],[-50,-26],[-151,98],[-34,82],[-65,-52],[-78,-12],[20,-82],[58,-8],[99,-70],[-42,-54],[-92,43],[-60,-61],[-135,16],[-126,45],[-64,-72],[-213,90],[-110,-36],[-33,59],[-193,205],[-111,38],[-84,-40],[-25,106],[-79,34],[-160,138],[-61,74],[-113,102],[-112,20],[-117,-7],[-113,8],[-176,43],[-175,-19],[-99,-41],[-56,-86],[74,-127],[-50,-7],[-104,45],[-112,-4],[-119,-54],[-118,-14],[-109,15],[-96,45],[-81,78],[-133,176],[-73,74],[-380,249],[-344,286],[-607,364],[-468,222],[-413,159],[-103,9],[-106,-51],[-243,-186],[-392,-141],[-107,-19],[-229,7],[-367,60],[-579,0],[-109,33],[-272,2],[-191,-61],[-332,15],[-468,-78],[-532,-20],[-210,-63],[-211,0],[-193,-39],[-212,0],[-152,-63],[-112,0],[-228,-35]],[[61924,23291],[-9,-141],[-96,-40],[-96,-123],[-52,-2],[-107,44],[-124,87],[-143,-5],[-72,31],[-118,5],[-99,-20],[-205,-91],[-109,-24],[-38,-42],[-11,-126],[28,-100],[-44,-76],[-119,-29],[-149,-104],[-84,-37],[-106,82],[-110,132],[-80,29],[-119,7],[-115,47],[-78,9],[-58,-39],[-41,-120],[-77,-26],[-161,41],[-108,-15],[-26,35],[-167,-72],[-77,-11],[-171,57],[-64,-35],[-82,1],[-48,-42],[-138,-20],[-75,166],[-70,98],[-161,52],[-144,133],[18,124],[44,48],[10,73],[50,97],[-2,85],[97,51],[173,16],[116,57],[72,7],[92,49],[661,108],[171,82],[334,81],[94,88],[83,5],[206,-74],[89,42],[149,0],[132,38],[89,5],[27,-65],[-88,-40],[-40,-84],[126,-19],[36,-22],[-58,-83],[-106,-118],[51,-51],[109,5],[98,-45],[63,3],[164,50],[33,-53],[-12,-83],[19,-58],[45,-20],[106,26],[70,70],[59,149],[66,8],[175,-41],[142,-62],[24,-114],[48,-45],[88,-6]],[[57791,25281],[72,10],[54,-81],[-84,-2],[-60,32],[18,41]],[[57119,25688],[64,-64],[16,-115],[-108,18],[-23,50],[-24,143],[-107,96],[-33,60],[63,27],[38,-28],[114,-187]],[[60056,27292],[11,-76],[-46,-119],[-46,68],[81,127]],[[53122,29556],[11,-64],[-96,-38],[-52,-87],[-47,26],[37,164],[131,46],[16,-47]],[[50713,33697],[-59,25],[6,54],[87,104],[108,47],[-2,-123],[-30,-67],[-110,-40]],[[61606,80674],[151,-212],[99,-63],[126,-128],[76,-60],[130,-63],[100,-28],[40,-54],[43,-11],[151,11],[180,-100],[114,-44],[127,45],[277,-2],[67,-87],[63,-25],[106,-71],[125,-29],[89,-59],[72,-21],[249,-20],[91,-32],[71,-60],[61,-185],[77,-73],[159,-92],[-43,-99],[3,-151],[26,-153],[29,-105],[111,-245],[75,-111],[84,-75],[99,-32],[214,-21],[91,-28],[84,-81],[89,-51],[55,-62],[109,-91],[160,-182],[137,-32],[208,-70],[57,-5],[67,-63],[230,-94],[71,-141],[111,-112],[290,-28],[302,40],[402,102],[49,22],[42,56],[163,16],[76,47],[68,68],[78,22],[115,88],[108,113],[111,20],[52,113],[84,56],[108,25],[56,92],[66,219],[28,251],[25,111],[69,102],[40,154],[27,193],[-32,166],[23,48],[232,341],[80,260],[84,20],[69,104],[132,165],[61,190],[25,198],[26,50],[41,-12],[76,192],[28,160],[-31,31],[-4,86],[71,126],[21,109],[56,174],[0,122],[48,134],[136,290],[15,60],[-44,59],[-84,309],[12,61],[44,42],[12,155],[81,603],[117,506],[205,570],[25,205],[58,46],[-16,62],[101,122],[-7,142],[42,54],[31,191],[-29,120],[-55,85],[14,45],[-81,148],[-144,767],[-7,191],[-52,214],[4,129],[24,120],[145,461],[22,122],[8,129],[-15,139],[-35,114],[-54,94],[-66,80],[-123,206],[-43,247],[16,266],[130,610],[57,141],[23,95],[98,159],[79,275],[55,-21],[17,74],[73,204],[-10,120],[-59,59],[-65,118],[-38,124],[-12,207],[-28,126],[-43,35],[-4,52],[104,198],[83,35],[45,50],[89,55],[95,135],[85,285],[15,87],[35,77],[31,-31],[76,-20],[71,-99],[26,-177],[3,-196],[43,-49],[67,-145],[-2,182],[-40,104],[-19,125],[-21,40],[206,80],[-17,40],[-140,20],[-49,24],[-58,88],[-143,55],[33,41],[149,109],[53,21],[69,63],[-72,29],[-46,-58],[-34,18],[-117,-18],[-65,3],[-69,38],[-62,106],[-53,59],[-105,38],[100,82],[26,62],[-110,-9],[-84,50],[-12,-74],[-5,-182],[17,-51],[-108,-54],[-54,1],[-13,107],[243,639],[36,188],[59,57],[95,-42],[53,58],[-96,46],[31,163],[46,113],[40,180],[74,146],[99,118],[103,35],[-37,-108],[1,-49],[43,-175],[8,-119],[80,179],[58,13],[114,-90],[27,91],[-53,53],[-49,112],[-95,30],[-21,94],[8,143],[48,253],[105,158],[1,158],[299,1092],[4,302],[46,147],[17,108],[-3,251],[-31,249],[14,97],[57,61],[205,56],[161,29],[42,34],[59,94],[90,114],[59,224],[58,91],[138,-2],[87,79],[23,-58],[160,-111],[-34,-102],[-91,-80],[-35,-94],[-84,-40],[-13,-75],[11,-139],[62,-6],[40,128],[27,36],[116,6],[26,-42],[23,-144],[61,-8],[22,-53],[-21,-96],[101,40],[101,-15],[26,-120],[63,-114],[29,-93],[16,-174],[33,-83],[-33,-70],[-6,-159],[18,-88],[40,-56],[56,-34],[36,-129],[35,-62],[1,-57],[-44,-65],[-76,-192],[46,-63],[-5,-196],[50,-120],[19,-390],[-19,-255],[37,-87],[134,-128],[31,3],[84,-97],[44,-26],[70,8],[138,73],[67,14],[47,-25],[128,-154],[129,22],[52,-39],[-54,-42],[-57,-1],[-241,-455],[-48,-41],[6,-211],[-29,-49],[34,-41],[-30,-110],[-4,-124],[65,-40],[88,-12],[113,11],[166,-138],[57,-131],[6,-185],[40,-118],[71,-69],[166,-56],[105,-108],[-78,-158],[24,-49],[-80,-150],[-35,-214],[-2,-170],[37,27],[83,-46],[62,50],[82,-24],[62,9],[115,71],[-119,-265],[39,-97],[3,-127],[-24,-233],[61,-367],[-2,-391],[16,-59],[91,-82],[51,-113],[8,-62],[-31,-187],[40,-76],[-83,-224],[-21,-99],[-20,-176],[-35,-118],[3,-102],[68,-198],[89,-157],[6,-124],[43,-88],[147,-141],[22,-32],[42,-298],[8,-283],[101,-388],[84,-186],[54,-87],[65,-74],[70,-55],[163,-35],[63,-37],[91,25],[102,70],[90,43],[114,141],[81,51],[37,45],[45,99],[14,230],[38,36],[34,-61],[50,41],[51,-124],[89,-14],[28,-27],[336,186],[19,19],[75,250],[89,-39],[71,-94],[101,-180],[-30,-113],[-2,-120],[21,-63],[48,-3],[51,32],[31,-66],[-51,-108],[17,-211],[84,-81],[59,-133],[49,-18],[145,27],[98,-142],[61,-20],[159,-7],[55,-38],[28,-100],[44,-47],[9,-163],[34,-52],[144,-120],[41,-65],[60,40],[108,-75],[137,-59],[68,-4],[99,19],[-27,-80],[20,-64],[140,-197],[169,14],[-33,-84],[-184,-313],[-25,-57],[-28,-211],[59,-220],[84,-54],[58,38],[17,86],[43,-40],[18,-62],[-14,-57],[-101,-45],[-41,-47],[-12,-55],[18,-72],[-12,-92],[-67,-44],[-20,-51],[-6,-109],[46,20],[38,-179],[-39,-39],[24,-79],[89,-80],[28,-82],[-15,-143],[126,-331],[-18,-189],[34,-57],[-44,-120],[2,-93],[75,-98],[107,-165],[50,-105],[29,-100],[0,-113],[-54,-199],[-14,-105],[60,-40],[24,-91],[-16,-85],[-77,-89],[-40,-93],[-1,-222],[-34,-102],[21,-66],[46,-38],[50,23],[38,-32],[44,-151],[88,-105],[33,-101],[119,-211],[116,-119],[86,-48],[36,-46],[10,-66],[36,-56],[68,-47],[52,-143],[84,-110],[-10,-39],[-74,-33],[-8,-38],[75,-104],[0,-72],[68,-6],[-24,63],[-3,96],[127,144],[70,-68],[31,-4],[91,103],[93,-6],[-7,-70],[-45,-72],[19,-27],[-43,-90],[-36,-34],[-44,-105],[-23,-98],[14,-104],[58,-42],[100,-219],[39,-238],[87,-153],[64,-187],[28,-47],[73,-59],[11,-337],[-17,-31],[94,-174],[70,-78],[31,-96],[-13,-44],[-64,-63],[-34,-111],[10,-189],[-56,-78],[30,-29],[-8,-88],[51,-88],[-22,-36],[-17,-163],[-69,-201],[-118,-259],[-44,-210],[6,-88],[27,-77],[-17,-74],[33,-79],[190,-257],[46,-37],[108,-12],[48,-42],[15,-131],[60,-203],[38,-44],[112,-50],[34,24],[124,-34],[-4,-136],[-42,-221],[-70,-189],[-34,-352],[-18,-68],[14,-68],[62,-113],[34,-31],[43,-108],[191,-152],[88,-148],[80,-71],[136,-66],[67,-99],[61,-11],[167,-118],[94,-31],[131,60],[36,-29],[43,-88],[64,-76],[113,-81],[60,-70],[74,-49],[91,32],[37,-8],[52,38],[79,93],[22,47],[7,117],[63,-40],[42,-105],[-32,-132],[16,-76],[185,-282],[31,36],[51,-4],[234,-67],[58,35],[332,-6],[70,49],[2,53],[-53,107],[-56,44],[40,40],[55,-81],[114,-328],[145,-206],[71,-277],[34,-66],[-10,-78],[25,-72],[-18,-106],[54,-93],[173,-222],[86,-15],[161,-7],[-73,234],[-11,195],[180,-68],[54,-61],[33,-269],[37,-87],[58,-65],[126,-94],[161,-11],[18,69],[66,-6],[57,39],[28,-22],[115,-154],[162,-27],[141,-54],[61,-7],[-16,-60],[84,-143],[-76,-65],[-26,-81],[90,-49],[64,-99],[116,-96],[67,-27],[0,-73],[35,-11],[92,25],[29,59],[-106,27],[27,35],[63,11],[43,52],[-29,57],[-51,26],[-17,87],[54,54],[89,-78],[65,-1],[94,91],[16,-21],[4,-165],[17,-95],[36,-76],[60,-18],[-8,-104],[121,72],[56,12],[-9,-69],[-41,-53],[66,-39],[-16,-103],[142,68],[39,64],[62,-33],[54,-77],[-28,-61],[60,-102],[57,-22],[23,-59],[-23,-126],[26,-89],[50,-56],[129,-99],[-62,-13],[65,-116],[-55,-55],[-40,44],[-44,-24],[-41,74],[-60,29],[18,72],[-18,71],[-46,36],[-83,-112],[-77,4],[-47,72],[-50,-29],[50,-136],[-63,-126],[-53,-41],[-53,5],[33,-92],[51,-71],[16,-61],[61,-10],[12,-68],[-39,-66],[39,-20],[35,-99],[67,-38],[57,-111],[72,26],[47,-28],[22,-55],[15,-131],[-28,-51],[-14,-87],[54,14],[40,92],[88,-91],[38,-10],[111,18],[102,-112],[31,31],[75,-2],[43,-78],[-116,17],[33,-96],[-33,-74],[48,-11],[120,30],[37,-68],[100,-11],[60,-121],[66,-53],[72,-104],[0,-108],[-86,-164],[1,-116],[72,-158],[40,-13],[52,69],[20,-76],[52,-6],[19,-70],[-19,-41],[68,-173],[-57,-54],[-2,-41],[110,-45],[-120,-110],[-15,-66],[14,-81],[35,4],[101,88],[20,-45],[97,-27],[-5,-91],[89,-147],[53,24],[45,114],[56,-23],[17,-73],[-127,-151],[0,-120],[77,-172],[-17,-58],[-77,-40],[-12,-114],[106,-222],[-19,-132],[31,-127],[94,-183],[17,-188],[18,-59],[95,-187],[-52,-84],[52,-18],[24,-73],[60,-80],[-46,-88],[5,-35],[116,-52],[34,-30],[64,-116],[45,23],[19,-118],[-15,-188],[-62,-81],[50,-43],[91,58],[135,130],[38,110],[72,0],[98,-154],[24,-80],[205,-198],[40,-128],[50,-95],[60,-75],[53,-34],[-60,273],[-164,454],[-45,62],[-18,125],[33,30],[-49,89],[48,100],[45,130],[17,98],[55,75],[155,64],[58,-47],[61,-179],[67,-112],[60,-34],[15,-112],[68,-68],[-26,-71],[42,-83],[53,-48],[207,-70],[137,-107],[116,-59],[69,-88],[73,-56],[128,-39],[52,-38],[184,-186],[-63,154],[-21,85],[16,66],[-89,80],[-26,162],[23,178],[58,131],[84,-63],[41,29],[44,-24],[-18,-66],[13,-92],[73,-71],[-8,105],[41,78],[42,-200],[46,-57],[106,-43],[5,-70],[-86,-112],[-43,-26],[-20,72],[-64,-48],[109,-125],[16,-182],[75,39],[26,226],[47,-24],[11,-80],[-19,-169],[12,-79],[56,3],[47,-137],[-8,-106],[-33,-114],[-35,-228],[-17,-221],[-116,-19],[3,-42],[77,-71],[-19,-85],[33,-130],[-46,-243],[9,-113],[89,-62],[-15,-100],[47,-83],[62,-23],[-16,-81],[-51,-69],[-60,-30],[66,-304],[68,-71],[83,-121],[-8,-72],[-39,-59],[34,-39],[38,-115],[55,19],[70,67],[50,-6],[71,-57],[62,-8],[40,-40],[34,-98],[70,-33],[138,-153],[60,-156],[26,-128],[64,-99],[161,-59],[62,0],[41,-102],[53,2],[72,-114],[143,-161],[109,-176],[42,61],[115,-43],[77,-71],[-23,-80],[16,-91],[68,-42],[30,121],[103,20],[109,-102],[61,-39],[-21,107],[-47,96],[-104,72],[6,65],[43,17],[90,-10],[86,-90],[48,-31],[-56,-60],[73,-62],[25,52],[75,70],[14,-197],[27,-97],[35,-63],[100,-87],[121,-19],[79,-99],[173,-593],[135,-308],[64,-53],[94,-179],[67,-81],[383,-313],[97,-18],[145,-55],[85,-67],[75,-103],[53,-125],[20,-134],[0,-256],[16,-62],[211,-361],[99,-65],[-17,-90],[-72,-32],[101,-53],[98,-120],[49,-30],[121,-19],[169,-76],[6,108],[44,1],[44,-87],[148,-34],[45,-384],[-110,-83],[8,-71],[132,93],[61,-46],[-75,-68],[68,-65],[-26,-47],[-90,-91],[-52,-123],[29,-176],[-4,-76],[-35,-55],[110,-83],[-50,-18],[61,-93],[99,-31],[93,-183],[16,-58],[18,-175],[-37,-101],[20,-94],[82,195],[7,151],[48,50],[14,-88],[50,-154],[29,-49],[67,-29],[125,-16],[-143,-335],[-158,-654],[-8,-106],[14,-105],[24,-43],[97,-35],[20,-44],[-36,-91],[-22,-101],[-9,-564],[24,-84],[77,-29],[-17,-196],[20,-165],[-21,-115],[22,-239],[132,-361],[9,-92],[-45,-66],[-91,45],[-94,-17],[-84,-61],[-66,-89],[-42,-99],[0,-59],[49,-27],[145,16],[-9,-135],[-102,-96],[-17,-107],[60,-64],[151,-60],[65,-90],[16,-137],[58,-109],[105,-23],[44,-70],[42,-150],[55,-93],[7,-186],[12,-43],[74,-95],[26,-108],[107,-129],[25,-46],[-20,-82],[107,-3],[-33,-149],[0,-223],[-56,52],[-23,-108],[33,-66],[63,81],[15,-95],[11,-274],[81,-112],[59,-115]],[[99694,46117],[-304,-263],[-70,-37],[-102,21],[-197,-51],[-98,1],[-64,-125],[-32,-16],[-90,-128],[-61,-9],[-64,24],[-137,-4],[-186,20],[-64,34],[-153,7],[-52,-54],[-66,-29],[-116,-12],[-235,107],[-81,84],[-47,-21],[-49,-92],[-47,-4],[-59,46],[-29,117],[-88,51],[-156,-141],[-34,-105],[-69,-66],[-73,-30],[-161,-31],[-103,-109],[-77,-44],[-134,2],[-279,-157],[-98,-102],[-105,-37],[-22,-72],[65,-74],[56,-160],[124,-140],[21,-50],[-51,-129],[-9,-188],[-41,-122],[0,-75],[-52,-86],[-71,-7],[-103,-51],[-140,29],[-59,-15],[-46,-137],[-176,53],[-82,175],[-33,0],[-177,-119],[-82,-14],[-137,-64],[-84,-215],[0,-101],[-92,-73],[-51,-103],[-76,-48],[-20,-54],[-115,-48],[-62,16],[-20,127],[-67,70],[-15,204],[-54,327],[-167,112],[-92,78],[-103,46],[-153,14],[-54,78],[-3,168],[-21,58],[-163,33],[-113,109],[-104,25],[-138,91],[-102,39],[-100,-3],[-218,-56],[-105,-12],[-317,12],[-105,25],[-78,61],[-137,158],[-97,87],[-60,26],[-97,-54],[-55,-9],[-154,12],[-169,-65],[-113,-30],[-95,-48],[-170,0],[-106,-26],[-91,13],[-273,-8],[-135,-61],[-71,51],[-89,-10],[-45,18],[-26,89],[-37,37],[-43,-21],[-229,-34],[-37,-33],[-91,-197],[-40,-58],[-96,-33],[-250,-142],[-93,-85],[-49,-22],[-51,-90],[-97,-70],[-156,-57],[-25,-62],[-24,-138],[-26,-62],[-95,-95],[-65,-28],[-65,-66],[-489,0],[-1194,0],[-1193,0],[-1193,0],[-1193,0],[-1193,0],[-1193,0],[-1194,0],[-1193,0],[-1193,0],[-1193,0],[-1194,0],[-1193,0],[-1193,0],[-1193,0],[-1193,0],[-1193,0]],[[99647,48302],[151,0],[-52,-120],[-47,-144],[-129,-645],[-129,-17],[-30,73],[17,131],[28,88],[-28,65],[27,132],[1,90],[-28,115],[11,45],[72,126],[5,127],[60,7],[71,-73]],[[99461,48528],[1,50],[-36,159],[-51,64],[-17,66],[-14,185],[15,181],[-23,109],[56,65],[85,19],[82,62],[43,-60],[-7,-69],[-99,-358],[-19,-126],[0,-144],[34,-152],[-50,-51]],[[98358,54690],[76,-102],[32,-71],[-31,-32],[-74,117],[-3,88]],[[99359,55525],[9,-68],[-46,-99],[-23,-108],[-192,-518],[-262,-618],[-190,-603],[6,-77],[39,-90],[-5,-107],[-40,-87],[-69,-30],[-96,128],[-42,76],[7,105],[-44,141],[6,78],[-70,23],[-29,86],[5,92],[92,80],[21,88],[16,184],[84,101],[82,211],[-30,166],[31,74],[-16,33],[-118,47],[17,70],[42,43],[269,207],[76,79],[116,179],[41,102],[16,114],[-23,124],[-112,216],[-76,84],[-64,-14],[143,204],[93,81],[118,83],[12,-128],[-12,-363],[51,-211],[167,-178]],[[94452,59005],[39,-132],[-63,-21],[-26,117],[-57,88],[39,61],[68,-113]],[[94200,59463],[44,-38],[21,-84],[3,-122],[-59,-71],[-146,-18],[-111,144],[-24,108],[-132,195],[-92,89],[-172,272],[-45,58],[90,38],[5,63],[131,18],[25,-81],[148,-40],[21,-32],[101,-45],[9,-60],[108,134],[-1,-81],[-32,-201],[30,-151],[32,-67],[46,-28]],[[90412,63410],[69,-84],[-9,-89],[-67,-123],[-36,43],[20,63],[-20,57],[43,133]],[[92399,63604],[39,-21],[8,-71],[-55,-40],[-17,-46],[-76,-47],[-40,57],[31,46],[-62,68],[67,115],[-44,98],[39,24],[48,-31],[62,-152]],[[90876,64299],[-15,-99],[6,-78],[35,-58],[3,-117],[-48,-167],[-77,-11],[12,81],[-31,51],[-1,99],[33,135],[33,42],[-6,65],[56,57]],[[91801,65195],[60,21],[58,-21],[4,-92],[-38,9],[-84,83]],[[91818,65380],[-34,-16],[-109,62],[58,74],[98,-63],[-13,-57]],[[88856,69133],[10,-104],[41,-79],[-55,-19],[-50,-90],[-71,-4],[5,70],[62,13],[28,52],[30,161]],[[88790,69440],[-68,83],[-51,-124],[-37,51],[-80,-29],[0,120],[-44,-33],[-49,44],[75,80],[-34,53],[48,203],[45,-2],[43,-110],[-3,-80],[63,-47],[40,-87],[67,-77],[-15,-45]],[[88520,69950],[-74,-42],[-95,10],[-1,97],[68,97],[-17,61],[69,0],[66,81],[40,-45],[-89,-169],[33,-90]],[[87275,70480],[58,-52],[17,-63],[-27,-129],[-48,18],[1,93],[-16,72],[15,61]],[[83369,73010],[33,-81],[-132,-95],[-52,33],[-46,95],[45,44],[59,2],[26,43],[67,-41]],[[82039,75192],[84,-81],[-49,-63],[-31,-99],[-71,-84],[-167,81],[-22,71],[-38,198],[-90,149],[-103,77],[-68,99],[11,62],[60,-1],[131,-61],[104,-35],[15,51],[-11,94],[170,-9],[34,-15],[-59,-149],[15,-106],[60,-87],[62,-16],[10,-68],[-47,-8]],[[65443,79193],[-20,-46],[53,-78],[-16,-58],[-119,-23],[-38,-41],[-49,13],[-13,48],[-85,-19],[-67,-64],[-35,85],[14,36],[97,75],[58,112],[88,98],[99,-89],[33,-49]],[[64281,79823],[108,43],[54,0],[-17,-64],[-65,-5],[-51,-69],[-29,95]],[[65865,80967],[14,-90],[-77,-65],[-2,-93],[-72,26],[-104,-26],[-63,-79],[-74,142],[-68,66],[-60,-87],[-83,-7],[0,-61],[80,-30],[-28,-61],[-55,30],[-65,-34],[15,-121],[-41,-73],[-28,-96],[-48,-3],[-38,58],[-59,-15],[-34,-112],[-75,-35],[-96,-72],[-159,-1],[-116,159],[-11,-119],[-80,-132],[-20,0],[-20,175],[45,74],[11,109],[32,105],[89,93],[32,130],[89,55],[73,108],[102,39],[107,0],[281,72],[144,93],[90,20],[52,-9],[66,-93],[73,-36],[96,-4],[-19,-61],[45,-15],[59,76]],[[72058,98164],[58,-71],[3,-84],[-67,5],[-115,-47],[-47,-109],[-83,41],[-77,138],[-23,75],[14,91],[144,111],[40,74],[47,-18],[42,-66],[64,-140]],[[72075,98429],[79,14],[60,-46],[15,-71],[-54,-60],[-70,-25],[-51,46],[-16,76],[37,66]],[[72152,99735],[51,-28],[64,-126],[-59,-68],[-65,-139],[-138,65],[-31,-11],[-49,65],[-20,80],[44,31],[8,89],[43,34],[152,8]],[[71898,99908],[18,-63],[-18,-124],[-57,-114],[-59,-11],[-11,39],[-97,110],[-5,51],[111,203],[67,-29],[51,-62]],[[82855,74112],[80,7],[-24,-62],[-48,-18],[-72,20],[-103,-3],[-31,58],[30,82],[-3,105],[73,-62],[56,-99],[42,-28]],[[99694,46117],[63,-85],[75,8],[46,-213],[24,-65],[-1,-149],[-67,-424],[-2,-130],[33,-253],[20,-55],[90,-108],[24,-51],[-34,-102],[7,-101],[-45,-94],[-3,-66],[25,-127],[-11,-123],[-58,-85],[-149,-141],[-113,-169],[-53,-106],[-45,-173],[25,-172],[-57,-28],[-127,-240],[-50,-117],[-25,-124],[22,-115],[51,-106],[-33,-81],[18,-138],[-29,-58],[-20,-136],[-41,-88],[-12,-97],[16,-61],[-33,-72],[15,-164],[-62,-112],[-20,-151],[16,-122],[-52,-91],[-5,-132],[-28,-124],[-88,-130],[-62,-145],[16,-113],[-4,-165],[-35,-137],[-129,-247],[23,-83],[-36,-113],[-104,-194],[-35,-147],[-61,-104],[-67,-304],[-13,-171],[-74,-303],[30,-49],[12,-252],[56,-118],[38,-37],[106,-20],[4,-96],[-60,-98],[-42,-98],[-16,-111],[44,-65],[4,-76],[-124,-134],[-70,-130],[-3,-99],[-48,-122],[26,-46],[16,-192],[-109,-137],[-36,-87],[-3,-75],[44,-53],[15,-72],[-15,-60],[-142,-148],[-77,-110],[11,-90],[-32,-76],[29,-57],[-40,-34],[-106,-144],[29,-87],[-62,-64],[-77,-114],[-19,-102],[26,-45],[-77,-50],[-56,-78],[-206,-180],[-154,-291],[22,-83],[-67,-76],[-44,-193],[134,-131],[-20,-78],[-75,-147],[2,-93],[68,-25],[-26,-43],[-47,-157],[-8,-117],[45,-43],[-338,-141],[-120,-76],[-144,-133],[-22,-87],[-123,-54],[-108,-136],[-52,-94],[-62,53],[-89,-53],[-119,-41],[77,-61],[185,0],[74,-34],[-20,-85],[-36,-32],[-60,9],[-101,-83],[-122,26],[-183,-40],[-123,-51],[-146,-78],[-102,-68],[-85,-86],[10,-76],[-162,-157],[-8,-127],[-75,-41],[-81,-97],[-44,-147],[-15,-102],[-29,-41],[-22,-98],[-88,-82],[-52,-75],[-14,-62],[31,-52],[-111,-109],[25,124],[-61,49],[-62,-38],[-91,-91],[39,-71],[-66,-18],[21,-63],[57,-23],[72,9],[-44,-101],[-100,-125],[-15,-82],[21,-68],[-49,-24],[-9,-99],[-108,-27],[-43,14],[-48,-48],[-84,2],[-104,-41],[-51,120],[-37,-42],[8,-114],[46,-27],[71,28],[70,-17],[-46,-172],[44,-3],[40,135],[37,-75],[-77,-225],[-12,-99],[33,-61],[-22,-102],[-10,-132],[-94,-9],[-47,-116],[111,-73],[-46,-136],[19,-44],[-79,-154],[-117,133],[-48,-12],[-45,-111],[-142,-1],[92,-95],[41,46],[150,-23],[11,-65],[-131,-3],[-63,-113],[58,0],[-4,-72],[-179,-157],[-167,-113],[-145,-184],[-108,-202],[8,-98],[-49,-132],[-13,-128],[39,-106],[-52,-47],[-60,-129],[-45,12],[15,84],[-64,-2],[-84,-102],[28,-39],[73,-1],[99,-91],[-29,-103],[-55,-372],[-35,-91],[-134,-73],[-63,-153],[-61,-35],[25,-41],[93,-79],[-55,-53],[81,-52],[-27,-124],[49,-50],[144,-53],[-28,-96],[3,-69],[-92,-99],[-72,95],[36,84],[-61,128],[-177,-56],[-45,-148],[48,-12],[17,-121],[-75,-11],[-91,-60],[-57,-128],[-145,-78],[-48,-123],[-86,-104],[-37,-103],[19,-145],[-101,-105],[-14,-51],[-87,-123],[-1,-213],[-91,-121],[-98,-180],[-63,-181],[-37,-67],[-45,-23],[-103,51],[-100,-40],[67,-72],[56,-175],[-21,-101],[-102,-40],[-94,-109],[-6,-56],[32,-131],[-16,-204],[-20,-112],[-103,42],[-46,-42],[118,-104],[18,-50],[-50,-114],[3,-127],[51,-171],[-30,-88],[24,-112],[-84,-93],[-71,-103],[-29,-129],[16,-102],[-50,-112],[30,-195],[-91,-172],[-98,-239],[-23,-195],[-36,-73],[-86,-107],[25,-67],[-13,-52],[-62,-104],[-14,-68],[98,-75],[-51,-89],[-7,-57],[49,-93],[9,-58],[-93,-53],[-73,-74],[50,-70],[122,1],[126,-93],[34,-69],[20,-141],[84,-142],[-168,28],[-84,-75],[1,-46],[50,-112],[-36,-120],[-1,-112],[70,-240],[-33,-43]],[[91012,18248],[-518,254],[-1065,521],[-1066,522],[-1065,521],[-597,292],[-139,10],[-91,42],[177,277],[46,119],[2,102],[-41,94],[-89,26],[-37,92],[5,123],[-69,171],[-131,111],[-18,64],[47,101],[-88,285],[-28,64],[33,192],[-23,62],[-90,63],[-20,49],[25,130],[-11,33],[-166,71],[-48,91],[-93,20],[-321,156],[-68,19],[-101,-60],[-284,-109],[-44,16],[-46,98],[-90,36],[-90,-41],[-67,7],[-57,-28],[-88,-123],[-50,-204],[-83,73],[-85,9],[-138,-37],[-124,6],[-52,56],[-48,-15],[-66,-82],[-44,-91],[25,-156],[25,-69],[49,-54],[68,-29],[100,-7],[19,-32],[-219,-62],[-136,136],[-26,65],[-6,105],[15,91],[-70,44],[-104,-5],[-44,-69],[-61,6],[-129,84],[-78,-29],[-84,83],[-102,8],[-36,61],[-165,12],[-160,144],[-194,0],[-75,51],[-102,-32],[-101,11],[-115,-190],[-39,-15],[-167,20],[-85,32],[-108,-13],[-16,-49],[-140,55],[-153,12],[-85,48],[-172,4],[-46,29],[-34,87],[-49,30],[-107,0],[-163,-49],[-105,10],[-104,45],[-423,361],[-88,43],[-106,1],[-105,-32],[-184,-99],[-103,-9],[-105,18],[-180,56],[-239,0],[-276,-49],[-91,-81],[-22,-175],[-70,-155],[107,-162],[21,-62],[-73,-55],[-162,68],[-45,-21],[-150,-143],[-172,-10],[-40,70],[-47,3],[-58,79],[-152,26],[-42,27],[-271,317],[-98,37],[-74,99],[-114,296],[-56,110],[-71,69],[-138,37],[-140,155],[-76,32],[-72,86],[-125,189],[-86,52],[-164,41],[-43,96],[-200,94],[-100,63],[-104,88],[-53,12],[-44,55],[-106,50],[-202,37],[-137,85],[-47,94],[37,70],[-25,167],[-84,70],[-214,49],[-130,91],[-106,214],[-34,122],[-18,177],[-28,130],[33,113],[-17,102],[52,72],[-18,92],[21,88],[-79,65],[-112,-24],[-34,114],[-90,30],[-26,32],[-194,102],[-227,20],[-133,70],[-36,-65],[-116,97],[-132,-64],[-82,192],[-71,34],[-45,54],[-50,4],[-131,-57],[-23,-53],[-21,-132],[-35,-71],[17,-70],[-33,-68],[-139,-2],[30,-153],[-43,-23],[-41,41],[-128,22],[-84,71],[0,92],[-68,161],[-57,66],[-3,93],[-29,61],[-157,133],[-22,40],[-35,264],[17,124],[69,139],[-25,55],[-126,-15],[-41,24],[-171,185],[-24,161],[-34,80],[-87,-3],[-87,90],[-87,14],[-85,-39],[-41,102],[-64,62],[-65,11],[-132,-34],[-109,20],[-97,-41],[-173,13],[-168,69],[-104,-21],[-99,-50],[-151,-131],[-90,-128],[-75,-6],[-65,130],[-126,9],[-166,106],[-150,-33],[-52,90],[-59,26],[-108,89],[-127,-40],[-76,60],[-61,15],[-218,6],[-52,32],[-59,98]],[[89484,24652],[42,6],[92,81],[-14,26],[-120,64],[-101,32],[-124,59],[-33,33],[-19,83],[-104,43],[-14,111],[-152,116],[-59,-18],[-402,-307],[-279,-192],[-59,-98],[4,-119],[-39,-108],[-42,-211],[5,-167],[25,-94],[-24,-168],[38,-96],[11,-112],[97,-110],[39,-18],[54,64],[52,-41],[24,-227],[53,-145],[62,-61],[143,-47],[59,-41],[55,8],[63,122],[45,37],[24,101],[-26,203],[20,84],[-10,138],[-33,223],[28,55],[70,28],[62,215],[-35,100],[26,60],[-15,50],[110,174],[64,24],[78,-13],[46,75],[35,9],[178,-31]],[[91012,18248],[-46,-61],[-140,-53],[-268,-12],[-2,51],[-167,59],[106,-150],[-9,-92],[-79,-69],[-34,-84],[-111,-154],[-126,-30],[-50,-73],[-154,-34],[-48,-27],[-36,-66],[-47,-25],[-338,-3],[-104,-35],[-66,-74],[-46,101],[-197,-2],[-92,43],[-105,-41],[-366,0],[-102,-20],[-285,-5],[-153,-76],[-295,37],[-731,-37],[-432,-100],[-526,-183],[-390,-198],[-413,-285],[-476,-415],[-528,-529],[-241,-223],[-243,-296],[-258,-215],[-76,-121],[-43,90],[-347,-75],[-175,3],[-105,-72],[-174,8],[-175,-57],[-52,-60],[-109,117],[-41,16],[-233,-20],[-78,-37],[-102,-124],[82,-83],[52,-102],[58,0],[24,-164],[36,-18],[3,-91],[80,9],[89,114],[46,30],[70,-1],[36,35],[11,86],[65,83],[71,-60],[-20,-89],[6,-116],[29,-134],[-71,-75],[-41,-166],[2,-65],[80,-4],[31,-108],[-120,-73],[11,-56],[-33,-85],[-77,-25],[-107,50],[-61,66],[-8,51],[47,33],[-3,67],[-103,52],[-85,124],[-32,168],[-170,212],[-221,145],[-183,-35],[-32,-101],[-1,-92],[-159,-37],[-57,39],[-47,198],[-102,207],[-82,124],[-132,129],[42,18],[99,-82],[19,80],[-58,57],[-79,28],[-109,6],[-83,-22],[-147,-93],[-98,-8],[-70,55],[-102,203],[-39,45],[-161,83],[-139,23],[-45,36],[116,45],[33,40],[-6,176],[-26,47],[76,41],[75,-41],[59,9],[62,75],[62,41],[-41,99],[-60,38],[21,84],[-117,196],[-115,54],[-114,-23],[-92,0],[-45,-38],[-76,47],[-100,-29],[21,-42],[-62,-79],[-18,-72],[-52,-24],[-19,-64],[39,-44],[25,-187],[-227,37],[-58,-16],[-51,-89],[-77,-26],[-89,-146],[-170,-14],[-27,-35],[-142,84],[-387,390],[47,27],[87,-91],[50,-19],[219,19],[147,74],[74,19],[37,52],[-16,57],[79,65],[33,102],[86,127],[116,139],[24,99],[-9,113],[-38,109],[-62,83],[-142,82],[-60,107],[-49,181],[-118,94],[-57,-6],[-11,-88],[-159,19],[-41,-16],[-52,-126],[-174,-81],[-151,-147],[-279,-90],[-86,-109],[11,-62],[-73,-11],[-39,34],[-69,-27],[-145,-1],[-54,-35],[-26,-84],[47,-33],[128,-5],[220,-55],[144,43],[176,115],[125,-63],[50,-56],[-39,-160],[-52,-9],[-84,-120],[-2,-71],[-102,-21],[-200,7],[-100,-39],[-109,39],[-106,-32],[-226,-165],[-149,-134],[-84,-14],[-67,-84],[-126,-38],[-49,-63],[-110,-20],[-47,-32],[-131,-142],[3,-68],[-51,-57],[-94,-29],[-88,-174],[-63,-39],[-86,-102],[-244,-84],[-100,-26],[-104,-187],[-40,2],[-87,-49],[-92,-108],[-89,-46],[-48,24],[-124,106],[-39,53],[-184,97],[-102,25],[-229,-20],[-95,59],[-59,94],[-148,133],[-143,91],[-277,51],[-244,100],[-93,21],[-119,123],[-65,33],[-200,158],[-157,88],[-91,71],[-92,39],[-32,95],[-73,-33],[-13,-62],[-171,117],[-209,0],[-76,-20],[-30,-57],[-111,-38],[-120,21],[-208,99],[-260,197],[-94,48],[-117,0],[-85,35],[-252,28],[-100,-17],[-120,-50],[-99,-73],[-35,-87],[84,-144],[-10,-49],[-114,32],[-144,-126],[-86,143],[-61,30],[-120,4],[-29,-83],[-69,4],[-58,45],[72,149],[-22,90],[-40,45],[-395,351],[-196,136],[-360,171],[-48,32]],[[82795,14540],[-108,-40],[-59,-82],[-104,22],[-90,69],[25,61],[110,-30],[166,27],[60,-27]],[[79623,15274],[63,-116],[-37,-26],[-130,94],[-72,19],[-85,-12],[-76,-35],[-56,35],[-112,-22],[-22,33],[165,156],[36,18],[206,29],[120,-173]],[[79885,15848],[52,-36],[77,-109],[-197,-41],[-92,-108],[-58,-39],[-171,77],[-33,131],[68,102],[-19,42],[41,44],[44,-46],[136,-40],[152,23]],[[86165,1219],[-85,24],[-146,125],[-41,126],[-50,-11],[-34,-91],[34,-91],[-73,3],[-111,-126],[-51,81],[-176,161],[-11,86],[128,84],[-204,72],[-42,26],[-66,148],[31,66],[121,49],[-14,112],[38,32],[93,-32],[1,-89],[-34,-84],[169,-130],[76,-12],[108,20],[65,35],[-69,80],[-62,131],[-5,94],[21,89],[-33,24],[-151,-24],[-86,40],[-100,-20],[-84,83],[-67,10],[-52,112],[-52,15],[-128,-45],[-73,-53],[-2,-83],[40,-108],[97,-175],[-73,-112],[-44,-30],[-184,-63],[-57,62],[-27,80],[36,41],[90,-102],[38,22],[36,98],[-42,45],[27,162],[-136,-53],[-31,115],[-137,81],[-134,215],[-38,30],[-58,-34],[146,-169],[100,-233],[-72,-159],[6,-191],[-24,-11],[-127,104],[-43,-47],[21,-51],[72,-64],[22,-51],[-107,-93],[-27,-137],[24,-110],[3,-170],[-21,-41],[-99,-56],[-133,66],[10,71],[-137,6],[-27,21],[64,104],[-50,65],[-46,-50],[-66,-23],[-69,60],[-15,199],[-36,8],[-74,-63],[-26,-129],[10,-73],[235,-163],[83,-87],[9,-49],[-85,-81],[-66,40],[-102,-10],[-84,-71],[145,9],[83,-35],[-142,-220],[-137,-62],[146,-35],[41,-67],[-136,17],[-65,-68],[47,-68],[-37,-57],[-94,15],[-19,-77],[118,-69],[-37,-91],[-175,-83],[-60,-1],[-13,55],[-110,39],[-173,-62],[-88,125],[-164,84],[-42,69],[-47,172],[-59,-11],[5,-67],[-90,-89],[-60,-9],[-273,26],[-95,70],[-83,-76],[-65,14],[-37,101],[-63,22],[-71,-22],[-21,-120],[-125,79],[-106,-39],[3,-67],[-70,5],[-136,-39],[16,208],[-16,92],[-59,97],[-138,98],[-2,64],[106,-41],[19,100],[225,-27],[68,-31],[71,-108],[82,96],[49,1],[66,-71],[38,23],[-20,192],[-123,108],[-53,5],[-69,-130],[-46,-31],[-63,48],[-15,101],[-64,-20],[-24,-99],[-45,3],[-123,122],[-29,169],[-123,78],[6,-137],[-104,-34],[19,-54],[116,-3],[-35,-69],[-133,-12],[-69,36],[-64,144],[-8,108],[-112,95],[-12,71],[-59,64],[5,91],[-103,-20],[-43,46],[43,124],[-134,74],[-89,158],[-37,25],[-177,15],[-93,129],[-104,205],[-50,151],[-40,73],[-70,59],[53,109],[-39,30],[-44,160],[-69,7],[-46,109],[-103,49],[83,108],[-64,60],[-60,103],[-32,118],[22,106],[-61,175],[-39,192],[0,173],[-32,104],[31,28],[70,-96],[26,-87],[168,-67],[52,-106],[68,-22],[162,-120],[39,-62],[7,-117],[49,-214],[47,45],[0,214],[92,-34],[18,98],[69,129],[-90,0],[-14,74],[-49,21],[-73,-25],[-141,168],[-97,99],[-61,219],[-43,63],[-115,-117],[16,-101],[-52,-14],[-82,74],[92,216],[-37,244],[-110,223],[-128,151],[-231,197],[-11,79],[-62,51],[-95,176],[-79,97],[-83,15],[-33,89],[4,83],[-117,318],[-137,203],[-40,89],[-110,96],[79,68],[-2,78],[-34,88],[-164,277],[-46,58],[23,164],[-16,87],[-43,54],[20,119],[-46,95],[-125,156],[80,66],[6,45],[-57,88],[57,24],[39,64],[99,39],[17,46],[12,181],[-48,316],[23,132],[65,9],[78,-114],[15,-75],[76,14],[85,-16],[163,-70],[89,-16],[132,16],[72,-65],[109,-53],[42,-67],[106,-43],[68,41],[-31,47],[228,-18],[58,18],[28,49],[-5,133],[88,-19],[31,-54],[-74,-34],[-27,-54],[29,-62],[156,-113],[155,-20],[93,-53],[69,9],[130,57],[24,-116],[94,-73],[120,-39],[222,-24],[44,-25],[36,-108],[116,-124],[151,-59],[154,-14],[24,-52],[131,-19],[94,-67],[153,-79],[100,-19],[232,-103],[343,-38],[172,5],[166,45],[135,55],[40,-106],[157,123],[69,102],[86,16],[134,65],[100,-40],[57,-100],[0,-131],[128,-36],[53,39],[166,-16],[-102,89],[-121,20],[-85,73],[-12,73],[46,106],[107,40],[126,24],[208,124],[51,-40],[326,-49],[97,49],[186,145],[23,-47],[116,44],[56,-98],[67,-10],[38,-74],[90,-15],[98,67],[87,101],[190,313],[175,63],[119,-124],[89,32],[163,-110],[162,59],[75,63],[74,170],[29,132],[64,44],[127,-47],[16,-52],[66,17],[60,-39],[123,-172],[161,-18],[191,-245],[67,-114],[41,-121],[-95,-67],[-50,-61],[84,-61],[-42,-142],[-36,-35],[-14,-79],[8,-152],[24,-57],[84,-100],[1,-78],[-109,-80],[-44,-52],[9,-62],[185,162],[-5,-90],[-127,-381],[16,-168],[-12,-87],[66,-116],[17,-93],[-10,-70],[-61,-177],[50,-183],[-111,-148],[69,-214],[92,-129],[-65,-255],[-2,-146],[158,-178],[-109,-139],[-9,-39],[110,-43],[9,-59],[-25,-109],[-79,-111],[-56,59],[-84,24],[94,157],[-1,56],[-75,69],[103,62],[15,46],[-112,18],[-118,113],[-158,48],[143,83],[52,71],[2,49],[-77,42],[-21,85],[-53,3],[38,-96],[-7,-64],[-77,32],[-37,-27],[19,-138],[-61,-29],[61,-72],[-152,-61],[-35,-115],[-11,-174],[-87,-79],[-20,-93],[-116,-191],[96,4],[19,-88],[-62,-58],[-5,-86],[21,-142],[-14,-210],[-99,-102],[-56,1],[-37,68],[-96,-60],[118,-136],[24,-148],[26,-33],[-10,-203],[-32,-47],[-124,-74],[-21,-64],[19,-112],[-52,-20],[-56,-118],[34,-67],[57,50],[28,64],[68,35],[63,-107],[84,10],[59,-113],[-33,-81],[50,-42],[-5,-58],[-87,-53],[-25,-68],[3,-149],[-38,-37],[58,-75],[7,-81],[-30,-49],[87,-18],[-2,-84],[-52,-80],[52,-82]],[[84539,892],[59,-83],[12,-59],[-63,-144],[-59,-191],[-29,-25],[-163,73],[15,43],[-34,76],[-62,56],[-21,-132],[-28,-59],[-87,-34],[-59,108],[-96,105],[56,44],[129,-117],[43,0],[3,169],[-30,87],[79,33],[62,-85],[39,88],[-31,71],[141,169],[65,21],[59,-214]],[[84700,1515],[6,-72],[65,-175],[16,-74],[-28,-34],[-84,18],[-76,-41],[-34,89],[100,95],[-47,40],[-124,17],[-56,34],[23,59],[121,19],[-68,56],[10,58],[73,78],[31,-78],[72,-89]],[[86517,3085],[18,-87],[66,-46],[-65,-54],[-188,-1],[78,-157],[-229,-33],[52,80],[30,104],[-79,51],[29,114],[105,61],[31,41],[134,-33],[18,-40]],[[86903,3972],[44,-26],[58,-118],[-27,-9],[-122,83],[-75,16],[-46,73],[86,8],[82,-27]],[[78833,8847],[80,-44],[47,-78],[-69,0],[-52,44],[-82,-15],[-136,-71],[-91,-14],[-43,36],[-8,152],[150,147],[35,-73],[169,-84]],[[86449,9276],[42,31],[134,40],[160,32],[-50,-83],[-9,-92],[-33,-10],[-48,-133],[-62,32],[-17,45],[-101,26],[-16,112]],[[78286,9583],[-1,-242],[-61,-66],[-3,-179],[-54,-23],[-32,67],[-2,167],[-50,72],[19,38],[76,2],[50,48],[58,116]],[[78556,9439],[-65,5],[-106,118],[87,21],[75,123],[108,-20],[47,-34],[-29,-119],[-117,-94]],[[87225,9725],[134,-163],[-39,-38],[-114,-43],[-33,-102],[-93,16],[-75,-58],[0,102],[-33,99],[-77,4],[-160,-81],[-34,49],[-88,-22],[-72,13],[-171,-17],[-57,17],[-64,61],[-75,5],[0,102],[26,42],[150,80],[158,17],[82,-17],[55,-43],[40,80],[171,22],[107,80],[55,-15],[112,-139],[95,-51]],[[86205,10388],[7,39],[-65,135],[-97,17],[-25,123],[-139,42],[59,163],[-69,242],[-45,-3],[-88,-54],[-47,10],[-123,94],[94,95],[142,58],[1,90],[67,43],[-45,65],[118,36],[104,112],[463,-559],[62,-108],[108,-47],[216,-31],[-17,-66],[0,-231],[-22,-59],[-106,-76],[-40,-58],[107,-3],[78,84],[51,-109],[34,-116],[-31,-46],[-71,66],[-14,-64],[91,-60],[-39,-83],[-147,85],[-83,14],[-40,-43],[-13,-78],[-167,-76],[-122,46],[-61,42],[-25,54],[47,62],[-109,112],[1,41]],[[76602,11155],[68,-46],[29,-54],[-15,-163],[-45,-58],[-19,-90],[-101,-60],[-51,-72],[-78,-19],[-237,-136],[-48,4],[-41,58],[-35,165],[50,49],[1,125],[-17,74],[-117,99],[11,209],[46,65],[11,195],[-31,73],[31,51],[-10,104],[81,27],[104,72],[27,39],[-35,197],[26,27],[101,22],[93,-83],[149,-80],[70,-154],[-18,-132],[51,-254],[-52,-193],[1,-61]]],"transform":{"scale":[0.0004071158875588751,0.0003358985412754124],"translate":[112.91944420700007,-43.63990650799991]},"objects":{"states":{"type":"GeometryCollection","geometries":[{"arcs":[[[0]],[[1]],[[2]],[[3,4,5]],[[6]],[[7]],[[8]],[[9]],[[10]],[[11]],[[12]],[[13]],[[14]],[[15]],[[16]]],"type":"MultiPolygon","properties":{"state":"WA","state_name":"Western Australia","state_code":"5"}},{"arcs":[[[-5,17,18,19]],[[20]],[[21]],[[22]],[[23]],[[24]],[[25]],[[26]],[[27]],[[28]],[[29]],[[30]],[[31]],[[32]],[[33]],[[34]],[[35]],[[36]],[[37]],[[38]],[[39]],[[40]],[[41]],[[42]],[[43]],[[44]],[[45]],[[46]],[[47]]],"type":"MultiPolygon","properties":{"state":"NT","state_name":"Northern Territory","state_code":"7"}},{"arcs":[[[-6,-20,48,49,50,51]],[[52]],[[53]],[[54]],[[55]],[[56]],[[57]]],"type":"MultiPolygon","properties":{"state":"SA","state_name":"South Australia","state_code":"4"}},{"arcs":[[[-19,58,59,-49]],[[60]],[[61]],[[62]],[[63]],[[64]],[[65]],[[66]],[[67]],[[68]],[[69]],[[70]],[[71]],[[72]],[[73]],[[74]],[[75]],[[76]],[[77]],[[78]],[[79]],[[80]],[[81]],[[82]],[[83]],[[84]]],"type":"MultiPolygon","properties":{"state":"QLD","state_name":"Queensland","state_code":"3"}},{"arcs":[[-50,-60,85,86],[87]],"type":"Polygon","properties":{"state":"NSW","state_name":"New South Wales","state_code":"1"}},{"arcs":[[[-51,-87,88]],[[89]],[[90]],[[91]]],"type":"MultiPolygon","properties":{"state":"VIC","state_name":"Victoria","state_code":"2"}},{"arcs":[[[92]],[[93]],[[94]],[[95]],[[96]],[[97]],[[98]],[[99]],[[100]],[[101]],[[102]],[[103]]],"type":"MultiPolygon","properties":{"state":"TAS","state_name":"Tasmania","state_code":"6"}},{"arcs":[[-88]],"type":"Polygon","properties":{"state":"ACT","state_name":"Australian Capital Territory","state_code":"8"}}]},"land":{"type":"GeometryCollection","geometries":[{"arcs":[[[0]],[[1]],[[2]],[[3,17,58,85,88,51]],[[6]],[[7]],[[8]],[[9]],[[10]],[[11]],[[12]],[[13]],[[14]],[[15]],[[16]],[[20]],[[21]],[[22]],[[23]],[[24]],[[25]],[[26]],[[27]],[[28]],[[29]],[[30]],[[31]],[[32]],[[33]],[[34]],[[35]],[[36]],[[37]],[[38]],[[39]],[[40]],[[41]],[[42]],[[43]],[[44]],[[45]],[[46]],[[47]],[[52]],[[53]],[[54]],[[55]],[[56]],[[57]],[[60]],[[61]],[[62]],[[63]],[[64]],[[65]],[[66]],[[67]],[[68]],[[69]],[[70]],[[71]],[[72]],[[73]],[[74]],[[75]],[[76]],[[77]],[[78]],[[79]],[[80]],[[81]],[[82]],[[83]],[[84]],[[89]],[[90]],[[91]],[[92]],[[93]],[[94]],[[95]],[[96]],[[97]],[[98]],[[99]],[[100]],[[101]],[[102]],[[103]]],"type":"MultiPolygon"}]}}}