{"type":"Topology","arcs":[[[86596,98860],[396,-510],[1012,-171],[-257,1278],[-1083,542],[3084,0],[10251,0],[0,-99999],[-99999,0],[0,99999],[21656,0],[398,-572],[640,-268],[562,250],[244,590],[6057,0],[104,-888],[464,-94],[1239,557],[363,425],[50132,0],[1582,-530],[3155,-609]],[[13515,28955],[653,-349],[2314,-314],[1204,317],[1651,1448],[1208,319],[877,1125],[1226,33],[2145,389],[1427,-136],[195,-335],[1362,288],[935,-278],[962,434],[1035,2020],[537,488],[838,216],[2518,1674],[1874,-40],[1175,134],[1626,564],[1910,1040],[2573,353],[1420,-71],[784,309],[1256,-573],[1072,-888],[1180,145],[989,-650],[737,3],[1484,-1045],[-290,-571],[436,-1190],[1065,-467],[212,-851],[645,-801],[1005,-2951],[1702,2599],[1754,1144],[446,1245],[1023,1208],[173,-924],[-305,-304],[173,-1081],[-952,-1663],[-224,-2149],[-819,-7],[-284,-926],[1757,277],[494,1962],[370,818],[871,-1696],[46,-746],[-710,-1680],[733,-85],[1459,843],[-337,-977],[1111,-1164],[671,-1616],[-159,-1667],[1832,-2236],[834,-139],[899,-819],[654,263],[1928,-515],[2015,-1055],[1223,1025],[1225,721],[492,886],[497,-547],[-453,-722],[1911,-923],[315,-671],[2003,681],[1171,1270],[1046,814],[839,296],[2252,81],[1378,782],[60,1951],[511,2891],[809,1770],[267,104],[587,2516],[590,764],[548,1950],[716,1275],[764,410],[665,910],[193,1124],[836,1745],[226,1508],[-37,982],[525,1917],[165,1720],[558,1246],[-63,1754],[-998,2989],[99,604],[-170,1940],[176,971],[-531,787],[-16,733],[-563,657],[-431,1142],[-709,585],[-494,1133],[-874,539],[-1429,1584],[-173,2519],[-484,49],[-1011,1128],[-809,-789],[-1085,3758],[-1133,1557],[165,831],[-1835,1200],[-716,705],[-364,699],[-608,-43],[-1430,898],[-401,679],[79,821],[-654,803],[204,1821],[-487,1615],[-1035,1897],[70,999],[-405,1657],[35,1524],[-1391,1287],[-380,745],[-1112,-660],[-446,326],[-452,1736],[83,850],[-403,2296],[-633,962],[149,997],[-666,380],[-77,1470],[-248,847],[-579,866],[-626,-683],[-64,-934],[-408,-1780],[-595,-1700],[379,-250],[-519,-1042],[70,-902],[-376,-1538],[265,-1015],[-156,-907],[223,-1675],[-378,-1568],[-86,-1326],[-419,-1648],[-550,-1052],[-295,-1143],[-694,-600],[-1033,-223],[-1712,1068],[-519,1227],[-1662,517],[-1177,1387],[-1525,1013],[-473,-46],[-1072,927],[-187,476],[-1467,1151],[-273,692],[1040,1729],[230,980],[-135,1445],[1450,859],[-124,627],[892,1241],[-496,353],[-389,768],[-588,-497],[-409,-831],[-638,1472],[-1240,-899],[-1060,678],[-1072,-66],[-724,502],[-1563,361],[-348,722],[-744,-151],[-913,862],[-281,-848],[743,27],[432,-450],[-196,-1318],[-461,-369],[-2030,-108],[-474,283],[-427,-471],[-764,-183],[-119,-685],[-473,-118],[-504,-770],[200,-985],[-915,-773],[-281,-1163],[-720,-1179],[815,-1134],[-640,-411],[-2738,519],[-1145,1590],[-1673,1289],[-725,-1191],[-362,405],[-635,-271],[-197,-1087],[-738,304],[-1092,-934],[140,-656],[-878,-618],[-995,-1707],[424,-1015],[-1560,-768],[-283,542],[-518,-852],[625,-1077],[-550,-1766],[-833,1779],[-372,1218],[-544,-1002],[-627,-522],[-591,-981],[168,-1871],[268,-195],[-1146,-1258],[-739,-1798],[-682,-1062],[-656,-534],[-1482,-698],[-1327,-369],[-1047,123],[-767,-761],[-1201,-324],[-1724,-989],[-1520,193],[-1513,-1076],[-1206,-1318],[-1298,-698],[-557,-589],[-489,-1141],[-465,52],[-447,1097],[-599,-1996],[244,-1102],[-83,-1127],[-443,-899],[-294,-2008],[550,-1547],[1181,-2499],[4,-1251],[-595,88],[-136,660],[-740,1150],[-313,-252],[421,-1101],[574,-667],[-590,-645],[-419,1293],[-343,-389],[1040,-1732],[693,-1427],[298,-2096],[809,-1320],[198,-940],[718,-1605],[78,-2236],[396,-1691],[1134,-2533],[20,-2495],[-194,-283],[140,-1503],[-364,-967],[-726,-320],[-408,366],[33,-2116],[1559,-772],[1067,-970]],[[80335,4279],[1346,1876],[461,-1069],[424,180],[-122,1670],[213,894],[606,627],[-18,3123],[-705,478],[-1117,-634],[-1011,26],[-1462,-489],[-1078,397],[-1171,728],[-1009,138],[-375,-741],[286,-1251],[1001,-1717],[65,-1499],[477,-1092],[1208,-1773],[1981,128]],[[99999,99997],[0,0],[-1087,0],[-1087,0],[-1087,0],[-1087,0],[-1087,0],[-1087,0],[-1087,0],[-1087,0],[-1087,0],[-1087,0],[-1087,0],[-1087,0],[-6,0]],[[86949,99997],[-1081,0],[-1086,0],[-1087,0],[-1087,0],[-1087,0],[-1087,0],[-1087,0],[-1087,0],[-1087,0],[-1087,0],[-1087,0],[-1087,0],[-1087,0],[-1087,0],[-1087,0],[-1087,0],[-1087,0],[-1087,0],[-1087,0],[-1087,0],[-6,0]],[[65210,99997],[-1080,0],[-1087,0],[-1087,0],[-1087,0],[-1087,0],[-1087,0],[-1087,0],[-1087,0],[-1087,0],[-1087,0],[-1087,0],[-1087,0],[-1087,0],[-1087,0],[-1087,0],[-1087,0],[-1087,0],[-1087,0],[-1087,0],[-1087,0],[-5,0]],[[43472,99997],[-1081,0],[-1087,0],[-1087,0],[-1087,0],[-1087,0],[-1087,0],[-1087,0],[-1087,0],[-1087,0],[-1087,0],[-1087,0],[-1087,0],[-1087,0],[-1087,0],[-1086,0],[-1087,0],[-1087,0],[-1087,0],[-1087,0],[-1087,0],[-6,0]],[[21733,99997],[-1081,0],[-1087,0],[-1087,0],[-1087,0],[-1087,0],[-1087,0],[-1087,0],[-1087,0],[-1087,0],[-1087,0],[-1087,0],[-1087,0],[-1087,0],[-1087,0],[-1086,0],[-1087,0],[-1087,0],[-1087,0],[-1087,0],[-1087,0]],[[99999,71426],[0,0],[-1087,0],[-1087,0],[-1087,0],[-1087,0],[-1087,0],[-1087,0],[-1087,0],[-1087,0],[-1087,0],[-1087,0],[-1087,0],[-1087,0],[-6,0]],[[86949,71426],[-1081,0],[-1086,0],[-1087,0],[-1087,0],[-1087,0],[-1087,0],[-1087,0],[-1087,0],[-1087,0],[-1087,0],[-1087,0],[-1087,0],[-1087,0],[-1087,0],[-1087,0],[-1087,0],[-1087,0],[-1087,0],[-1087,0],[-1087,0],[-6,0]],[[65210,71426],[-1080,0],[-1087,0],[-1087,0],[-1087,0],[-1087,0],[-1087,0],[-1087,0],[-1087,0],[-1087,0],[-1087,0],[-1087,0],[-1087,0],[-1087,0],[-1087,0],[-1087,0],[-1087,0],[-1087,0],[-1087,0],[-1087,0],[-1087,0],[-5,0]],[[43472,71426],[-1081,0],[-1087,0],[-1087,0],[-1087,0],[-1087,0],[-1087,0],[-1087,0],[-1087,0],[-1087,0],[-1087,0],[-1087,0],[-1087,0],[-1087,0],[-1087,0],[-1086,0],[-1087,0],[-1087,0],[-1087,0],[-1087,0],[-1087,0],[-6,0]],[[21733,71426],[-1081,0],[-1087,0],[-1087,0],[-1087,0],[-1087,0],[-1087,0],[-1087,0],[-1087,0],[-1087,0],[-1087,0],[-1087,0],[-1087,0],[-1087,0],[-1087,0],[-1086,0],[-1087,0],[-1087,0],[-1087,0],[-1087,0],[-1087,0]],[[99999,42855],[-1087,0],[-1087,0],[-1087,0],[-1087,0],[-1087,0],[-1087,0],[-1087,0],[-1087,0],[-1087,0],[-1086,0],[-1087,0],[-1087,0],[-7,0]],[[86949,42855],[-1080,0],[-1087,0],[-1087,0],[-1087,0],[-1087,0],[-1087,0],[-1087,0],[-1087,0],[-1087,0],[-1087,0],[-1087,0],[-1087,0],[-1087,0],[-1087,0],[-1087,0],[-1087,0],[-1086,0],[-1087,0],[-1087,0],[-1087,0],[-7,0]],[[65210,42855],[-1080,0],[-1087,0],[-1087,0],[-1087,0],[-1087,0],[-1087,0],[-1087,0],[-1087,0],[-1087,0],[-1087,0],[-1087,0],[-1087,0],[-1087,0],[-1087,0],[-1087,0],[-1087,0],[-1086,0],[-1087,0],[-1087,0],[-1087,0],[-6,0]],[[43472,42855],[-1081,0],[-1087,0],[-1087,0],[-1087,0],[-1087,0],[-1087,0],[-1087,0],[-1087,0],[-1087,0],[-1087,0],[-1087,0],[-1087,0],[-1086,0],[-1087,0],[-1087,0],[-1087,0],[-1087,0],[-1087,0],[-1087,0],[-1087,0],[-6,0]],[[21733,42855],[-1081,0],[-1087,0],[-1087,0],[-1087,0],[-1087,0],[-1087,0],[-1087,0],[-1087,0],[-1087,0],[-1087,0],[-1086,0],[-1087,0],[-1087,0],[-1087,0],[-1087,0],[-1087,0],[-1087,0],[-1087,0],[-1087,0],[-1087,0]],[[99999,14285],[-1087,0],[-1087,0],[-1087,0],[-1087,0],[-1087,0],[-1087,0],[-1087,0],[-1087,0],[-1087,0],[-1086,0],[-1087,0],[-1087,0],[-7,0]],[[86949,14285],[-1080,0],[-1087,0],[-1087,0],[-1087,0],[-1087,0],[-1087,0],[-1087,0],[-1087,0],[-1087,0],[-1087,0],[-1087,0],[-1087,0],[-1087,0],[-1087,0],[-1087,0],[-1086,0],[-1087,0],[-1087,0],[-1087,0],[-1087,0],[-7,0]],[[65210,14285],[-1080,0],[-1087,0],[-1087,0],[-1087,0],[-1087,0],[-1087,0],[-1087,0],[-1087,0],[-1087,0],[-1087,0],[-1087,0],[-1087,0],[-1087,0],[-1087,0],[-1087,0],[-1086,0],[-1087,0],[-1087,0],[-1087,0],[-1087,0],[-6,0]],[[43472,14285],[-1081,0],[-1087,0],[-1087,0],[-1087,0],[-1087,0],[-1087,0],[-1087,0],[-1087,0],[-1087,0],[-1087,0],[-1087,0],[-1087,0],[-1086,0],[-1087,0],[-1087,0],[-1087,0],[-1087,0],[-1087,0],[-1087,0],[-1087,0],[-6,0]],[[21733,14285],[-1081,0],[-1087,0],[-1087,0],[-1087,0],[-1087,0],[-1087,0],[-1087,0],[-1087,0],[-1087,0],[-1087,0],[-1086,0],[-1087,0],[-1087,0],[-1087,0],[-1087,0],[-1087,0],[-1087,0],[-1087,0],[-1087,0],[-1087,0]],[[86949,0],[0,0],[0,1429],[0,1428],[0,1429],[0,1428],[0,1429],[0,1428],[0,1429],[0,1429],[0,1428],[0,1428]],[[86949,14285],[0,1],[0,1428],[0,1429],[0,1428],[0,1429],[0,1428],[0,1429],[0,1429],[0,1428],[0,1429],[0,1428],[0,1429],[0,1428],[0,1429],[0,1428],[0,1429],[0,1429],[0,1428],[0,1429],[0,1428],[0,1427]],[[86949,42855],[0,2],[0,1428],[0,1429],[0,1428],[0,1429],[0,1429],[0,1428],[0,1429],[0,1428],[0,1429],[0,1428],[0,1429],[0,1428],[0,1429],[0,1429],[0,1428],[0,1429],[0,1428],[0,1429],[0,1428],[0,1427]],[[86949,71426],[0,2],[0,1429],[0,1428],[0,1429],[0,1428],[0,1429],[0,1428],[0,1429],[0,1428],[0,1429],[0,1429],[0,1428],[0,1429],[0,1428],[0,1429],[0,1428],[0,1429],[0,1428],[0,1429],[0,1429],[0,1426]],[[86949,99997],[0,2]],[[65210,0],[0,0],[0,1429],[0,1428],[0,1429],[0,1428],[0,1429],[0,1428],[0,1429],[0,1429],[0,1428],[0,1428]],[[65210,14285],[0,1],[0,1428],[0,1429],[0,1428],[0,1429],[0,1428],[0,1429],[0,1429],[0,1428],[0,1429],[0,1428],[0,1429],[0,1428],[0,1429],[0,1428],[0,1429],[0,1429],[0,1428],[0,1429],[0,1428],[0,1427]],[[65210,42855],[0,2],[0,1428],[0,1429],[0,1428],[0,1429],[0,1429],[0,1428],[0,1429],[0,1428],[0,1429],[0,1428],[0,1429],[0,1428],[0,1429],[0,1429],[0,1428],[0,1429],[0,1428],[0,1429],[0,1428],[0,1427]],[[65210,71426],[0,2],[0,1429],[0,1428],[0,1429],[0,1428],[0,1429],[0,1428],[0,1429],[0,1428],[0,1429],[0,1429],[0,1428],[0,1429],[0,1428],[0,1429],[0,1428],[0,1429],[0,1428],[0,1429],[0,1429],[0,1426]],[[65210,99997],[0,2]],[[43472,0],[0,0],[0,1429],[0,1428],[0,1429],[0,1428],[0,1429],[0,1428],[0,1429],[0,1429],[0,1428],[0,1428]],[[43472,14285],[0,1],[0,1428],[0,1429],[0,1428],[0,1429],[0,1428],[0,1429],[0,1429],[0,1428],[0,1429],[0,1428],[0,1429],[0,1428],[0,1429],[0,1428],[0,1429],[0,1429],[0,1428],[0,1429],[0,1428],[0,1427]],[[43472,42855],[0,2],[0,1428],[0,1429],[0,1428],[0,1429],[0,1429],[0,1428],[0,1429],[0,1428],[0,1429],[0,1428],[0,1429],[0,1428],[0,1429],[0,1429],[0,1428],[0,1429],[0,1428],[0,1429],[0,1428],[0,1427]],[[43472,71426],[0,2],[0,1429],[0,1428],[0,1429],[0,1428],[0,1429],[0,1428],[0,1429],[0,1428],[0,1429],[0,1429],[0,1428],[0,1429],[0,1428],[0,1429],[0,1428],[0,1429],[0,1428],[0,1429],[0,1429],[0,1426]],[[43472,99997],[0,2]],[[21733,0],[0,0],[0,1429],[0,1428],[0,1429],[0,1428],[0,1429],[0,1428],[0,1429],[0,1429],[0,1428],[0,1428]],[[21733,14285],[0,1],[0,1428],[0,1429],[0,1428],[0,1429],[0,1428],[0,1429],[0,1429],[0,1428],[0,1429],[0,1428],[0,1429],[0,1428],[0,1429],[0,1428],[0,1429],[0,1429],[0,1428],[0,1429],[0,1428],[0,1427]],[[21733,42855],[0,2],[0,1428],[0,1429],[0,1428],[0,1429],[0,1429],[0,1428],[0,1429],[0,1428],[0,1429],[0,1428],[0,1429],[0,1428],[0,1429],[0,1429],[0,1428],[0,1429],[0,1428],[0,1429],[0,1428],[0,1427]],[[21733,71426],[0,2],[0,1429],[0,1428],[0,1429],[0,1428],[0,1429],[0,1428],[0,1429],[0,1428],[0,1429],[0,1429],[0,1428],[0,1429],[0,1428],[0,1429],[0,1428],[0,1429],[0,1428],[0,1429],[0,1429],[0,1426]],[[21733,99997],[0,2]]],"transform":{"scale":[0.0004600046000460005,0.0003500035000350003],"translate":[110,-45]},"objects":{"ocean":{"type":"GeometryCollection","geometries":[{"arcs":[[0],[1],[2]],"type":"Polygon"}]},"graticules":{"type":"GeometryCollection","geometries":[{"type":"LineString","arcs":[3,4,5,6,7]},{"type":"LineString","arcs":[8,9,10,11,12]},{"type":"LineString","arcs":[13,14,15,16,17]},{"type":"LineString","arcs":[18,19,20,21,22]},{"type":"LineString","arcs":[23,24,25,26,27]},{"type":"LineString","arcs":[28,29,30,31,32]},{"type":"LineString","arcs":[33,34,35,36,37]},{"type":"LineString","arcs":[38,39,40,41,42]}]}}}